<?xml version="1.0" encoding="UTF-8"?>
<gpx version="1.1" creator="RunNavi nationwide seed" xmlns="http://www.topografix.com/GPX/1/1">
  <metadata>
    <name>大濠公園 周回 4.9K</name>
    <copyright author="OpenStreetMap contributors">
      <license>https://opendatacommons.org/licenses/odbl/1-0/</license>
    </copyright>
  </metadata>
  <trk><name>大濠公園 周回 4.9K</name><trkseg>
    <trkpt lat="33.5918891" lon="130.3755505"></trkpt>
    <trkpt lat="33.5926258" lon="130.3756890"></trkpt>
    <trkpt lat="33.5926593" lon="130.3757104"></trkpt>
    <trkpt lat="33.5926783" lon="130.3757574"></trkpt>
    <trkpt lat="33.5925498" lon="130.3774458"></trkpt>
    <trkpt lat="33.5925466" lon="130.3774766"></trkpt>
    <trkpt lat="33.5925431" lon="130.3775102"></trkpt>
    <trkpt lat="33.5924783" lon="130.3782787"></trkpt>
    <trkpt lat="33.5924759" lon="130.3783054"></trkpt>
    <trkpt lat="33.5924727" lon="130.3783269"></trkpt>
    <trkpt lat="33.5924124" lon="130.3790283"></trkpt>
    <trkpt lat="33.5924023" lon="130.3790552"></trkpt>
    <trkpt lat="33.5923621" lon="130.3790806"></trkpt>
    <trkpt lat="33.5915913" lon="130.3789868"></trkpt>
    <trkpt lat="33.5915779" lon="130.3789720"></trkpt>
    <trkpt lat="33.5916296" lon="130.3782876"></trkpt>
    <trkpt lat="33.5916329" lon="130.3782738"></trkpt>
    <trkpt lat="33.5916391" lon="130.3782472"></trkpt>
    <trkpt lat="33.5916460" lon="130.3782175"></trkpt>
    <trkpt lat="33.5916433" lon="130.3781757"></trkpt>
    <trkpt lat="33.5917025" lon="130.3774414"></trkpt>
    <trkpt lat="33.5917091" lon="130.3773858"></trkpt>
    <trkpt lat="33.5917131" lon="130.3773522"></trkpt>
    <trkpt lat="33.5917114" lon="130.3773274"></trkpt>
    <trkpt lat="33.5918611" lon="130.3755706"></trkpt>
    <trkpt lat="33.5918891" lon="130.3755505"></trkpt>
    <trkpt lat="33.5926258" lon="130.3756890"></trkpt>
    <trkpt lat="33.5926593" lon="130.3757104"></trkpt>
    <trkpt lat="33.5926783" lon="130.3757574"></trkpt>
    <trkpt lat="33.5925498" lon="130.3774458"></trkpt>
    <trkpt lat="33.5925466" lon="130.3774766"></trkpt>
    <trkpt lat="33.5925431" lon="130.3775102"></trkpt>
    <trkpt lat="33.5924783" lon="130.3782787"></trkpt>
    <trkpt lat="33.5924759" lon="130.3783054"></trkpt>
    <trkpt lat="33.5924727" lon="130.3783269"></trkpt>
    <trkpt lat="33.5924124" lon="130.3790283"></trkpt>
    <trkpt lat="33.5924023" lon="130.3790552"></trkpt>
    <trkpt lat="33.5923621" lon="130.3790806"></trkpt>
    <trkpt lat="33.5915913" lon="130.3789868"></trkpt>
    <trkpt lat="33.5915779" lon="130.3789720"></trkpt>
    <trkpt lat="33.5916296" lon="130.3782876"></trkpt>
    <trkpt lat="33.5916329" lon="130.3782738"></trkpt>
    <trkpt lat="33.5916391" lon="130.3782472"></trkpt>
    <trkpt lat="33.5916460" lon="130.3782175"></trkpt>
    <trkpt lat="33.5916433" lon="130.3781757"></trkpt>
    <trkpt lat="33.5917025" lon="130.3774414"></trkpt>
    <trkpt lat="33.5917091" lon="130.3773858"></trkpt>
    <trkpt lat="33.5917131" lon="130.3773522"></trkpt>
    <trkpt lat="33.5917114" lon="130.3773274"></trkpt>
    <trkpt lat="33.5918611" lon="130.3755706"></trkpt>
    <trkpt lat="33.5918891" lon="130.3755505"></trkpt>
    <trkpt lat="33.5926258" lon="130.3756890"></trkpt>
    <trkpt lat="33.5926593" lon="130.3757104"></trkpt>
    <trkpt lat="33.5926783" lon="130.3757574"></trkpt>
    <trkpt lat="33.5925498" lon="130.3774458"></trkpt>
    <trkpt lat="33.5925466" lon="130.3774766"></trkpt>
    <trkpt lat="33.5925431" lon="130.3775102"></trkpt>
    <trkpt lat="33.5924783" lon="130.3782787"></trkpt>
    <trkpt lat="33.5924759" lon="130.3783054"></trkpt>
    <trkpt lat="33.5924727" lon="130.3783269"></trkpt>
    <trkpt lat="33.5924124" lon="130.3790283"></trkpt>
    <trkpt lat="33.5924023" lon="130.3790552"></trkpt>
    <trkpt lat="33.5923621" lon="130.3790806"></trkpt>
    <trkpt lat="33.5915913" lon="130.3789868"></trkpt>
    <trkpt lat="33.5915779" lon="130.3789720"></trkpt>
    <trkpt lat="33.5916296" lon="130.3782876"></trkpt>
    <trkpt lat="33.5916329" lon="130.3782738"></trkpt>
    <trkpt lat="33.5916391" lon="130.3782472"></trkpt>
    <trkpt lat="33.5916460" lon="130.3782175"></trkpt>
    <trkpt lat="33.5916433" lon="130.3781757"></trkpt>
    <trkpt lat="33.5917025" lon="130.3774414"></trkpt>
    <trkpt lat="33.5917091" lon="130.3773858"></trkpt>
    <trkpt lat="33.5917131" lon="130.3773522"></trkpt>
    <trkpt lat="33.5917114" lon="130.3773274"></trkpt>
    <trkpt lat="33.5918611" lon="130.3755706"></trkpt>
    <trkpt lat="33.5918891" lon="130.3755505"></trkpt>
    <trkpt lat="33.5926258" lon="130.3756890"></trkpt>
    <trkpt lat="33.5926593" lon="130.3757104"></trkpt>
    <trkpt lat="33.5926783" lon="130.3757574"></trkpt>
    <trkpt lat="33.5925498" lon="130.3774458"></trkpt>
    <trkpt lat="33.5925466" lon="130.3774766"></trkpt>
    <trkpt lat="33.5925431" lon="130.3775102"></trkpt>
    <trkpt lat="33.5924783" lon="130.3782787"></trkpt>
    <trkpt lat="33.5924759" lon="130.3783054"></trkpt>
    <trkpt lat="33.5924727" lon="130.3783269"></trkpt>
    <trkpt lat="33.5924124" lon="130.3790283"></trkpt>
    <trkpt lat="33.5924023" lon="130.3790552"></trkpt>
    <trkpt lat="33.5923621" lon="130.3790806"></trkpt>
    <trkpt lat="33.5915913" lon="130.3789868"></trkpt>
    <trkpt lat="33.5915779" lon="130.3789720"></trkpt>
    <trkpt lat="33.5916296" lon="130.3782876"></trkpt>
    <trkpt lat="33.5916329" lon="130.3782738"></trkpt>
    <trkpt lat="33.5916391" lon="130.3782472"></trkpt>
    <trkpt lat="33.5916460" lon="130.3782175"></trkpt>
    <trkpt lat="33.5916433" lon="130.3781757"></trkpt>
    <trkpt lat="33.5917025" lon="130.3774414"></trkpt>
    <trkpt lat="33.5917091" lon="130.3773858"></trkpt>
    <trkpt lat="33.5917131" lon="130.3773522"></trkpt>
    <trkpt lat="33.5917114" lon="130.3773274"></trkpt>
    <trkpt lat="33.5918611" lon="130.3755706"></trkpt>
    <trkpt lat="33.5918891" lon="130.3755505"></trkpt>
    <trkpt lat="33.5926258" lon="130.3756890"></trkpt>
    <trkpt lat="33.5926593" lon="130.3757104"></trkpt>
    <trkpt lat="33.5926783" lon="130.3757574"></trkpt>
    <trkpt lat="33.5925498" lon="130.3774458"></trkpt>
    <trkpt lat="33.5925466" lon="130.3774766"></trkpt>
    <trkpt lat="33.5925431" lon="130.3775102"></trkpt>
    <trkpt lat="33.5924783" lon="130.3782787"></trkpt>
    <trkpt lat="33.5924759" lon="130.3783054"></trkpt>
    <trkpt lat="33.5924727" lon="130.3783269"></trkpt>
    <trkpt lat="33.5924124" lon="130.3790283"></trkpt>
    <trkpt lat="33.5924023" lon="130.3790552"></trkpt>
    <trkpt lat="33.5923621" lon="130.3790806"></trkpt>
    <trkpt lat="33.5915913" lon="130.3789868"></trkpt>
    <trkpt lat="33.5915779" lon="130.3789720"></trkpt>
    <trkpt lat="33.5916296" lon="130.3782876"></trkpt>
    <trkpt lat="33.5916329" lon="130.3782738"></trkpt>
    <trkpt lat="33.5916391" lon="130.3782472"></trkpt>
    <trkpt lat="33.5916460" lon="130.3782175"></trkpt>
    <trkpt lat="33.5916433" lon="130.3781757"></trkpt>
    <trkpt lat="33.5917025" lon="130.3774414"></trkpt>
    <trkpt lat="33.5917091" lon="130.3773858"></trkpt>
    <trkpt lat="33.5917131" lon="130.3773522"></trkpt>
    <trkpt lat="33.5917114" lon="130.3773274"></trkpt>
    <trkpt lat="33.5918611" lon="130.3755706"></trkpt>
    <trkpt lat="33.5918891" lon="130.3755505"></trkpt>
    <trkpt lat="33.5926258" lon="130.3756890"></trkpt>
    <trkpt lat="33.5926593" lon="130.3757104"></trkpt>
    <trkpt lat="33.5926783" lon="130.3757574"></trkpt>
    <trkpt lat="33.5925498" lon="130.3774458"></trkpt>
    <trkpt lat="33.5925466" lon="130.3774766"></trkpt>
    <trkpt lat="33.5925431" lon="130.3775102"></trkpt>
    <trkpt lat="33.5924783" lon="130.3782787"></trkpt>
    <trkpt lat="33.5924759" lon="130.3783054"></trkpt>
    <trkpt lat="33.5924727" lon="130.3783269"></trkpt>
    <trkpt lat="33.5924124" lon="130.3790283"></trkpt>
    <trkpt lat="33.5924023" lon="130.3790552"></trkpt>
    <trkpt lat="33.5923621" lon="130.3790806"></trkpt>
    <trkpt lat="33.5915913" lon="130.3789868"></trkpt>
    <trkpt lat="33.5915779" lon="130.3789720"></trkpt>
    <trkpt lat="33.5916296" lon="130.3782876"></trkpt>
    <trkpt lat="33.5916329" lon="130.3782738"></trkpt>
    <trkpt lat="33.5916391" lon="130.3782472"></trkpt>
    <trkpt lat="33.5916460" lon="130.3782175"></trkpt>
    <trkpt lat="33.5916433" lon="130.3781757"></trkpt>
    <trkpt lat="33.5917025" lon="130.3774414"></trkpt>
    <trkpt lat="33.5917091" lon="130.3773858"></trkpt>
    <trkpt lat="33.5917131" lon="130.3773522"></trkpt>
    <trkpt lat="33.5917114" lon="130.3773274"></trkpt>
    <trkpt lat="33.5918611" lon="130.3755706"></trkpt>
    <trkpt lat="33.5918891" lon="130.3755505"></trkpt>
  </trkseg></trk>
</gpx>