<?xml version="1.0" encoding="UTF-8"?>
<gpx version="1.1" creator="RunNavi nationwide seed" xmlns="http://www.topografix.com/GPX/1/1">
  <metadata>
    <name>みなとのもり公園 · 神戸港 周回 4.6K</name>
    <copyright author="OpenStreetMap contributors">
      <license>https://opendatacommons.org/licenses/odbl/1-0/</license>
    </copyright>
  </metadata>
  <trk><name>みなとのもり公園 · 神戸港 周回 4.6K</name><trkseg>
    <trkpt lat="34.6904461" lon="135.1921166"></trkpt>
    <trkpt lat="34.6903806" lon="135.1919865"></trkpt>
    <trkpt lat="34.6902641" lon="135.1917582"></trkpt>
    <trkpt lat="34.6900634" lon="135.1913636"></trkpt>
    <trkpt lat="34.6898176" lon="135.1909224"></trkpt>
    <trkpt lat="34.6898170" lon="135.1908593"></trkpt>
    <trkpt lat="34.6901367" lon="135.1906566"></trkpt>
    <trkpt lat="34.6903521" lon="135.1905214"></trkpt>
    <trkpt lat="34.6906114" lon="135.1903621"></trkpt>
    <trkpt lat="34.6907795" lon="135.1902704"></trkpt>
    <trkpt lat="34.6908133" lon="135.1902641"></trkpt>
    <trkpt lat="34.6908920" lon="135.1903915"></trkpt>
    <trkpt lat="34.6916880" lon="135.1917251"></trkpt>
    <trkpt lat="34.6917249" lon="135.1917962"></trkpt>
    <trkpt lat="34.6918472" lon="135.1920053"></trkpt>
    <trkpt lat="34.6920805" lon="135.1924583"></trkpt>
    <trkpt lat="34.6921829" lon="135.1926795"></trkpt>
    <trkpt lat="34.6922180" lon="135.1927366"></trkpt>
    <trkpt lat="34.6923058" lon="135.1928763"></trkpt>
    <trkpt lat="34.6923686" lon="135.1929527"></trkpt>
    <trkpt lat="34.6927089" lon="135.1935781"></trkpt>
    <trkpt lat="34.6928803" lon="135.1940109"></trkpt>
    <trkpt lat="34.6928830" lon="135.1940178"></trkpt>
    <trkpt lat="34.6928724" lon="135.1942134"></trkpt>
    <trkpt lat="34.6928259" lon="135.1943123"></trkpt>
    <trkpt lat="34.6926857" lon="135.1943978"></trkpt>
    <trkpt lat="34.6926504" lon="135.1944796"></trkpt>
    <trkpt lat="34.6924481" lon="135.1945931"></trkpt>
    <trkpt lat="34.6923182" lon="135.1946658"></trkpt>
    <trkpt lat="34.6922638" lon="135.1946963"></trkpt>
    <trkpt lat="34.6918257" lon="135.1949277"></trkpt>
    <trkpt lat="34.6916647" lon="135.1949787"></trkpt>
    <trkpt lat="34.6915983" lon="135.1949821"></trkpt>
    <trkpt lat="34.6915389" lon="135.1949745"></trkpt>
    <trkpt lat="34.6914837" lon="135.1949293"></trkpt>
    <trkpt lat="34.6914284" lon="135.1948383"></trkpt>
    <trkpt lat="34.6913662" lon="135.1946623"></trkpt>
    <trkpt lat="34.6909505" lon="135.1935286"></trkpt>
    <trkpt lat="34.6909232" lon="135.1934504"></trkpt>
    <trkpt lat="34.6908203" lon="135.1931686"></trkpt>
    <trkpt lat="34.6907083" lon="135.1928463"></trkpt>
    <trkpt lat="34.6906032" lon="135.1925440"></trkpt>
    <trkpt lat="34.6905278" lon="135.1923271"></trkpt>
    <trkpt lat="34.6904742" lon="135.1921863"></trkpt>
    <trkpt lat="34.6903806" lon="135.1919865"></trkpt>
    <trkpt lat="34.6902641" lon="135.1917582"></trkpt>
    <trkpt lat="34.6900634" lon="135.1913636"></trkpt>
    <trkpt lat="34.6898176" lon="135.1909224"></trkpt>
    <trkpt lat="34.6898170" lon="135.1908593"></trkpt>
    <trkpt lat="34.6901367" lon="135.1906566"></trkpt>
    <trkpt lat="34.6903521" lon="135.1905214"></trkpt>
    <trkpt lat="34.6906114" lon="135.1903621"></trkpt>
    <trkpt lat="34.6907795" lon="135.1902704"></trkpt>
    <trkpt lat="34.6908133" lon="135.1902641"></trkpt>
    <trkpt lat="34.6908920" lon="135.1903915"></trkpt>
    <trkpt lat="34.6916880" lon="135.1917251"></trkpt>
    <trkpt lat="34.6917249" lon="135.1917962"></trkpt>
    <trkpt lat="34.6918472" lon="135.1920053"></trkpt>
    <trkpt lat="34.6920805" lon="135.1924583"></trkpt>
    <trkpt lat="34.6921829" lon="135.1926795"></trkpt>
    <trkpt lat="34.6922180" lon="135.1927366"></trkpt>
    <trkpt lat="34.6923058" lon="135.1928763"></trkpt>
    <trkpt lat="34.6923686" lon="135.1929527"></trkpt>
    <trkpt lat="34.6927089" lon="135.1935781"></trkpt>
    <trkpt lat="34.6928803" lon="135.1940109"></trkpt>
    <trkpt lat="34.6928830" lon="135.1940178"></trkpt>
    <trkpt lat="34.6928724" lon="135.1942134"></trkpt>
    <trkpt lat="34.6928259" lon="135.1943123"></trkpt>
    <trkpt lat="34.6926857" lon="135.1943978"></trkpt>
    <trkpt lat="34.6926504" lon="135.1944796"></trkpt>
    <trkpt lat="34.6924481" lon="135.1945931"></trkpt>
    <trkpt lat="34.6923182" lon="135.1946658"></trkpt>
    <trkpt lat="34.6922638" lon="135.1946963"></trkpt>
    <trkpt lat="34.6918257" lon="135.1949277"></trkpt>
    <trkpt lat="34.6916647" lon="135.1949787"></trkpt>
    <trkpt lat="34.6915983" lon="135.1949821"></trkpt>
    <trkpt lat="34.6915389" lon="135.1949745"></trkpt>
    <trkpt lat="34.6914837" lon="135.1949293"></trkpt>
    <trkpt lat="34.6914284" lon="135.1948383"></trkpt>
    <trkpt lat="34.6913662" lon="135.1946623"></trkpt>
    <trkpt lat="34.6909505" lon="135.1935286"></trkpt>
    <trkpt lat="34.6909232" lon="135.1934504"></trkpt>
    <trkpt lat="34.6908203" lon="135.1931686"></trkpt>
    <trkpt lat="34.6907083" lon="135.1928463"></trkpt>
    <trkpt lat="34.6906032" lon="135.1925440"></trkpt>
    <trkpt lat="34.6905278" lon="135.1923271"></trkpt>
    <trkpt lat="34.6904742" lon="135.1921863"></trkpt>
    <trkpt lat="34.6903806" lon="135.1919865"></trkpt>
    <trkpt lat="34.6902641" lon="135.1917582"></trkpt>
    <trkpt lat="34.6900634" lon="135.1913636"></trkpt>
    <trkpt lat="34.6898176" lon="135.1909224"></trkpt>
    <trkpt lat="34.6898170" lon="135.1908593"></trkpt>
    <trkpt lat="34.6901367" lon="135.1906566"></trkpt>
    <trkpt lat="34.6903521" lon="135.1905214"></trkpt>
    <trkpt lat="34.6906114" lon="135.1903621"></trkpt>
    <trkpt lat="34.6907795" lon="135.1902704"></trkpt>
    <trkpt lat="34.6908133" lon="135.1902641"></trkpt>
    <trkpt lat="34.6908920" lon="135.1903915"></trkpt>
    <trkpt lat="34.6916880" lon="135.1917251"></trkpt>
    <trkpt lat="34.6917249" lon="135.1917962"></trkpt>
    <trkpt lat="34.6918472" lon="135.1920053"></trkpt>
    <trkpt lat="34.6920805" lon="135.1924583"></trkpt>
    <trkpt lat="34.6921829" lon="135.1926795"></trkpt>
    <trkpt lat="34.6922180" lon="135.1927366"></trkpt>
    <trkpt lat="34.6923058" lon="135.1928763"></trkpt>
    <trkpt lat="34.6923686" lon="135.1929527"></trkpt>
    <trkpt lat="34.6927089" lon="135.1935781"></trkpt>
    <trkpt lat="34.6928803" lon="135.1940109"></trkpt>
    <trkpt lat="34.6928830" lon="135.1940178"></trkpt>
    <trkpt lat="34.6928724" lon="135.1942134"></trkpt>
    <trkpt lat="34.6928259" lon="135.1943123"></trkpt>
    <trkpt lat="34.6926857" lon="135.1943978"></trkpt>
    <trkpt lat="34.6926504" lon="135.1944796"></trkpt>
    <trkpt lat="34.6924481" lon="135.1945931"></trkpt>
    <trkpt lat="34.6923182" lon="135.1946658"></trkpt>
    <trkpt lat="34.6922638" lon="135.1946963"></trkpt>
    <trkpt lat="34.6918257" lon="135.1949277"></trkpt>
    <trkpt lat="34.6916647" lon="135.1949787"></trkpt>
    <trkpt lat="34.6915983" lon="135.1949821"></trkpt>
    <trkpt lat="34.6915389" lon="135.1949745"></trkpt>
    <trkpt lat="34.6914837" lon="135.1949293"></trkpt>
    <trkpt lat="34.6914284" lon="135.1948383"></trkpt>
    <trkpt lat="34.6913662" lon="135.1946623"></trkpt>
    <trkpt lat="34.6909505" lon="135.1935286"></trkpt>
    <trkpt lat="34.6909232" lon="135.1934504"></trkpt>
    <trkpt lat="34.6908203" lon="135.1931686"></trkpt>
    <trkpt lat="34.6907083" lon="135.1928463"></trkpt>
    <trkpt lat="34.6906032" lon="135.1925440"></trkpt>
    <trkpt lat="34.6905278" lon="135.1923271"></trkpt>
    <trkpt lat="34.6904742" lon="135.1921863"></trkpt>
    <trkpt lat="34.6903806" lon="135.1919865"></trkpt>
    <trkpt lat="34.6902641" lon="135.1917582"></trkpt>
    <trkpt lat="34.6900634" lon="135.1913636"></trkpt>
    <trkpt lat="34.6898176" lon="135.1909224"></trkpt>
    <trkpt lat="34.6898170" lon="135.1908593"></trkpt>
    <trkpt lat="34.6901367" lon="135.1906566"></trkpt>
    <trkpt lat="34.6903521" lon="135.1905214"></trkpt>
    <trkpt lat="34.6906114" lon="135.1903621"></trkpt>
    <trkpt lat="34.6907795" lon="135.1902704"></trkpt>
    <trkpt lat="34.6908133" lon="135.1902641"></trkpt>
    <trkpt lat="34.6908920" lon="135.1903915"></trkpt>
    <trkpt lat="34.6916880" lon="135.1917251"></trkpt>
    <trkpt lat="34.6917249" lon="135.1917962"></trkpt>
    <trkpt lat="34.6918472" lon="135.1920053"></trkpt>
    <trkpt lat="34.6920805" lon="135.1924583"></trkpt>
    <trkpt lat="34.6921829" lon="135.1926795"></trkpt>
    <trkpt lat="34.6922180" lon="135.1927366"></trkpt>
    <trkpt lat="34.6923058" lon="135.1928763"></trkpt>
    <trkpt lat="34.6923686" lon="135.1929527"></trkpt>
    <trkpt lat="34.6927089" lon="135.1935781"></trkpt>
    <trkpt lat="34.6928803" lon="135.1940109"></trkpt>
    <trkpt lat="34.6928830" lon="135.1940178"></trkpt>
    <trkpt lat="34.6928724" lon="135.1942134"></trkpt>
    <trkpt lat="34.6928259" lon="135.1943123"></trkpt>
    <trkpt lat="34.6926857" lon="135.1943978"></trkpt>
    <trkpt lat="34.6926504" lon="135.1944796"></trkpt>
    <trkpt lat="34.6924481" lon="135.1945931"></trkpt>
    <trkpt lat="34.6923182" lon="135.1946658"></trkpt>
    <trkpt lat="34.6922638" lon="135.1946963"></trkpt>
    <trkpt lat="34.6918257" lon="135.1949277"></trkpt>
    <trkpt lat="34.6916647" lon="135.1949787"></trkpt>
    <trkpt lat="34.6915983" lon="135.1949821"></trkpt>
    <trkpt lat="34.6915389" lon="135.1949745"></trkpt>
    <trkpt lat="34.6914837" lon="135.1949293"></trkpt>
    <trkpt lat="34.6914284" lon="135.1948383"></trkpt>
    <trkpt lat="34.6913662" lon="135.1946623"></trkpt>
    <trkpt lat="34.6909505" lon="135.1935286"></trkpt>
    <trkpt lat="34.6909232" lon="135.1934504"></trkpt>
    <trkpt lat="34.6908203" lon="135.1931686"></trkpt>
    <trkpt lat="34.6907083" lon="135.1928463"></trkpt>
    <trkpt lat="34.6906032" lon="135.1925440"></trkpt>
    <trkpt lat="34.6905278" lon="135.1923271"></trkpt>
    <trkpt lat="34.6904742" lon="135.1921863"></trkpt>
  </trkseg></trk>
</gpx>