<?xml version="1.0" encoding="UTF-8"?>
<gpx version="1.1" creator="RunNavi nationwide seed" xmlns="http://www.topografix.com/GPX/1/1">
  <metadata>
    <name>鴨川 · 出町柳 往復 10K</name>
    <copyright author="OpenStreetMap contributors">
      <license>https://opendatacommons.org/licenses/odbl/1-0/</license>
    </copyright>
  </metadata>
  <trk><name>鴨川 · 出町柳 往復 10K</name><trkseg>
    <trkpt lat="35.0301445" lon="135.7717618"></trkpt>
    <trkpt lat="35.0301734" lon="135.7717636"></trkpt>
    <trkpt lat="35.0303314" lon="135.7718169"></trkpt>
    <trkpt lat="35.0303876" lon="135.7718436"></trkpt>
    <trkpt lat="35.0304968" lon="135.7718928"></trkpt>
    <trkpt lat="35.0305163" lon="135.7719014"></trkpt>
    <trkpt lat="35.0305008" lon="135.7719636"></trkpt>
    <trkpt lat="35.0303780" lon="135.7724769"></trkpt>
    <trkpt lat="35.0303261" lon="135.7725496"></trkpt>
    <trkpt lat="35.0303039" lon="135.7725556"></trkpt>
    <trkpt lat="35.0302867" lon="135.7725551"></trkpt>
    <trkpt lat="35.0302401" lon="135.7725393"></trkpt>
    <trkpt lat="35.0300517" lon="135.7724849"></trkpt>
    <trkpt lat="35.0299048" lon="135.7724459"></trkpt>
    <trkpt lat="35.0297819" lon="135.7724284"></trkpt>
    <trkpt lat="35.0292564" lon="135.7723589"></trkpt>
    <trkpt lat="35.0290781" lon="135.7723504"></trkpt>
    <trkpt lat="35.0290737" lon="135.7723717"></trkpt>
    <trkpt lat="35.0290392" lon="135.7723636"></trkpt>
    <trkpt lat="35.0290193" lon="135.7723447"></trkpt>
    <trkpt lat="35.0290226" lon="135.7722955"></trkpt>
    <trkpt lat="35.0290105" lon="135.7722943"></trkpt>
    <trkpt lat="35.0289764" lon="135.7722891"></trkpt>
    <trkpt lat="35.0288931" lon="135.7722765"></trkpt>
    <trkpt lat="35.0288591" lon="135.7722714"></trkpt>
    <trkpt lat="35.0288447" lon="135.7722704"></trkpt>
    <trkpt lat="35.0288406" lon="135.7723180"></trkpt>
    <trkpt lat="35.0288167" lon="135.7723415"></trkpt>
    <trkpt lat="35.0287849" lon="135.7723385"></trkpt>
    <trkpt lat="35.0285042" lon="135.7723153"></trkpt>
    <trkpt lat="35.0283066" lon="135.7722989"></trkpt>
    <trkpt lat="35.0281212" lon="135.7722928"></trkpt>
    <trkpt lat="35.0273915" lon="135.7722690"></trkpt>
    <trkpt lat="35.0264967" lon="135.7722350"></trkpt>
    <trkpt lat="35.0260248" lon="135.7722138"></trkpt>
    <trkpt lat="35.0254778" lon="135.7722010"></trkpt>
    <trkpt lat="35.0253442" lon="135.7721945"></trkpt>
    <trkpt lat="35.0252044" lon="135.7721878"></trkpt>
    <trkpt lat="35.0244127" lon="135.7721495"></trkpt>
    <trkpt lat="35.0232633" lon="135.7721107"></trkpt>
    <trkpt lat="35.0222753" lon="135.7720990"></trkpt>
    <trkpt lat="35.0218410" lon="135.7720932"></trkpt>
    <trkpt lat="35.0214922" lon="135.7720936"></trkpt>
    <trkpt lat="35.0214379" lon="135.7720946"></trkpt>
    <trkpt lat="35.0213245" lon="135.7720952"></trkpt>
    <trkpt lat="35.0194851" lon="135.7721219"></trkpt>
    <trkpt lat="35.0193879" lon="135.7720674"></trkpt>
    <trkpt lat="35.0190313" lon="135.7720756"></trkpt>
    <trkpt lat="35.0189852" lon="135.7721333"></trkpt>
    <trkpt lat="35.0187322" lon="135.7721278"></trkpt>
    <trkpt lat="35.0185954" lon="135.7721248"></trkpt>
    <trkpt lat="35.0185582" lon="135.7721413"></trkpt>
    <trkpt lat="35.0179709" lon="135.7721180"></trkpt>
    <trkpt lat="35.0179662" lon="135.7720691"></trkpt>
    <trkpt lat="35.0178272" lon="135.7720652"></trkpt>
    <trkpt lat="35.0177668" lon="135.7720973"></trkpt>
    <trkpt lat="35.0177652" lon="135.7720605"></trkpt>
    <trkpt lat="35.0177509" lon="135.7720363"></trkpt>
    <trkpt lat="35.0177311" lon="135.7720242"></trkpt>
    <trkpt lat="35.0177114" lon="135.7720189"></trkpt>
    <trkpt lat="35.0176894" lon="135.7720242"></trkpt>
    <trkpt lat="35.0176448" lon="135.7720606"></trkpt>
    <trkpt lat="35.0175564" lon="135.7720607"></trkpt>
    <trkpt lat="35.0174648" lon="135.7720599"></trkpt>
    <trkpt lat="35.0174603" lon="135.7720983"></trkpt>
    <trkpt lat="35.0174066" lon="135.7721555"></trkpt>
    <trkpt lat="35.0173620" lon="135.7721559"></trkpt>
    <trkpt lat="35.0173256" lon="135.7721554"></trkpt>
    <trkpt lat="35.0172894" lon="135.7721562"></trkpt>
    <trkpt lat="35.0163218" lon="135.7721782"></trkpt>
    <trkpt lat="35.0161462" lon="135.7721765"></trkpt>
    <trkpt lat="35.0159244" lon="135.7721825"></trkpt>
    <trkpt lat="35.0156959" lon="135.7721879"></trkpt>
    <trkpt lat="35.0156476" lon="135.7721905"></trkpt>
    <trkpt lat="35.0155992" lon="135.7721905"></trkpt>
    <trkpt lat="35.0155114" lon="135.7721905"></trkpt>
    <trkpt lat="35.0154885" lon="135.7721971"></trkpt>
    <trkpt lat="35.0154892" lon="135.7721315"></trkpt>
    <trkpt lat="35.0152649" lon="135.7721181"></trkpt>
    <trkpt lat="35.0133173" lon="135.7721894"></trkpt>
    <trkpt lat="35.0132637" lon="135.7721929"></trkpt>
    <trkpt lat="35.0132189" lon="135.7721931"></trkpt>
    <trkpt lat="35.0131684" lon="135.7721932"></trkpt>
    <trkpt lat="35.0130640" lon="135.7721904"></trkpt>
    <trkpt lat="35.0123846" lon="135.7721800"></trkpt>
    <trkpt lat="35.0118766" lon="135.7721706"></trkpt>
    <trkpt lat="35.0112181" lon="135.7721568"></trkpt>
    <trkpt lat="35.0110730" lon="135.7721452"></trkpt>
    <trkpt lat="35.0110190" lon="135.7721455"></trkpt>
    <trkpt lat="35.0108986" lon="135.7721463"></trkpt>
    <trkpt lat="35.0108408" lon="135.7721467"></trkpt>
    <trkpt lat="35.0108172" lon="135.7721890"></trkpt>
    <trkpt lat="35.0107906" lon="135.7722038"></trkpt>
    <trkpt lat="35.0106003" lon="135.7722008"></trkpt>
    <trkpt lat="35.0105721" lon="135.7721486"></trkpt>
    <trkpt lat="35.0101107" lon="135.7721545"></trkpt>
    <trkpt lat="35.0100566" lon="135.7722108"></trkpt>
    <trkpt lat="35.0093127" lon="135.7722099"></trkpt>
    <trkpt lat="35.0093048" lon="135.7721724"></trkpt>
    <trkpt lat="35.0092571" lon="135.7721637"></trkpt>
    <trkpt lat="35.0091663" lon="135.7721472"></trkpt>
    <trkpt lat="35.0091432" lon="135.7721517"></trkpt>
    <trkpt lat="35.0090873" lon="135.7721535"></trkpt>
    <trkpt lat="35.0090315" lon="135.7721553"></trkpt>
    <trkpt lat="35.0089709" lon="135.7721797"></trkpt>
    <trkpt lat="35.0089241" lon="135.7721355"></trkpt>
    <trkpt lat="35.0087995" lon="135.7721350"></trkpt>
    <trkpt lat="35.0087458" lon="135.7721596"></trkpt>
    <trkpt lat="35.0085596" lon="135.7721625"></trkpt>
    <trkpt lat="35.0084347" lon="135.7721770"></trkpt>
    <trkpt lat="35.0078431" lon="135.7721937"></trkpt>
    <trkpt lat="35.0078072" lon="135.7721929"></trkpt>
    <trkpt lat="35.0066074" lon="135.7721736"></trkpt>
    <trkpt lat="35.0064522" lon="135.7721673"></trkpt>
    <trkpt lat="35.0059968" lon="135.7721315"></trkpt>
    <trkpt lat="35.0054918" lon="135.7720907"></trkpt>
    <trkpt lat="35.0051540" lon="135.7720809"></trkpt>
    <trkpt lat="35.0050848" lon="135.7720782"></trkpt>
    <trkpt lat="35.0050604" lon="135.7720773"></trkpt>
    <trkpt lat="35.0048171" lon="135.7720669"></trkpt>
    <trkpt lat="35.0040925" lon="135.7719688"></trkpt>
    <trkpt lat="35.0040312" lon="135.7719605"></trkpt>
    <trkpt lat="35.0040231" lon="135.7720394"></trkpt>
    <trkpt lat="35.0038248" lon="135.7719975"></trkpt>
    <trkpt lat="35.0035828" lon="135.7719464"></trkpt>
    <trkpt lat="35.0035835" lon="135.7719403"></trkpt>
    <trkpt lat="35.0035873" lon="135.7719076"></trkpt>
    <trkpt lat="35.0034021" lon="135.7718495"></trkpt>
    <trkpt lat="35.0033299" lon="135.7718246"></trkpt>
    <trkpt lat="35.0031857" lon="135.7717748"></trkpt>
    <trkpt lat="35.0027161" lon="135.7716011"></trkpt>
    <trkpt lat="35.0024683" lon="135.7714864"></trkpt>
    <trkpt lat="35.0021750" lon="135.7713369"></trkpt>
    <trkpt lat="35.0021589" lon="135.7713286"></trkpt>
    <trkpt lat="35.0021190" lon="135.7713081"></trkpt>
    <trkpt lat="35.0021029" lon="135.7712998"></trkpt>
    <trkpt lat="35.0020605" lon="135.7712774"></trkpt>
    <trkpt lat="35.0020248" lon="135.7712586"></trkpt>
    <trkpt lat="35.0020136" lon="135.7712524"></trkpt>
    <trkpt lat="35.0019746" lon="135.7712316"></trkpt>
    <trkpt lat="35.0010869" lon="135.7707710"></trkpt>
    <trkpt lat="35.0005042" lon="135.7704766"></trkpt>
    <trkpt lat="35.0002185" lon="135.7703425"></trkpt>
    <trkpt lat="35.0001784" lon="135.7703103"></trkpt>
    <trkpt lat="34.9997416" lon="135.7701020"></trkpt>
    <trkpt lat="34.9997269" lon="135.7700950"></trkpt>
    <trkpt lat="34.9992402" lon="135.7698597"></trkpt>
    <trkpt lat="34.9989371" lon="135.7697342"></trkpt>
    <trkpt lat="34.9988997" lon="135.7697157"></trkpt>
    <trkpt lat="34.9988642" lon="135.7697008"></trkpt>
    <trkpt lat="34.9988182" lon="135.7696811"></trkpt>
    <trkpt lat="34.9987966" lon="135.7696726"></trkpt>
    <trkpt lat="34.9986661" lon="135.7696120"></trkpt>
    <trkpt lat="34.9985796" lon="135.7695706"></trkpt>
    <trkpt lat="34.9982621" lon="135.7694352"></trkpt>
    <trkpt lat="34.9979671" lon="135.7693138"></trkpt>
    <trkpt lat="34.9977657" lon="135.7692293"></trkpt>
    <trkpt lat="34.9976683" lon="135.7691884"></trkpt>
    <trkpt lat="34.9972058" lon="135.7689631"></trkpt>
    <trkpt lat="34.9968147" lon="135.7687954"></trkpt>
    <trkpt lat="34.9967154" lon="135.7687545"></trkpt>
    <trkpt lat="34.9965609" lon="135.7686908"></trkpt>
    <trkpt lat="34.9962714" lon="135.7685574"></trkpt>
    <trkpt lat="34.9959379" lon="135.7684230"></trkpt>
    <trkpt lat="34.9958160" lon="135.7683813"></trkpt>
    <trkpt lat="34.9958084" lon="135.7683767"></trkpt>
    <trkpt lat="34.9958017" lon="135.7683705"></trkpt>
    <trkpt lat="34.9957961" lon="135.7683629"></trkpt>
    <trkpt lat="34.9957917" lon="135.7683541"></trkpt>
    <trkpt lat="34.9957666" lon="135.7683463"></trkpt>
    <trkpt lat="34.9957045" lon="135.7683266"></trkpt>
    <trkpt lat="34.9956338" lon="135.7683042"></trkpt>
    <trkpt lat="34.9956093" lon="135.7682965"></trkpt>
    <trkpt lat="34.9955602" lon="135.7682810"></trkpt>
    <trkpt lat="34.9954916" lon="135.7682588"></trkpt>
    <trkpt lat="34.9954770" lon="135.7682431"></trkpt>
    <trkpt lat="34.9954683" lon="135.7682461"></trkpt>
    <trkpt lat="34.9954593" lon="135.7682476"></trkpt>
    <trkpt lat="34.9954503" lon="135.7682476"></trkpt>
    <trkpt lat="34.9954413" lon="135.7682460"></trkpt>
    <trkpt lat="34.9953498" lon="135.7682135"></trkpt>
    <trkpt lat="34.9953349" lon="135.7682443"></trkpt>
    <trkpt lat="34.9949652" lon="135.7681195"></trkpt>
    <trkpt lat="34.9945755" lon="135.7680023"></trkpt>
    <trkpt lat="34.9944163" lon="135.7679627"></trkpt>
    <trkpt lat="34.9942589" lon="135.7679371"></trkpt>
    <trkpt lat="34.9928634" lon="135.7677683"></trkpt>
    <trkpt lat="34.9924546" lon="135.7677263"></trkpt>
    <trkpt lat="34.9922511" lon="135.7677043"></trkpt>
    <trkpt lat="34.9919560" lon="135.7676676"></trkpt>
    <trkpt lat="34.9918720" lon="135.7676529"></trkpt>
    <trkpt lat="34.9918371" lon="135.7676489"></trkpt>
    <trkpt lat="34.9918038" lon="135.7676451"></trkpt>
    <trkpt lat="34.9917667" lon="135.7676429"></trkpt>
    <trkpt lat="34.9916199" lon="135.7676325"></trkpt>
    <trkpt lat="34.9914632" lon="135.7676265"></trkpt>
    <trkpt lat="34.9912604" lon="135.7676274"></trkpt>
    <trkpt lat="34.9910404" lon="135.7676318"></trkpt>
    <trkpt lat="34.9905575" lon="135.7676559"></trkpt>
    <trkpt lat="34.9899583" lon="135.7676958"></trkpt>
    <trkpt lat="34.9897784" lon="135.7677068"></trkpt>
    <trkpt lat="34.9896170" lon="135.7677136"></trkpt>
    <trkpt lat="34.9894541" lon="135.7677226"></trkpt>
    <trkpt lat="34.9894171" lon="135.7677471"></trkpt>
    <trkpt lat="34.9893703" lon="135.7677474"></trkpt>
    <trkpt lat="34.9893256" lon="135.7677475"></trkpt>
    <trkpt lat="34.9892672" lon="135.7677477"></trkpt>
    <trkpt lat="34.9892285" lon="135.7677478"></trkpt>
    <trkpt lat="34.9892280" lon="135.7676658"></trkpt>
    <trkpt lat="34.9892235" lon="135.7667465"></trkpt>
    <trkpt lat="34.9892221" lon="135.7667235"></trkpt>
    <trkpt lat="34.9890247" lon="135.7667481"></trkpt>
    <trkpt lat="34.9888549" lon="135.7667491"></trkpt>
    <trkpt lat="34.9888322" lon="135.7667577"></trkpt>
    <trkpt lat="34.9883407" lon="135.7667699"></trkpt>
    <trkpt lat="34.9888322" lon="135.7667577"></trkpt>
    <trkpt lat="34.9888549" lon="135.7667491"></trkpt>
    <trkpt lat="34.9890247" lon="135.7667481"></trkpt>
    <trkpt lat="34.9892221" lon="135.7667235"></trkpt>
    <trkpt lat="34.9892235" lon="135.7667465"></trkpt>
    <trkpt lat="34.9892280" lon="135.7676658"></trkpt>
    <trkpt lat="34.9892285" lon="135.7677478"></trkpt>
    <trkpt lat="34.9892672" lon="135.7677477"></trkpt>
    <trkpt lat="34.9893256" lon="135.7677475"></trkpt>
    <trkpt lat="34.9893703" lon="135.7677474"></trkpt>
    <trkpt lat="34.9894171" lon="135.7677471"></trkpt>
    <trkpt lat="34.9894541" lon="135.7677226"></trkpt>
    <trkpt lat="34.9896170" lon="135.7677136"></trkpt>
    <trkpt lat="34.9897784" lon="135.7677068"></trkpt>
    <trkpt lat="34.9899583" lon="135.7676958"></trkpt>
    <trkpt lat="34.9905575" lon="135.7676559"></trkpt>
    <trkpt lat="34.9910404" lon="135.7676318"></trkpt>
    <trkpt lat="34.9912604" lon="135.7676274"></trkpt>
    <trkpt lat="34.9914632" lon="135.7676265"></trkpt>
    <trkpt lat="34.9916199" lon="135.7676325"></trkpt>
    <trkpt lat="34.9917667" lon="135.7676429"></trkpt>
    <trkpt lat="34.9918038" lon="135.7676451"></trkpt>
    <trkpt lat="34.9918371" lon="135.7676489"></trkpt>
    <trkpt lat="34.9918720" lon="135.7676529"></trkpt>
    <trkpt lat="34.9919560" lon="135.7676676"></trkpt>
    <trkpt lat="34.9922511" lon="135.7677043"></trkpt>
    <trkpt lat="34.9924546" lon="135.7677263"></trkpt>
    <trkpt lat="34.9928634" lon="135.7677683"></trkpt>
    <trkpt lat="34.9942589" lon="135.7679371"></trkpt>
    <trkpt lat="34.9944163" lon="135.7679627"></trkpt>
    <trkpt lat="34.9945755" lon="135.7680023"></trkpt>
    <trkpt lat="34.9949652" lon="135.7681195"></trkpt>
    <trkpt lat="34.9953349" lon="135.7682443"></trkpt>
    <trkpt lat="34.9953498" lon="135.7682135"></trkpt>
    <trkpt lat="34.9954413" lon="135.7682460"></trkpt>
    <trkpt lat="34.9954503" lon="135.7682476"></trkpt>
    <trkpt lat="34.9954593" lon="135.7682476"></trkpt>
    <trkpt lat="34.9954683" lon="135.7682461"></trkpt>
    <trkpt lat="34.9954770" lon="135.7682431"></trkpt>
    <trkpt lat="34.9954916" lon="135.7682588"></trkpt>
    <trkpt lat="34.9955602" lon="135.7682810"></trkpt>
    <trkpt lat="34.9956093" lon="135.7682965"></trkpt>
    <trkpt lat="34.9956338" lon="135.7683042"></trkpt>
    <trkpt lat="34.9957045" lon="135.7683266"></trkpt>
    <trkpt lat="34.9957666" lon="135.7683463"></trkpt>
    <trkpt lat="34.9957917" lon="135.7683541"></trkpt>
    <trkpt lat="34.9957961" lon="135.7683629"></trkpt>
    <trkpt lat="34.9958017" lon="135.7683705"></trkpt>
    <trkpt lat="34.9958084" lon="135.7683767"></trkpt>
    <trkpt lat="34.9958160" lon="135.7683813"></trkpt>
    <trkpt lat="34.9959379" lon="135.7684230"></trkpt>
    <trkpt lat="34.9962714" lon="135.7685574"></trkpt>
    <trkpt lat="34.9965609" lon="135.7686908"></trkpt>
    <trkpt lat="34.9967154" lon="135.7687545"></trkpt>
    <trkpt lat="34.9968147" lon="135.7687954"></trkpt>
    <trkpt lat="34.9972058" lon="135.7689631"></trkpt>
    <trkpt lat="34.9976683" lon="135.7691884"></trkpt>
    <trkpt lat="34.9977657" lon="135.7692293"></trkpt>
    <trkpt lat="34.9979671" lon="135.7693138"></trkpt>
    <trkpt lat="34.9982621" lon="135.7694352"></trkpt>
    <trkpt lat="34.9985796" lon="135.7695706"></trkpt>
    <trkpt lat="34.9986661" lon="135.7696120"></trkpt>
    <trkpt lat="34.9987966" lon="135.7696726"></trkpt>
    <trkpt lat="34.9988182" lon="135.7696811"></trkpt>
    <trkpt lat="34.9988642" lon="135.7697008"></trkpt>
    <trkpt lat="34.9988997" lon="135.7697157"></trkpt>
    <trkpt lat="34.9989371" lon="135.7697342"></trkpt>
    <trkpt lat="34.9992402" lon="135.7698597"></trkpt>
    <trkpt lat="34.9997269" lon="135.7700950"></trkpt>
    <trkpt lat="34.9997416" lon="135.7701020"></trkpt>
    <trkpt lat="35.0001784" lon="135.7703103"></trkpt>
    <trkpt lat="35.0002185" lon="135.7703425"></trkpt>
    <trkpt lat="35.0005042" lon="135.7704766"></trkpt>
    <trkpt lat="35.0010869" lon="135.7707710"></trkpt>
    <trkpt lat="35.0019746" lon="135.7712316"></trkpt>
    <trkpt lat="35.0020136" lon="135.7712524"></trkpt>
    <trkpt lat="35.0020248" lon="135.7712586"></trkpt>
    <trkpt lat="35.0020605" lon="135.7712774"></trkpt>
    <trkpt lat="35.0021029" lon="135.7712998"></trkpt>
    <trkpt lat="35.0021190" lon="135.7713081"></trkpt>
    <trkpt lat="35.0021589" lon="135.7713286"></trkpt>
    <trkpt lat="35.0021750" lon="135.7713369"></trkpt>
    <trkpt lat="35.0024683" lon="135.7714864"></trkpt>
    <trkpt lat="35.0027161" lon="135.7716011"></trkpt>
    <trkpt lat="35.0031857" lon="135.7717748"></trkpt>
    <trkpt lat="35.0033299" lon="135.7718246"></trkpt>
    <trkpt lat="35.0034021" lon="135.7718495"></trkpt>
    <trkpt lat="35.0035873" lon="135.7719076"></trkpt>
    <trkpt lat="35.0035835" lon="135.7719403"></trkpt>
    <trkpt lat="35.0035828" lon="135.7719464"></trkpt>
    <trkpt lat="35.0038248" lon="135.7719975"></trkpt>
    <trkpt lat="35.0040231" lon="135.7720394"></trkpt>
    <trkpt lat="35.0040312" lon="135.7719605"></trkpt>
    <trkpt lat="35.0040925" lon="135.7719688"></trkpt>
    <trkpt lat="35.0048171" lon="135.7720669"></trkpt>
    <trkpt lat="35.0050604" lon="135.7720773"></trkpt>
    <trkpt lat="35.0050848" lon="135.7720782"></trkpt>
    <trkpt lat="35.0051540" lon="135.7720809"></trkpt>
    <trkpt lat="35.0054918" lon="135.7720907"></trkpt>
    <trkpt lat="35.0059968" lon="135.7721315"></trkpt>
    <trkpt lat="35.0064522" lon="135.7721673"></trkpt>
    <trkpt lat="35.0066074" lon="135.7721736"></trkpt>
    <trkpt lat="35.0078072" lon="135.7721929"></trkpt>
    <trkpt lat="35.0078431" lon="135.7721937"></trkpt>
    <trkpt lat="35.0084347" lon="135.7721770"></trkpt>
    <trkpt lat="35.0085596" lon="135.7721625"></trkpt>
    <trkpt lat="35.0087458" lon="135.7721596"></trkpt>
    <trkpt lat="35.0087995" lon="135.7721350"></trkpt>
    <trkpt lat="35.0089241" lon="135.7721355"></trkpt>
    <trkpt lat="35.0089709" lon="135.7721797"></trkpt>
    <trkpt lat="35.0090315" lon="135.7721553"></trkpt>
    <trkpt lat="35.0090873" lon="135.7721535"></trkpt>
    <trkpt lat="35.0091432" lon="135.7721517"></trkpt>
    <trkpt lat="35.0091663" lon="135.7721472"></trkpt>
    <trkpt lat="35.0092571" lon="135.7721637"></trkpt>
    <trkpt lat="35.0093048" lon="135.7721724"></trkpt>
    <trkpt lat="35.0093127" lon="135.7722099"></trkpt>
    <trkpt lat="35.0100566" lon="135.7722108"></trkpt>
    <trkpt lat="35.0101107" lon="135.7721545"></trkpt>
    <trkpt lat="35.0105721" lon="135.7721486"></trkpt>
    <trkpt lat="35.0106003" lon="135.7722008"></trkpt>
    <trkpt lat="35.0107906" lon="135.7722038"></trkpt>
    <trkpt lat="35.0108172" lon="135.7721890"></trkpt>
    <trkpt lat="35.0108408" lon="135.7721467"></trkpt>
    <trkpt lat="35.0108986" lon="135.7721463"></trkpt>
    <trkpt lat="35.0110190" lon="135.7721455"></trkpt>
    <trkpt lat="35.0110730" lon="135.7721452"></trkpt>
    <trkpt lat="35.0112181" lon="135.7721568"></trkpt>
    <trkpt lat="35.0118766" lon="135.7721706"></trkpt>
    <trkpt lat="35.0123846" lon="135.7721800"></trkpt>
    <trkpt lat="35.0130640" lon="135.7721904"></trkpt>
    <trkpt lat="35.0131684" lon="135.7721932"></trkpt>
    <trkpt lat="35.0132189" lon="135.7721931"></trkpt>
    <trkpt lat="35.0132637" lon="135.7721929"></trkpt>
    <trkpt lat="35.0133173" lon="135.7721894"></trkpt>
    <trkpt lat="35.0152649" lon="135.7721181"></trkpt>
    <trkpt lat="35.0154892" lon="135.7721315"></trkpt>
    <trkpt lat="35.0154885" lon="135.7721971"></trkpt>
    <trkpt lat="35.0155114" lon="135.7721905"></trkpt>
    <trkpt lat="35.0155992" lon="135.7721905"></trkpt>
    <trkpt lat="35.0156476" lon="135.7721905"></trkpt>
    <trkpt lat="35.0156959" lon="135.7721879"></trkpt>
    <trkpt lat="35.0159244" lon="135.7721825"></trkpt>
    <trkpt lat="35.0161462" lon="135.7721765"></trkpt>
    <trkpt lat="35.0163218" lon="135.7721782"></trkpt>
    <trkpt lat="35.0172894" lon="135.7721562"></trkpt>
    <trkpt lat="35.0173256" lon="135.7721554"></trkpt>
    <trkpt lat="35.0173620" lon="135.7721559"></trkpt>
    <trkpt lat="35.0174066" lon="135.7721555"></trkpt>
    <trkpt lat="35.0174603" lon="135.7720983"></trkpt>
    <trkpt lat="35.0174648" lon="135.7720599"></trkpt>
    <trkpt lat="35.0175564" lon="135.7720607"></trkpt>
    <trkpt lat="35.0176448" lon="135.7720606"></trkpt>
    <trkpt lat="35.0176894" lon="135.7720242"></trkpt>
    <trkpt lat="35.0177114" lon="135.7720189"></trkpt>
    <trkpt lat="35.0177311" lon="135.7720242"></trkpt>
    <trkpt lat="35.0177509" lon="135.7720363"></trkpt>
    <trkpt lat="35.0177652" lon="135.7720605"></trkpt>
    <trkpt lat="35.0177668" lon="135.7720973"></trkpt>
    <trkpt lat="35.0178272" lon="135.7720652"></trkpt>
    <trkpt lat="35.0179662" lon="135.7720691"></trkpt>
    <trkpt lat="35.0179709" lon="135.7721180"></trkpt>
    <trkpt lat="35.0185582" lon="135.7721413"></trkpt>
    <trkpt lat="35.0185954" lon="135.7721248"></trkpt>
    <trkpt lat="35.0187322" lon="135.7721278"></trkpt>
    <trkpt lat="35.0189852" lon="135.7721333"></trkpt>
    <trkpt lat="35.0190313" lon="135.7720756"></trkpt>
    <trkpt lat="35.0193879" lon="135.7720674"></trkpt>
    <trkpt lat="35.0194851" lon="135.7721219"></trkpt>
    <trkpt lat="35.0213245" lon="135.7720952"></trkpt>
    <trkpt lat="35.0214379" lon="135.7720946"></trkpt>
    <trkpt lat="35.0214922" lon="135.7720936"></trkpt>
    <trkpt lat="35.0218410" lon="135.7720932"></trkpt>
    <trkpt lat="35.0222753" lon="135.7720990"></trkpt>
    <trkpt lat="35.0232633" lon="135.7721107"></trkpt>
    <trkpt lat="35.0244127" lon="135.7721495"></trkpt>
    <trkpt lat="35.0252044" lon="135.7721878"></trkpt>
    <trkpt lat="35.0253442" lon="135.7721945"></trkpt>
    <trkpt lat="35.0254778" lon="135.7722010"></trkpt>
    <trkpt lat="35.0260248" lon="135.7722138"></trkpt>
    <trkpt lat="35.0264967" lon="135.7722350"></trkpt>
    <trkpt lat="35.0273915" lon="135.7722690"></trkpt>
    <trkpt lat="35.0281212" lon="135.7722928"></trkpt>
    <trkpt lat="35.0283066" lon="135.7722989"></trkpt>
    <trkpt lat="35.0285042" lon="135.7723153"></trkpt>
    <trkpt lat="35.0287849" lon="135.7723385"></trkpt>
    <trkpt lat="35.0288167" lon="135.7723415"></trkpt>
    <trkpt lat="35.0288406" lon="135.7723180"></trkpt>
    <trkpt lat="35.0288447" lon="135.7722704"></trkpt>
    <trkpt lat="35.0288591" lon="135.7722714"></trkpt>
    <trkpt lat="35.0288931" lon="135.7722765"></trkpt>
    <trkpt lat="35.0289764" lon="135.7722891"></trkpt>
    <trkpt lat="35.0290105" lon="135.7722943"></trkpt>
    <trkpt lat="35.0290226" lon="135.7722955"></trkpt>
    <trkpt lat="35.0290193" lon="135.7723447"></trkpt>
    <trkpt lat="35.0290392" lon="135.7723636"></trkpt>
    <trkpt lat="35.0290737" lon="135.7723717"></trkpt>
    <trkpt lat="35.0290781" lon="135.7723504"></trkpt>
    <trkpt lat="35.0292564" lon="135.7723589"></trkpt>
    <trkpt lat="35.0297819" lon="135.7724284"></trkpt>
    <trkpt lat="35.0299048" lon="135.7724459"></trkpt>
    <trkpt lat="35.0300517" lon="135.7724849"></trkpt>
    <trkpt lat="35.0302401" lon="135.7725393"></trkpt>
    <trkpt lat="35.0302867" lon="135.7725551"></trkpt>
    <trkpt lat="35.0303039" lon="135.7725556"></trkpt>
    <trkpt lat="35.0303261" lon="135.7725496"></trkpt>
    <trkpt lat="35.0303780" lon="135.7724769"></trkpt>
    <trkpt lat="35.0305008" lon="135.7719636"></trkpt>
    <trkpt lat="35.0305163" lon="135.7719014"></trkpt>
    <trkpt lat="35.0304968" lon="135.7718928"></trkpt>
    <trkpt lat="35.0303876" lon="135.7718436"></trkpt>
    <trkpt lat="35.0303314" lon="135.7718169"></trkpt>
    <trkpt lat="35.0301734" lon="135.7717636"></trkpt>
    <trkpt lat="35.0301445" lon="135.7717618"></trkpt>
  </trkseg></trk>
</gpx>