<?xml version="1.0" encoding="UTF-8"?>
<gpx version="1.1" creator="RunNavi nationwide seed" xmlns="http://www.topografix.com/GPX/1/1">
  <metadata>
    <name>白川 · 大甲橋 往復 5K</name>
    <copyright author="OpenStreetMap contributors">
      <license>https://opendatacommons.org/licenses/odbl/1-0/</license>
    </copyright>
  </metadata>
  <trk><name>白川 · 大甲橋 往復 5K</name><trkseg>
    <trkpt lat="32.8005906" lon="130.7132009"></trkpt>
    <trkpt lat="32.8003032" lon="130.7129757"></trkpt>
    <trkpt lat="32.8002788" lon="130.7128133"></trkpt>
    <trkpt lat="32.7999097" lon="130.7124803"></trkpt>
    <trkpt lat="32.7998393" lon="130.7124400"></trkpt>
    <trkpt lat="32.7997951" lon="130.7124226"></trkpt>
    <trkpt lat="32.7994650" lon="130.7121617"></trkpt>
    <trkpt lat="32.7993504" lon="130.7120181"></trkpt>
    <trkpt lat="32.7989821" lon="130.7116236"></trkpt>
    <trkpt lat="32.7988749" lon="130.7114582"></trkpt>
    <trkpt lat="32.7986484" lon="130.7111990"></trkpt>
    <trkpt lat="32.7985015" lon="130.7110212"></trkpt>
    <trkpt lat="32.7982650" lon="130.7107799"></trkpt>
    <trkpt lat="32.7980907" lon="130.7105517"></trkpt>
    <trkpt lat="32.7977575" lon="130.7099849"></trkpt>
    <trkpt lat="32.7974693" lon="130.7094578"></trkpt>
    <trkpt lat="32.7974163" lon="130.7093024"></trkpt>
    <trkpt lat="32.7973953" lon="130.7090852"></trkpt>
    <trkpt lat="32.7973064" lon="130.7089359"></trkpt>
    <trkpt lat="32.7972876" lon="130.7089043"></trkpt>
    <trkpt lat="32.7971499" lon="130.7085742"></trkpt>
    <trkpt lat="32.7970473" lon="130.7082186"></trkpt>
    <trkpt lat="32.7970245" lon="130.7080148"></trkpt>
    <trkpt lat="32.7969677" lon="130.7077782"></trkpt>
    <trkpt lat="32.7969806" lon="130.7077233"></trkpt>
    <trkpt lat="32.7968305" lon="130.7072067"></trkpt>
    <trkpt lat="32.7967400" lon="130.7071517"></trkpt>
    <trkpt lat="32.7966946" lon="130.7070411"></trkpt>
    <trkpt lat="32.7966493" lon="130.7069307"></trkpt>
    <trkpt lat="32.7967047" lon="130.7068619"></trkpt>
    <trkpt lat="32.7967159" lon="130.7067724"></trkpt>
    <trkpt lat="32.7967200" lon="130.7067396"></trkpt>
    <trkpt lat="32.7963024" lon="130.7054113"></trkpt>
    <trkpt lat="32.7960567" lon="130.7047368"></trkpt>
    <trkpt lat="32.7960088" lon="130.7046848"></trkpt>
    <trkpt lat="32.7958011" lon="130.7044302"></trkpt>
    <trkpt lat="32.7957339" lon="130.7043412"></trkpt>
    <trkpt lat="32.7957131" lon="130.7042776"></trkpt>
    <trkpt lat="32.7950675" lon="130.7030063"></trkpt>
    <trkpt lat="32.7950070" lon="130.7029460"></trkpt>
    <trkpt lat="32.7949192" lon="130.7027828"></trkpt>
    <trkpt lat="32.7947077" lon="130.7023759"></trkpt>
    <trkpt lat="32.7944886" lon="130.7019669"></trkpt>
    <trkpt lat="32.7944677" lon="130.7019448"></trkpt>
    <trkpt lat="32.7942637" lon="130.7016214"></trkpt>
    <trkpt lat="32.7940432" lon="130.7012221"></trkpt>
    <trkpt lat="32.7937897" lon="130.7008079"></trkpt>
    <trkpt lat="32.7935880" lon="130.7004029"></trkpt>
    <trkpt lat="32.7933550" lon="130.6998822"></trkpt>
    <trkpt lat="32.7931743" lon="130.6994013"></trkpt>
    <trkpt lat="32.7930395" lon="130.6988980"></trkpt>
    <trkpt lat="32.7929665" lon="130.6984652"></trkpt>
    <trkpt lat="32.7929258" lon="130.6980283"></trkpt>
    <trkpt lat="32.7929134" lon="130.6976543"></trkpt>
    <trkpt lat="32.7929444" lon="130.6972535"></trkpt>
    <trkpt lat="32.7929472" lon="130.6972055"></trkpt>
    <trkpt lat="32.7929501" lon="130.6971573"></trkpt>
    <trkpt lat="32.7929638" lon="130.6966593"></trkpt>
    <trkpt lat="32.7929458" lon="130.6959163"></trkpt>
    <trkpt lat="32.7928996" lon="130.6956011"></trkpt>
    <trkpt lat="32.7926087" lon="130.6946734"></trkpt>
    <trkpt lat="32.7924272" lon="130.6941142"></trkpt>
    <trkpt lat="32.7923438" lon="130.6938956"></trkpt>
    <trkpt lat="32.7922130" lon="130.6936810"></trkpt>
    <trkpt lat="32.7919513" lon="130.6934070"></trkpt>
    <trkpt lat="32.7915762" lon="130.6930120"></trkpt>
    <trkpt lat="32.7913384" lon="130.6928189"></trkpt>
    <trkpt lat="32.7910747" lon="130.6926609"></trkpt>
    <trkpt lat="32.7908062" lon="130.6925295"></trkpt>
    <trkpt lat="32.7905767" lon="130.6924504"></trkpt>
    <trkpt lat="32.7902569" lon="130.6923627"></trkpt>
    <trkpt lat="32.7899488" lon="130.6923531"></trkpt>
    <trkpt lat="32.7899011" lon="130.6923600"></trkpt>
    <trkpt lat="32.7898703" lon="130.6923649"></trkpt>
    <trkpt lat="32.7898130" lon="130.6923741"></trkpt>
    <trkpt lat="32.7898138" lon="130.6923904"></trkpt>
    <trkpt lat="32.7896798" lon="130.6924047"></trkpt>
    <trkpt lat="32.7896806" lon="130.6924211"></trkpt>
    <trkpt lat="32.7896560" lon="130.6924215"></trkpt>
    <trkpt lat="32.7895815" lon="130.6924227"></trkpt>
    <trkpt lat="32.7892801" lon="130.6924589"></trkpt>
    <trkpt lat="32.7895815" lon="130.6924227"></trkpt>
    <trkpt lat="32.7896560" lon="130.6924215"></trkpt>
    <trkpt lat="32.7896806" lon="130.6924211"></trkpt>
    <trkpt lat="32.7896798" lon="130.6924047"></trkpt>
    <trkpt lat="32.7898138" lon="130.6923904"></trkpt>
    <trkpt lat="32.7898130" lon="130.6923741"></trkpt>
    <trkpt lat="32.7898703" lon="130.6923649"></trkpt>
    <trkpt lat="32.7899011" lon="130.6923600"></trkpt>
    <trkpt lat="32.7899488" lon="130.6923531"></trkpt>
    <trkpt lat="32.7902569" lon="130.6923627"></trkpt>
    <trkpt lat="32.7905767" lon="130.6924504"></trkpt>
    <trkpt lat="32.7908062" lon="130.6925295"></trkpt>
    <trkpt lat="32.7910747" lon="130.6926609"></trkpt>
    <trkpt lat="32.7913384" lon="130.6928189"></trkpt>
    <trkpt lat="32.7915762" lon="130.6930120"></trkpt>
    <trkpt lat="32.7919513" lon="130.6934070"></trkpt>
    <trkpt lat="32.7922130" lon="130.6936810"></trkpt>
    <trkpt lat="32.7923438" lon="130.6938956"></trkpt>
    <trkpt lat="32.7924272" lon="130.6941142"></trkpt>
    <trkpt lat="32.7926087" lon="130.6946734"></trkpt>
    <trkpt lat="32.7928996" lon="130.6956011"></trkpt>
    <trkpt lat="32.7929458" lon="130.6959163"></trkpt>
    <trkpt lat="32.7929638" lon="130.6966593"></trkpt>
    <trkpt lat="32.7929501" lon="130.6971573"></trkpt>
    <trkpt lat="32.7929472" lon="130.6972055"></trkpt>
    <trkpt lat="32.7929444" lon="130.6972535"></trkpt>
    <trkpt lat="32.7929134" lon="130.6976543"></trkpt>
    <trkpt lat="32.7929258" lon="130.6980283"></trkpt>
    <trkpt lat="32.7929665" lon="130.6984652"></trkpt>
    <trkpt lat="32.7930395" lon="130.6988980"></trkpt>
    <trkpt lat="32.7931743" lon="130.6994013"></trkpt>
    <trkpt lat="32.7933550" lon="130.6998822"></trkpt>
    <trkpt lat="32.7935880" lon="130.7004029"></trkpt>
    <trkpt lat="32.7937897" lon="130.7008079"></trkpt>
    <trkpt lat="32.7940432" lon="130.7012221"></trkpt>
    <trkpt lat="32.7942637" lon="130.7016214"></trkpt>
    <trkpt lat="32.7944677" lon="130.7019448"></trkpt>
    <trkpt lat="32.7944886" lon="130.7019669"></trkpt>
    <trkpt lat="32.7947077" lon="130.7023759"></trkpt>
    <trkpt lat="32.7949192" lon="130.7027828"></trkpt>
    <trkpt lat="32.7950070" lon="130.7029460"></trkpt>
    <trkpt lat="32.7950675" lon="130.7030063"></trkpt>
    <trkpt lat="32.7957131" lon="130.7042776"></trkpt>
    <trkpt lat="32.7957339" lon="130.7043412"></trkpt>
    <trkpt lat="32.7958011" lon="130.7044302"></trkpt>
    <trkpt lat="32.7960088" lon="130.7046848"></trkpt>
    <trkpt lat="32.7960567" lon="130.7047368"></trkpt>
    <trkpt lat="32.7963024" lon="130.7054113"></trkpt>
    <trkpt lat="32.7967200" lon="130.7067396"></trkpt>
    <trkpt lat="32.7967159" lon="130.7067724"></trkpt>
    <trkpt lat="32.7967047" lon="130.7068619"></trkpt>
    <trkpt lat="32.7966493" lon="130.7069307"></trkpt>
    <trkpt lat="32.7966946" lon="130.7070411"></trkpt>
    <trkpt lat="32.7967400" lon="130.7071517"></trkpt>
    <trkpt lat="32.7968305" lon="130.7072067"></trkpt>
    <trkpt lat="32.7969806" lon="130.7077233"></trkpt>
    <trkpt lat="32.7969677" lon="130.7077782"></trkpt>
    <trkpt lat="32.7970245" lon="130.7080148"></trkpt>
    <trkpt lat="32.7970473" lon="130.7082186"></trkpt>
    <trkpt lat="32.7971499" lon="130.7085742"></trkpt>
    <trkpt lat="32.7972876" lon="130.7089043"></trkpt>
    <trkpt lat="32.7973064" lon="130.7089359"></trkpt>
    <trkpt lat="32.7973953" lon="130.7090852"></trkpt>
    <trkpt lat="32.7974163" lon="130.7093024"></trkpt>
    <trkpt lat="32.7974693" lon="130.7094578"></trkpt>
    <trkpt lat="32.7977575" lon="130.7099849"></trkpt>
    <trkpt lat="32.7980907" lon="130.7105517"></trkpt>
    <trkpt lat="32.7982650" lon="130.7107799"></trkpt>
    <trkpt lat="32.7985015" lon="130.7110212"></trkpt>
    <trkpt lat="32.7986484" lon="130.7111990"></trkpt>
    <trkpt lat="32.7988749" lon="130.7114582"></trkpt>
    <trkpt lat="32.7989821" lon="130.7116236"></trkpt>
    <trkpt lat="32.7993504" lon="130.7120181"></trkpt>
    <trkpt lat="32.7994650" lon="130.7121617"></trkpt>
    <trkpt lat="32.7997951" lon="130.7124226"></trkpt>
    <trkpt lat="32.7998393" lon="130.7124400"></trkpt>
    <trkpt lat="32.7999097" lon="130.7124803"></trkpt>
    <trkpt lat="32.8002788" lon="130.7128133"></trkpt>
    <trkpt lat="32.8003032" lon="130.7129757"></trkpt>
    <trkpt lat="32.8005906" lon="130.7132009"></trkpt>
  </trkseg></trk>
</gpx>