<?xml version="1.0" encoding="UTF-8"?>
<gpx version="1.1" creator="RunNavi" xmlns="http://www.topografix.com/GPX/1/1">
<trk><name>osakajo</name><trkseg>
<trkpt lat="34.6839042" lon="135.52236619999994"/>
<trkpt lat="34.68394509999999" lon="135.52236660000003"/>
<trkpt lat="34.683994699999985" lon="135.52234120000003"/>
<trkpt lat="34.684006" lon="135.52203070000002"/>
<trkpt lat="34.6844153" lon="135.52201270000003"/>
<trkpt lat="34.68467679999999" lon="135.52200119999995"/>
<trkpt lat="34.684817699999996" lon="135.52194690000002"/>
<trkpt lat="34.68490510000001" lon="135.52193160000004"/>
<trkpt lat="34.6849925" lon="135.5219164"/>
<trkpt lat="34.6850421" lon="135.5224554"/>
<trkpt lat="34.685097799999994" lon="135.52313779999997"/>
<trkpt lat="34.685142699999986" lon="135.523231"/>
<trkpt lat="34.685166699999996" lon="135.52325180000008"/>
<trkpt lat="34.685477999999996" lon="135.52328969999996"/>
<trkpt lat="34.685498599999995" lon="135.5233554"/>
<trkpt lat="34.685498599999995" lon="135.52341739999994"/>
<trkpt lat="34.685440500000006" lon="135.52362219999998"/>
<trkpt lat="34.68541620000001" lon="135.52367959999998"/>
<trkpt lat="34.6854887" lon="135.5237634"/>
<trkpt lat="34.68550229999999" lon="135.52384150000003"/>
<trkpt lat="34.68550909999998" lon="135.52404200000004"/>
<trkpt lat="34.68563169999999" lon="135.52409560000004"/>
<trkpt lat="34.687118000000005" lon="135.52397900000003"/>
<trkpt lat="34.68711569999998" lon="135.52402410000008"/>
<trkpt lat="34.687113399999994" lon="135.5240692"/>
<trkpt lat="34.6875467" lon="135.5241428"/>
<trkpt lat="34.68798009999999" lon="135.52421670000007"/>
<trkpt lat="34.68799939999999" lon="135.52416300000002"/>
<trkpt lat="34.688018699999986" lon="135.52410940000001"/>
<trkpt lat="34.688079099999996" lon="135.5242687"/>
<trkpt lat="34.688181500000006" lon="135.5242985"/>
<trkpt lat="34.68824259999998" lon="135.52431630000004"/>
<trkpt lat="34.688210599999984" lon="135.52453990000006"/>
<trkpt lat="34.68832009999999" lon="135.5244527"/>
<trkpt lat="34.688470499999994" lon="135.52432050000002"/>
<trkpt lat="34.688540599999996" lon="135.52427139999998"/>
<trkpt lat="34.68860099999999" lon="135.52428380000006"/>
<trkpt lat="34.68857589999999" lon="135.52414699999997"/>
<trkpt lat="34.68858209999999" lon="135.52403070000003"/>
<trkpt lat="34.688682" lon="135.52380570000003"/>
<trkpt lat="34.68870630000001" lon="135.52383150000003"/>
<trkpt lat="34.688946499999986" lon="135.52395439999998"/>
<trkpt lat="34.689229499999996" lon="135.52409939999995"/>
<trkpt lat="34.6892265" lon="135.5241289"/>
<trkpt lat="34.6891706" lon="135.52432750000003"/>
<trkpt lat="34.6891457" lon="135.5246442"/>
<trkpt lat="34.689169099999994" lon="135.52496169999998"/>
<trkpt lat="34.68936409999999" lon="135.52524499999998"/>
<trkpt lat="34.689412999999995" lon="135.52535669999997"/>
<trkpt lat="34.6894989" lon="135.52564730000003"/>
<trkpt lat="34.68952089999998" lon="135.52583210000003"/>
<trkpt lat="34.689524999999996" lon="135.52602350000004"/>
<trkpt lat="34.6894938" lon="135.52604499999998"/>
<trkpt lat="34.68942499999999" lon="135.52604299999996"/>
<trkpt lat="34.6894043" lon="135.52625720000006"/>
<trkpt lat="34.689351199999976" lon="135.5264434"/>
<trkpt lat="34.689338400000004" lon="135.52648820000005"/>
<trkpt lat="34.6888211" lon="135.5273651"/>
<trkpt lat="34.688514700000006" lon="135.52788400000003"/>
<trkpt lat="34.688465099999995" lon="135.52792850000006"/>
<trkpt lat="34.688482" lon="135.52795019999994"/>
<trkpt lat="34.68866379999999" lon="135.5282085"/>
<trkpt lat="34.68872449999999" lon="135.5283225"/>
<trkpt lat="34.688923" lon="135.5282085"/>
<trkpt lat="34.68900429999999" lon="135.5282206"/>
<trkpt lat="34.6890283" lon="135.52824299999997"/>
<trkpt lat="34.68949219999998" lon="135.52887030000005"/>
<trkpt lat="34.6893341" lon="135.5290454"/>
<trkpt lat="34.68900729999999" lon="135.5294071"/>
<trkpt lat="34.68885709999998" lon="135.52978429999996"/>
<trkpt lat="34.688984700000006" lon="135.5299117"/>
<trkpt lat="34.688701" lon="135.5303305"/>
<trkpt lat="34.68872319999999" lon="135.53035780000002"/>
<trkpt lat="34.68874540000001" lon="135.5303851"/>
<trkpt lat="34.688621899999994" lon="135.53051319999997"/>
<trkpt lat="34.6889703" lon="135.53097250000002"/>
<trkpt lat="34.688621899999994" lon="135.53051319999997"/>
<trkpt lat="34.68874540000001" lon="135.5303851"/>
<trkpt lat="34.68872319999999" lon="135.53035780000002"/>
<trkpt lat="34.68830709999999" lon="135.52973369999995"/>
<trkpt lat="34.68818849999998" lon="135.5295084"/>
<trkpt lat="34.68805039999998" lon="135.52957410000002"/>
<trkpt lat="34.687781400000006" lon="135.52975379999998"/>
<trkpt lat="34.68605029999999" lon="135.53090680000005"/>
<trkpt lat="34.685941699999994" lon="135.53092319999996"/>
<trkpt lat="34.68574149999999" lon="135.53079549999998"/>
<trkpt lat="34.68472889999999" lon="135.5308817"/>
<trkpt lat="34.68436250000001" lon="135.53094330000002"/>
<trkpt lat="34.684364999999985" lon="135.53097789999998"/>
<trkpt lat="34.6843675" lon="135.53101239999998"/>
<trkpt lat="34.6842641" lon="135.5310265"/>
<trkpt lat="34.684082499999995" lon="135.53108190000003"/>
<trkpt lat="34.683802299999996" lon="135.53117870000003"/>
<trkpt lat="34.6836333" lon="135.53126319999998"/>
<trkpt lat="34.68334349999999" lon="135.5314483"/>
<trkpt lat="34.68324719999999" lon="135.5313513"/>
<trkpt lat="34.68309120000001" lon="135.5312706"/>
<trkpt lat="34.6829457" lon="135.5312609"/>
<trkpt lat="34.682817799999995" lon="135.53128530000004"/>
<trkpt lat="34.6826821" lon="135.53134469999998"/>
<trkpt lat="34.682556399999996" lon="135.5314258"/>
<trkpt lat="34.6824155" lon="135.5315549"/>
<trkpt lat="34.682252899999995" lon="135.53140850000003"/>
<trkpt lat="34.68207139999999" lon="135.53129969999998"/>
<trkpt lat="34.681915599999996" lon="135.53123570000002"/>
<trkpt lat="34.68176349999999" lon="135.53119949999996"/>
<trkpt lat="34.681630599999984" lon="135.5311915"/>
<trkpt lat="34.68163399999998" lon="135.5308961"/>
<trkpt lat="34.6816438" lon="135.53003609999993"/>
<trkpt lat="34.6816333" lon="135.5300208"/>
<trkpt lat="34.6816228" lon="135.5300056"/>
<trkpt lat="34.6816248" lon="135.5298681"/>
<trkpt lat="34.6816062" lon="135.5298681"/>
<trkpt lat="34.68134930000001" lon="135.52986850000008"/>
<trkpt lat="34.68134559999999" lon="135.5298435"/>
<trkpt lat="34.6813306" lon="135.52974140000003"/>
<trkpt lat="34.6812992" lon="135.5297035"/>
<trkpt lat="34.68124900000001" lon="135.52965919999997"/>
<trkpt lat="34.68117729999999" lon="135.5296457"/>
<trkpt lat="34.6803494" lon="135.52949650000002"/>
<trkpt lat="34.6803325" lon="135.5303492"/>
<trkpt lat="34.680343" lon="135.5306624"/>
<trkpt lat="34.6803248" lon="135.5307382"/>
<trkpt lat="34.680316499999996" lon="135.53077270000003"/>
<trkpt lat="34.6802813" lon="135.53077400000004"/>
<trkpt lat="34.6802813" lon="135.530884"/>
<trkpt lat="34.6802813" lon="135.53077400000004"/>
<trkpt lat="34.680316499999996" lon="135.53077270000003"/>
<trkpt lat="34.6803248" lon="135.53073810000004"/>
<trkpt lat="34.680342700000004" lon="135.5306124"/>
<trkpt lat="34.6803325" lon="135.5303492"/>
<trkpt lat="34.6803494" lon="135.5294886000001"/>
<trkpt lat="34.68005009999999" lon="135.52943180000003"/>
<trkpt lat="34.679771999999986" lon="135.5293789"/>
<trkpt lat="34.679756800000014" lon="135.52939740000002"/>
<trkpt lat="34.679673900000004" lon="135.52938730000002"/>
<trkpt lat="34.6796587" lon="135.52935410000003"/>
<trkpt lat="34.67961209999999" lon="135.5293474"/>
<trkpt lat="34.67959829999998" lon="135.5293706"/>
<trkpt lat="34.679548700000005" lon="135.52936249999996"/>
<trkpt lat="34.6795388" lon="135.52933400000003"/>
<trkpt lat="34.679383299999984" lon="135.5293032"/>
<trkpt lat="34.67938679999999" lon="135.52928100000003"/>
<trkpt lat="34.67939839999998" lon="135.5292083"/>
<trkpt lat="34.67938179999999" lon="135.5291907"/>
<trkpt lat="34.67937579999999" lon="135.52916470000008"/>
<trkpt lat="34.679348899999994" lon="135.5291588"/>
<trkpt lat="34.67929749999999" lon="135.52914760000002"/>
<trkpt lat="34.67939769999999" lon="135.52858379999998"/>
<trkpt lat="34.6794911" lon="135.528058"/>
<trkpt lat="34.67947339999999" lon="135.52802540000002"/>
<trkpt lat="34.6794782" lon="135.52800670000002"/>
<trkpt lat="34.679496900000004" lon="135.52795149999997"/>
<trkpt lat="34.67951529999999" lon="135.52793259999996"/>
<trkpt lat="34.679700600000004" lon="135.52690759999996"/>
<trkpt lat="34.6796904" lon="135.52688190000006"/>
<trkpt lat="34.6796856" lon="135.52682270000005"/>
<trkpt lat="34.67971049999999" lon="135.5266666"/>
<trkpt lat="34.680437" lon="135.52675739999992"/>
<trkpt lat="34.681201599999994" lon="135.52689220000005"/>
<trkpt lat="34.681591099999984" lon="135.52689560000002"/>
<trkpt lat="34.6815899" lon="135.52686059999996"/>
<trkpt lat="34.68158869999999" lon="135.52682579999998"/>
<trkpt lat="34.68161289999999" lon="135.52682849999997"/>
<trkpt lat="34.681663899999975" lon="135.5269381"/>
<trkpt lat="34.6817494" lon="135.5269484"/>
<trkpt lat="34.6817965" lon="135.52693550000004"/>
<trkpt lat="34.6818357" lon="135.5268342"/>
<trkpt lat="34.681904300000014" lon="135.52681040000004"/>
<trkpt lat="34.68194820000001" lon="135.5263147"/>
<trkpt lat="34.68199969999999" lon="135.5257315"/>
<trkpt lat="34.682045599999995" lon="135.525737"/>
<trkpt lat="34.68216679999999" lon="135.52575160000004"/>
<trkpt lat="34.682323000000004" lon="135.52402080000005"/>
<trkpt lat="34.68237579999998" lon="135.52343580000004"/>
<trkpt lat="34.682436999999986" lon="135.52322900000004"/>
<trkpt lat="34.682873" lon="135.5224614"/>
<trkpt lat="34.68293909999998" lon="135.52251719999998"/>
<trkpt lat="34.68308169999999" lon="135.52238020000001"/>
<trkpt lat="34.68316839999999" lon="135.52229690000001"/>
<trkpt lat="34.68323209999999" lon="135.52225839999997"/>
<trkpt lat="34.6832847" lon="135.52225220000003"/>
<trkpt lat="34.683479399999996" lon="135.52224430000004"/>
<trkpt lat="34.68348849999998" lon="135.52226620000002"/>
<trkpt lat="34.68350729999999" lon="135.52230429999997"/>
<trkpt lat="34.6835627" lon="135.52231640000002"/>
<trkpt lat="34.68356189999999" lon="135.5223397"/>
<trkpt lat="34.68356099999999" lon="135.52236299999996"/>
<trkpt lat="34.6839042" lon="135.52236619999994"/>
</trkseg></trk></gpx>