<?xml version="1.0" encoding="UTF-8"?>
<gpx version="1.1" creator="RunNavi nationwide seed" xmlns="http://www.topografix.com/GPX/1/1">
  <metadata>
    <name>広瀬川 · 宮沢橋 往復 5.2K</name>
    <copyright author="OpenStreetMap contributors">
      <license>https://opendatacommons.org/licenses/odbl/1-0/</license>
    </copyright>
  </metadata>
  <trk><name>広瀬川 · 宮沢橋 往復 5.2K</name><trkseg>
    <trkpt lat="38.2408006" lon="140.8862572"></trkpt>
    <trkpt lat="38.2407757" lon="140.8861937"></trkpt>
    <trkpt lat="38.2407374" lon="140.8860962"></trkpt>
    <trkpt lat="38.2406963" lon="140.8860480"></trkpt>
    <trkpt lat="38.2406489" lon="140.8860319"></trkpt>
    <trkpt lat="38.2406131" lon="140.8860493"></trkpt>
    <trkpt lat="38.2404930" lon="140.8861298"></trkpt>
    <trkpt lat="38.2403371" lon="140.8862397"></trkpt>
    <trkpt lat="38.2400169" lon="140.8864530"></trkpt>
    <trkpt lat="38.2397314" lon="140.8866461"></trkpt>
    <trkpt lat="38.2393248" lon="140.8869224"></trkpt>
    <trkpt lat="38.2390194" lon="140.8871329"></trkpt>
    <trkpt lat="38.2388235" lon="140.8872643"></trkpt>
    <trkpt lat="38.2387792" lon="140.8873314"></trkpt>
    <trkpt lat="38.2387371" lon="140.8874387"></trkpt>
    <trkpt lat="38.2387139" lon="140.8875299"></trkpt>
    <trkpt lat="38.2386886" lon="140.8876036"></trkpt>
    <trkpt lat="38.2386496" lon="140.8876734"></trkpt>
    <trkpt lat="38.2385643" lon="140.8877404"></trkpt>
    <trkpt lat="38.2383884" lon="140.8878625"></trkpt>
    <trkpt lat="38.2382641" lon="140.8879429"></trkpt>
    <trkpt lat="38.2380893" lon="140.8880556"></trkpt>
    <trkpt lat="38.2379818" lon="140.8880891"></trkpt>
    <trkpt lat="38.2377459" lon="140.8882541"></trkpt>
    <trkpt lat="38.2374288" lon="140.8884834"></trkpt>
    <trkpt lat="38.2372855" lon="140.8885840"></trkpt>
    <trkpt lat="38.2371033" lon="140.8887114"></trkpt>
    <trkpt lat="38.2368916" lon="140.8888576"></trkpt>
    <trkpt lat="38.2367072" lon="140.8889974"></trkpt>
    <trkpt lat="38.2363107" lon="140.8893936"></trkpt>
    <trkpt lat="38.2361929" lon="140.8894323"></trkpt>
    <trkpt lat="38.2359142" lon="140.8896157"></trkpt>
    <trkpt lat="38.2355356" lon="140.8899475"></trkpt>
    <trkpt lat="38.2352656" lon="140.8902589"></trkpt>
    <trkpt lat="38.2350580" lon="140.8905037"></trkpt>
    <trkpt lat="38.2345496" lon="140.8911048"></trkpt>
    <trkpt lat="38.2343292" lon="140.8913711"></trkpt>
    <trkpt lat="38.2342238" lon="140.8914280"></trkpt>
    <trkpt lat="38.2336011" lon="140.8922106"></trkpt>
    <trkpt lat="38.2335692" lon="140.8923143"></trkpt>
    <trkpt lat="38.2332722" lon="140.8926944"></trkpt>
    <trkpt lat="38.2331358" lon="140.8928675"></trkpt>
    <trkpt lat="38.2326942" lon="140.8934283"></trkpt>
    <trkpt lat="38.2325936" lon="140.8935637"></trkpt>
    <trkpt lat="38.2321449" lon="140.8941682"></trkpt>
    <trkpt lat="38.2317418" lon="140.8946903"></trkpt>
    <trkpt lat="38.2316547" lon="140.8947638"></trkpt>
    <trkpt lat="38.2310320" lon="140.8956480"></trkpt>
    <trkpt lat="38.2310237" lon="140.8957179"></trkpt>
    <trkpt lat="38.2308920" lon="140.8959098"></trkpt>
    <trkpt lat="38.2304669" lon="140.8963959"></trkpt>
    <trkpt lat="38.2301125" lon="140.8968414"></trkpt>
    <trkpt lat="38.2297755" lon="140.8973916"></trkpt>
    <trkpt lat="38.2296950" lon="140.8975671"></trkpt>
    <trkpt lat="38.2296012" lon="140.8976988"></trkpt>
    <trkpt lat="38.2294908" lon="140.8978162"></trkpt>
    <trkpt lat="38.2293045" lon="140.8979589"></trkpt>
    <trkpt lat="38.2288834" lon="140.8985378"></trkpt>
    <trkpt lat="38.2285567" lon="140.8989868"></trkpt>
    <trkpt lat="38.2282526" lon="140.8994049"></trkpt>
    <trkpt lat="38.2278300" lon="140.9003929"></trkpt>
    <trkpt lat="38.2274732" lon="140.9011614"></trkpt>
    <trkpt lat="38.2274418" lon="140.9012227"></trkpt>
    <trkpt lat="38.2268309" lon="140.9024149"></trkpt>
    <trkpt lat="38.2267911" lon="140.9025068"></trkpt>
    <trkpt lat="38.2268110" lon="140.9025237"></trkpt>
    <trkpt lat="38.2270863" lon="140.9022017"></trkpt>
    <trkpt lat="38.2271462" lon="140.9022615"></trkpt>
    <trkpt lat="38.2269933" lon="140.9025490"></trkpt>
    <trkpt lat="38.2269610" lon="140.9026097"></trkpt>
    <trkpt lat="38.2269540" lon="140.9026234"></trkpt>
    <trkpt lat="38.2269157" lon="140.9025832"></trkpt>
    <trkpt lat="38.2256938" lon="140.9013788"></trkpt>
    <trkpt lat="38.2247147" lon="140.9004168"></trkpt>
    <trkpt lat="38.2256938" lon="140.9013788"></trkpt>
    <trkpt lat="38.2269157" lon="140.9025832"></trkpt>
    <trkpt lat="38.2269540" lon="140.9026234"></trkpt>
    <trkpt lat="38.2269610" lon="140.9026097"></trkpt>
    <trkpt lat="38.2269933" lon="140.9025490"></trkpt>
    <trkpt lat="38.2271462" lon="140.9022615"></trkpt>
    <trkpt lat="38.2270863" lon="140.9022017"></trkpt>
    <trkpt lat="38.2268110" lon="140.9025237"></trkpt>
    <trkpt lat="38.2267911" lon="140.9025068"></trkpt>
    <trkpt lat="38.2268309" lon="140.9024149"></trkpt>
    <trkpt lat="38.2274418" lon="140.9012227"></trkpt>
    <trkpt lat="38.2274732" lon="140.9011614"></trkpt>
    <trkpt lat="38.2278300" lon="140.9003929"></trkpt>
    <trkpt lat="38.2282526" lon="140.8994049"></trkpt>
    <trkpt lat="38.2285567" lon="140.8989868"></trkpt>
    <trkpt lat="38.2288834" lon="140.8985378"></trkpt>
    <trkpt lat="38.2293045" lon="140.8979589"></trkpt>
    <trkpt lat="38.2294908" lon="140.8978162"></trkpt>
    <trkpt lat="38.2296012" lon="140.8976988"></trkpt>
    <trkpt lat="38.2296950" lon="140.8975671"></trkpt>
    <trkpt lat="38.2297755" lon="140.8973916"></trkpt>
    <trkpt lat="38.2301125" lon="140.8968414"></trkpt>
    <trkpt lat="38.2304669" lon="140.8963959"></trkpt>
    <trkpt lat="38.2308920" lon="140.8959098"></trkpt>
    <trkpt lat="38.2310237" lon="140.8957179"></trkpt>
    <trkpt lat="38.2310320" lon="140.8956480"></trkpt>
    <trkpt lat="38.2316547" lon="140.8947638"></trkpt>
    <trkpt lat="38.2317418" lon="140.8946903"></trkpt>
    <trkpt lat="38.2321449" lon="140.8941682"></trkpt>
    <trkpt lat="38.2325936" lon="140.8935637"></trkpt>
    <trkpt lat="38.2326942" lon="140.8934283"></trkpt>
    <trkpt lat="38.2331358" lon="140.8928675"></trkpt>
    <trkpt lat="38.2332722" lon="140.8926944"></trkpt>
    <trkpt lat="38.2335692" lon="140.8923143"></trkpt>
    <trkpt lat="38.2336011" lon="140.8922106"></trkpt>
    <trkpt lat="38.2342238" lon="140.8914280"></trkpt>
    <trkpt lat="38.2343292" lon="140.8913711"></trkpt>
    <trkpt lat="38.2345496" lon="140.8911048"></trkpt>
    <trkpt lat="38.2350580" lon="140.8905037"></trkpt>
    <trkpt lat="38.2352656" lon="140.8902589"></trkpt>
    <trkpt lat="38.2355356" lon="140.8899475"></trkpt>
    <trkpt lat="38.2359142" lon="140.8896157"></trkpt>
    <trkpt lat="38.2361929" lon="140.8894323"></trkpt>
    <trkpt lat="38.2363107" lon="140.8893936"></trkpt>
    <trkpt lat="38.2367072" lon="140.8889974"></trkpt>
    <trkpt lat="38.2368916" lon="140.8888576"></trkpt>
    <trkpt lat="38.2371033" lon="140.8887114"></trkpt>
    <trkpt lat="38.2372855" lon="140.8885840"></trkpt>
    <trkpt lat="38.2374288" lon="140.8884834"></trkpt>
    <trkpt lat="38.2377459" lon="140.8882541"></trkpt>
    <trkpt lat="38.2379818" lon="140.8880891"></trkpt>
    <trkpt lat="38.2380893" lon="140.8880556"></trkpt>
    <trkpt lat="38.2382641" lon="140.8879429"></trkpt>
    <trkpt lat="38.2383884" lon="140.8878625"></trkpt>
    <trkpt lat="38.2385643" lon="140.8877404"></trkpt>
    <trkpt lat="38.2386496" lon="140.8876734"></trkpt>
    <trkpt lat="38.2386886" lon="140.8876036"></trkpt>
    <trkpt lat="38.2387139" lon="140.8875299"></trkpt>
    <trkpt lat="38.2387371" lon="140.8874387"></trkpt>
    <trkpt lat="38.2387792" lon="140.8873314"></trkpt>
    <trkpt lat="38.2388235" lon="140.8872643"></trkpt>
    <trkpt lat="38.2390194" lon="140.8871329"></trkpt>
    <trkpt lat="38.2393248" lon="140.8869224"></trkpt>
    <trkpt lat="38.2397314" lon="140.8866461"></trkpt>
    <trkpt lat="38.2400169" lon="140.8864530"></trkpt>
    <trkpt lat="38.2403371" lon="140.8862397"></trkpt>
    <trkpt lat="38.2404930" lon="140.8861298"></trkpt>
    <trkpt lat="38.2406131" lon="140.8860493"></trkpt>
    <trkpt lat="38.2406489" lon="140.8860319"></trkpt>
    <trkpt lat="38.2406963" lon="140.8860480"></trkpt>
    <trkpt lat="38.2407374" lon="140.8860962"></trkpt>
    <trkpt lat="38.2407757" lon="140.8861937"></trkpt>
    <trkpt lat="38.2408006" lon="140.8862572"></trkpt>
  </trkseg></trk>
</gpx>