<?xml version="1.0" encoding="UTF-8"?>
<gpx version="1.1" creator="RunNavi nationwide seed" xmlns="http://www.topografix.com/GPX/1/1">
  <metadata>
    <name>豊平川 · 幌平橋 往復 10K</name>
    <copyright author="OpenStreetMap contributors">
      <license>https://opendatacommons.org/licenses/odbl/1-0/</license>
    </copyright>
  </metadata>
  <trk><name>豊平川 · 幌平橋 往復 10K</name><trkseg>
    <trkpt lat="43.0427045" lon="141.3566328"></trkpt>
    <trkpt lat="43.0426762" lon="141.3566313"></trkpt>
    <trkpt lat="43.0421326" lon="141.3566158"></trkpt>
    <trkpt lat="43.0420975" lon="141.3566141"></trkpt>
    <trkpt lat="43.0420714" lon="141.3566128"></trkpt>
    <trkpt lat="43.0417030" lon="141.3565912"></trkpt>
    <trkpt lat="43.0414231" lon="141.3565405"></trkpt>
    <trkpt lat="43.0413960" lon="141.3565363"></trkpt>
    <trkpt lat="43.0413723" lon="141.3565329"></trkpt>
    <trkpt lat="43.0408541" lon="141.3564096"></trkpt>
    <trkpt lat="43.0408290" lon="141.3564369"></trkpt>
    <trkpt lat="43.0403324" lon="141.3562478"></trkpt>
    <trkpt lat="43.0402940" lon="141.3562359"></trkpt>
    <trkpt lat="43.0401926" lon="141.3562869"></trkpt>
    <trkpt lat="43.0399760" lon="141.3567359"></trkpt>
    <trkpt lat="43.0399710" lon="141.3567643"></trkpt>
    <trkpt lat="43.0399707" lon="141.3567927"></trkpt>
    <trkpt lat="43.0399723" lon="141.3568331"></trkpt>
    <trkpt lat="43.0399348" lon="141.3569150"></trkpt>
    <trkpt lat="43.0399076" lon="141.3569777"></trkpt>
    <trkpt lat="43.0398600" lon="141.3569884"></trkpt>
    <trkpt lat="43.0398367" lon="141.3570310"></trkpt>
    <trkpt lat="43.0397639" lon="141.3571746"></trkpt>
    <trkpt lat="43.0401568" lon="141.3573614"></trkpt>
    <trkpt lat="43.0406608" lon="141.3576009"></trkpt>
    <trkpt lat="43.0407331" lon="141.3576665"></trkpt>
    <trkpt lat="43.0407785" lon="141.3577259"></trkpt>
    <trkpt lat="43.0408554" lon="141.3579060"></trkpt>
    <trkpt lat="43.0408667" lon="141.3579324"></trkpt>
    <trkpt lat="43.0409319" lon="141.3580117"></trkpt>
    <trkpt lat="43.0410488" lon="141.3580807"></trkpt>
    <trkpt lat="43.0414992" lon="141.3583136"></trkpt>
    <trkpt lat="43.0421987" lon="141.3586754"></trkpt>
    <trkpt lat="43.0425752" lon="141.3588629"></trkpt>
    <trkpt lat="43.0428028" lon="141.3589324"></trkpt>
    <trkpt lat="43.0433201" lon="141.3590191"></trkpt>
    <trkpt lat="43.0433746" lon="141.3590285"></trkpt>
    <trkpt lat="43.0434049" lon="141.3590339"></trkpt>
    <trkpt lat="43.0434654" lon="141.3590382"></trkpt>
    <trkpt lat="43.0435243" lon="141.3590085"></trkpt>
    <trkpt lat="43.0436134" lon="141.3589208"></trkpt>
    <trkpt lat="43.0436726" lon="141.3588606"></trkpt>
    <trkpt lat="43.0436916" lon="141.3588454"></trkpt>
    <trkpt lat="43.0437559" lon="141.3587937"></trkpt>
    <trkpt lat="43.0438085" lon="141.3587644"></trkpt>
    <trkpt lat="43.0438656" lon="141.3587572"></trkpt>
    <trkpt lat="43.0439674" lon="141.3587647"></trkpt>
    <trkpt lat="43.0443233" lon="141.3588122"></trkpt>
    <trkpt lat="43.0443790" lon="141.3588178"></trkpt>
    <trkpt lat="43.0444335" lon="141.3588652"></trkpt>
    <trkpt lat="43.0448621" lon="141.3589292"></trkpt>
    <trkpt lat="43.0450593" lon="141.3589466"></trkpt>
    <trkpt lat="43.0453601" lon="141.3589182"></trkpt>
    <trkpt lat="43.0455126" lon="141.3589233"></trkpt>
    <trkpt lat="43.0455490" lon="141.3589245"></trkpt>
    <trkpt lat="43.0457145" lon="141.3590312"></trkpt>
    <trkpt lat="43.0463079" lon="141.3594138"></trkpt>
    <trkpt lat="43.0464961" lon="141.3594567"></trkpt>
    <trkpt lat="43.0470293" lon="141.3595511"></trkpt>
    <trkpt lat="43.0475938" lon="141.3598086"></trkpt>
    <trkpt lat="43.0483259" lon="141.3600523"></trkpt>
    <trkpt lat="43.0483966" lon="141.3600753"></trkpt>
    <trkpt lat="43.0484769" lon="141.3600719"></trkpt>
    <trkpt lat="43.0485122" lon="141.3600601"></trkpt>
    <trkpt lat="43.0485350" lon="141.3600458"></trkpt>
    <trkpt lat="43.0485564" lon="141.3600324"></trkpt>
    <trkpt lat="43.0485979" lon="141.3599924"></trkpt>
    <trkpt lat="43.0486574" lon="141.3599021"></trkpt>
    <trkpt lat="43.0487558" lon="141.3597284"></trkpt>
    <trkpt lat="43.0489663" lon="141.3593533"></trkpt>
    <trkpt lat="43.0490292" lon="141.3592928"></trkpt>
    <trkpt lat="43.0490713" lon="141.3592637"></trkpt>
    <trkpt lat="43.0491619" lon="141.3592390"></trkpt>
    <trkpt lat="43.0492170" lon="141.3592344"></trkpt>
    <trkpt lat="43.0492568" lon="141.3592556"></trkpt>
    <trkpt lat="43.0496008" lon="141.3594390"></trkpt>
    <trkpt lat="43.0496863" lon="141.3594766"></trkpt>
    <trkpt lat="43.0499561" lon="141.3595767"></trkpt>
    <trkpt lat="43.0499699" lon="141.3595818"></trkpt>
    <trkpt lat="43.0504824" lon="141.3597664"></trkpt>
    <trkpt lat="43.0507559" lon="141.3598649"></trkpt>
    <trkpt lat="43.0508906" lon="141.3599134"></trkpt>
    <trkpt lat="43.0511598" lon="141.3600138"></trkpt>
    <trkpt lat="43.0512800" lon="141.3600570"></trkpt>
    <trkpt lat="43.0515377" lon="141.3601495"></trkpt>
    <trkpt lat="43.0530723" lon="141.3607006"></trkpt>
    <trkpt lat="43.0533251" lon="141.3608021"></trkpt>
    <trkpt lat="43.0536300" lon="141.3610233"></trkpt>
    <trkpt lat="43.0538777" lon="141.3612463"></trkpt>
    <trkpt lat="43.0540540" lon="141.3614051"></trkpt>
    <trkpt lat="43.0542171" lon="141.3615853"></trkpt>
    <trkpt lat="43.0543864" lon="141.3617827"></trkpt>
    <trkpt lat="43.0545307" lon="141.3619629"></trkpt>
    <trkpt lat="43.0546937" lon="141.3622033"></trkpt>
    <trkpt lat="43.0548380" lon="141.3624264"></trkpt>
    <trkpt lat="43.0549760" lon="141.3626582"></trkpt>
    <trkpt lat="43.0550951" lon="141.3629243"></trkpt>
    <trkpt lat="43.0552734" lon="141.3631424"></trkpt>
    <trkpt lat="43.0556385" lon="141.3635657"></trkpt>
    <trkpt lat="43.0558894" lon="141.3638566"></trkpt>
    <trkpt lat="43.0563627" lon="141.3643985"></trkpt>
    <trkpt lat="43.0567829" lon="141.3648795"></trkpt>
    <trkpt lat="43.0569053" lon="141.3650193"></trkpt>
    <trkpt lat="43.0571159" lon="141.3652242"></trkpt>
    <trkpt lat="43.0574595" lon="141.3654786"></trkpt>
    <trkpt lat="43.0576943" lon="141.3656291"></trkpt>
    <trkpt lat="43.0578780" lon="141.3657371"></trkpt>
    <trkpt lat="43.0579751" lon="141.3658364"></trkpt>
    <trkpt lat="43.0582580" lon="141.3661855"></trkpt>
    <trkpt lat="43.0583191" lon="141.3662552"></trkpt>
    <trkpt lat="43.0585153" lon="141.3664508"></trkpt>
    <trkpt lat="43.0588267" lon="141.3667018"></trkpt>
    <trkpt lat="43.0604814" lon="141.3679692"></trkpt>
    <trkpt lat="43.0606021" lon="141.3680362"></trkpt>
    <trkpt lat="43.0608325" lon="141.3680773"></trkpt>
    <trkpt lat="43.0608952" lon="141.3681107"></trkpt>
    <trkpt lat="43.0610994" lon="141.3682939"></trkpt>
    <trkpt lat="43.0616713" lon="141.3687273"></trkpt>
    <trkpt lat="43.0617745" lon="141.3688061"></trkpt>
    <trkpt lat="43.0618237" lon="141.3688250"></trkpt>
    <trkpt lat="43.0618508" lon="141.3688560"></trkpt>
    <trkpt lat="43.0619297" lon="141.3689414"></trkpt>
    <trkpt lat="43.0619756" lon="141.3690673"></trkpt>
    <trkpt lat="43.0620348" lon="141.3692366"></trkpt>
    <trkpt lat="43.0621059" lon="141.3693715"></trkpt>
    <trkpt lat="43.0621541" lon="141.3694539"></trkpt>
    <trkpt lat="43.0621946" lon="141.3695138"></trkpt>
    <trkpt lat="43.0622581" lon="141.3695872"></trkpt>
    <trkpt lat="43.0623521" lon="141.3696399"></trkpt>
    <trkpt lat="43.0628212" lon="141.3707265"></trkpt>
    <trkpt lat="43.0631260" lon="141.3714810"></trkpt>
    <trkpt lat="43.0633238" lon="141.3719892"></trkpt>
    <trkpt lat="43.0635380" lon="141.3726144"></trkpt>
    <trkpt lat="43.0637121" lon="141.3731216"></trkpt>
    <trkpt lat="43.0638277" lon="141.3735046"></trkpt>
    <trkpt lat="43.0639389" lon="141.3739022"></trkpt>
    <trkpt lat="43.0642259" lon="141.3748976"></trkpt>
    <trkpt lat="43.0644140" lon="141.3757130"></trkpt>
    <trkpt lat="43.0647966" lon="141.3769318"></trkpt>
    <trkpt lat="43.0647903" lon="141.3771550"></trkpt>
    <trkpt lat="43.0648655" lon="141.3773781"></trkpt>
    <trkpt lat="43.0653923" lon="141.3790948"></trkpt>
    <trkpt lat="43.0656431" lon="141.3797471"></trkpt>
    <trkpt lat="43.0657309" lon="141.3801762"></trkpt>
    <trkpt lat="43.0658670" lon="141.3806721"></trkpt>
    <trkpt lat="43.0659359" lon="141.3809091"></trkpt>
    <trkpt lat="43.0659841" lon="141.3811574"></trkpt>
    <trkpt lat="43.0662876" lon="141.3821497"></trkpt>
    <trkpt lat="43.0663626" lon="141.3823581"></trkpt>
    <trkpt lat="43.0665321" lon="141.3829267"></trkpt>
    <trkpt lat="43.0670898" lon="141.3847480"></trkpt>
    <trkpt lat="43.0672468" lon="141.3850852"></trkpt>
    <trkpt lat="43.0673664" lon="141.3856843"></trkpt>
    <trkpt lat="43.0675430" lon="141.3862616"></trkpt>
    <trkpt lat="43.0679882" lon="141.3874804"></trkpt>
    <trkpt lat="43.0687281" lon="141.3889653"></trkpt>
    <trkpt lat="43.0688983" lon="141.3892501"></trkpt>
    <trkpt lat="43.0687281" lon="141.3889653"></trkpt>
    <trkpt lat="43.0679882" lon="141.3874804"></trkpt>
    <trkpt lat="43.0675430" lon="141.3862616"></trkpt>
    <trkpt lat="43.0673664" lon="141.3856843"></trkpt>
    <trkpt lat="43.0672468" lon="141.3850852"></trkpt>
    <trkpt lat="43.0670898" lon="141.3847480"></trkpt>
    <trkpt lat="43.0665321" lon="141.3829267"></trkpt>
    <trkpt lat="43.0663626" lon="141.3823581"></trkpt>
    <trkpt lat="43.0662876" lon="141.3821497"></trkpt>
    <trkpt lat="43.0659841" lon="141.3811574"></trkpt>
    <trkpt lat="43.0659359" lon="141.3809091"></trkpt>
    <trkpt lat="43.0658670" lon="141.3806721"></trkpt>
    <trkpt lat="43.0657309" lon="141.3801762"></trkpt>
    <trkpt lat="43.0656431" lon="141.3797471"></trkpt>
    <trkpt lat="43.0653923" lon="141.3790948"></trkpt>
    <trkpt lat="43.0648655" lon="141.3773781"></trkpt>
    <trkpt lat="43.0647903" lon="141.3771550"></trkpt>
    <trkpt lat="43.0647966" lon="141.3769318"></trkpt>
    <trkpt lat="43.0644140" lon="141.3757130"></trkpt>
    <trkpt lat="43.0642259" lon="141.3748976"></trkpt>
    <trkpt lat="43.0639389" lon="141.3739022"></trkpt>
    <trkpt lat="43.0638277" lon="141.3735046"></trkpt>
    <trkpt lat="43.0637121" lon="141.3731216"></trkpt>
    <trkpt lat="43.0635380" lon="141.3726144"></trkpt>
    <trkpt lat="43.0633238" lon="141.3719892"></trkpt>
    <trkpt lat="43.0631260" lon="141.3714810"></trkpt>
    <trkpt lat="43.0628212" lon="141.3707265"></trkpt>
    <trkpt lat="43.0623521" lon="141.3696399"></trkpt>
    <trkpt lat="43.0622581" lon="141.3695872"></trkpt>
    <trkpt lat="43.0621946" lon="141.3695138"></trkpt>
    <trkpt lat="43.0621541" lon="141.3694539"></trkpt>
    <trkpt lat="43.0621059" lon="141.3693715"></trkpt>
    <trkpt lat="43.0620348" lon="141.3692366"></trkpt>
    <trkpt lat="43.0619756" lon="141.3690673"></trkpt>
    <trkpt lat="43.0619297" lon="141.3689414"></trkpt>
    <trkpt lat="43.0618508" lon="141.3688560"></trkpt>
    <trkpt lat="43.0618237" lon="141.3688250"></trkpt>
    <trkpt lat="43.0617745" lon="141.3688061"></trkpt>
    <trkpt lat="43.0616713" lon="141.3687273"></trkpt>
    <trkpt lat="43.0610994" lon="141.3682939"></trkpt>
    <trkpt lat="43.0608952" lon="141.3681107"></trkpt>
    <trkpt lat="43.0608325" lon="141.3680773"></trkpt>
    <trkpt lat="43.0606021" lon="141.3680362"></trkpt>
    <trkpt lat="43.0604814" lon="141.3679692"></trkpt>
    <trkpt lat="43.0588267" lon="141.3667018"></trkpt>
    <trkpt lat="43.0585153" lon="141.3664508"></trkpt>
    <trkpt lat="43.0583191" lon="141.3662552"></trkpt>
    <trkpt lat="43.0582580" lon="141.3661855"></trkpt>
    <trkpt lat="43.0579751" lon="141.3658364"></trkpt>
    <trkpt lat="43.0578780" lon="141.3657371"></trkpt>
    <trkpt lat="43.0576943" lon="141.3656291"></trkpt>
    <trkpt lat="43.0574595" lon="141.3654786"></trkpt>
    <trkpt lat="43.0571159" lon="141.3652242"></trkpt>
    <trkpt lat="43.0569053" lon="141.3650193"></trkpt>
    <trkpt lat="43.0567829" lon="141.3648795"></trkpt>
    <trkpt lat="43.0563627" lon="141.3643985"></trkpt>
    <trkpt lat="43.0558894" lon="141.3638566"></trkpt>
    <trkpt lat="43.0556385" lon="141.3635657"></trkpt>
    <trkpt lat="43.0552734" lon="141.3631424"></trkpt>
    <trkpt lat="43.0550951" lon="141.3629243"></trkpt>
    <trkpt lat="43.0549760" lon="141.3626582"></trkpt>
    <trkpt lat="43.0548380" lon="141.3624264"></trkpt>
    <trkpt lat="43.0546937" lon="141.3622033"></trkpt>
    <trkpt lat="43.0545307" lon="141.3619629"></trkpt>
    <trkpt lat="43.0543864" lon="141.3617827"></trkpt>
    <trkpt lat="43.0542171" lon="141.3615853"></trkpt>
    <trkpt lat="43.0540540" lon="141.3614051"></trkpt>
    <trkpt lat="43.0538777" lon="141.3612463"></trkpt>
    <trkpt lat="43.0536300" lon="141.3610233"></trkpt>
    <trkpt lat="43.0533251" lon="141.3608021"></trkpt>
    <trkpt lat="43.0530723" lon="141.3607006"></trkpt>
    <trkpt lat="43.0515377" lon="141.3601495"></trkpt>
    <trkpt lat="43.0512800" lon="141.3600570"></trkpt>
    <trkpt lat="43.0511598" lon="141.3600138"></trkpt>
    <trkpt lat="43.0508906" lon="141.3599134"></trkpt>
    <trkpt lat="43.0507559" lon="141.3598649"></trkpt>
    <trkpt lat="43.0504824" lon="141.3597664"></trkpt>
    <trkpt lat="43.0499699" lon="141.3595818"></trkpt>
    <trkpt lat="43.0499561" lon="141.3595767"></trkpt>
    <trkpt lat="43.0496863" lon="141.3594766"></trkpt>
    <trkpt lat="43.0496008" lon="141.3594390"></trkpt>
    <trkpt lat="43.0492568" lon="141.3592556"></trkpt>
    <trkpt lat="43.0492170" lon="141.3592344"></trkpt>
    <trkpt lat="43.0491619" lon="141.3592390"></trkpt>
    <trkpt lat="43.0490713" lon="141.3592637"></trkpt>
    <trkpt lat="43.0490292" lon="141.3592928"></trkpt>
    <trkpt lat="43.0489663" lon="141.3593533"></trkpt>
    <trkpt lat="43.0487558" lon="141.3597284"></trkpt>
    <trkpt lat="43.0486574" lon="141.3599021"></trkpt>
    <trkpt lat="43.0485979" lon="141.3599924"></trkpt>
    <trkpt lat="43.0485564" lon="141.3600324"></trkpt>
    <trkpt lat="43.0485350" lon="141.3600458"></trkpt>
    <trkpt lat="43.0485122" lon="141.3600601"></trkpt>
    <trkpt lat="43.0484769" lon="141.3600719"></trkpt>
    <trkpt lat="43.0483966" lon="141.3600753"></trkpt>
    <trkpt lat="43.0483259" lon="141.3600523"></trkpt>
    <trkpt lat="43.0475938" lon="141.3598086"></trkpt>
    <trkpt lat="43.0470293" lon="141.3595511"></trkpt>
    <trkpt lat="43.0464961" lon="141.3594567"></trkpt>
    <trkpt lat="43.0463079" lon="141.3594138"></trkpt>
    <trkpt lat="43.0457145" lon="141.3590312"></trkpt>
    <trkpt lat="43.0455490" lon="141.3589245"></trkpt>
    <trkpt lat="43.0455126" lon="141.3589233"></trkpt>
    <trkpt lat="43.0453601" lon="141.3589182"></trkpt>
    <trkpt lat="43.0450593" lon="141.3589466"></trkpt>
    <trkpt lat="43.0448621" lon="141.3589292"></trkpt>
    <trkpt lat="43.0444335" lon="141.3588652"></trkpt>
    <trkpt lat="43.0443790" lon="141.3588178"></trkpt>
    <trkpt lat="43.0443233" lon="141.3588122"></trkpt>
    <trkpt lat="43.0439674" lon="141.3587647"></trkpt>
    <trkpt lat="43.0438656" lon="141.3587572"></trkpt>
    <trkpt lat="43.0438085" lon="141.3587644"></trkpt>
    <trkpt lat="43.0437559" lon="141.3587937"></trkpt>
    <trkpt lat="43.0436916" lon="141.3588454"></trkpt>
    <trkpt lat="43.0436726" lon="141.3588606"></trkpt>
    <trkpt lat="43.0436134" lon="141.3589208"></trkpt>
    <trkpt lat="43.0435243" lon="141.3590085"></trkpt>
    <trkpt lat="43.0434654" lon="141.3590382"></trkpt>
    <trkpt lat="43.0434049" lon="141.3590339"></trkpt>
    <trkpt lat="43.0433746" lon="141.3590285"></trkpt>
    <trkpt lat="43.0433201" lon="141.3590191"></trkpt>
    <trkpt lat="43.0428028" lon="141.3589324"></trkpt>
    <trkpt lat="43.0425752" lon="141.3588629"></trkpt>
    <trkpt lat="43.0421987" lon="141.3586754"></trkpt>
    <trkpt lat="43.0414992" lon="141.3583136"></trkpt>
    <trkpt lat="43.0410488" lon="141.3580807"></trkpt>
    <trkpt lat="43.0409319" lon="141.3580117"></trkpt>
    <trkpt lat="43.0408667" lon="141.3579324"></trkpt>
    <trkpt lat="43.0408554" lon="141.3579060"></trkpt>
    <trkpt lat="43.0407785" lon="141.3577259"></trkpt>
    <trkpt lat="43.0407331" lon="141.3576665"></trkpt>
    <trkpt lat="43.0406608" lon="141.3576009"></trkpt>
    <trkpt lat="43.0401568" lon="141.3573614"></trkpt>
    <trkpt lat="43.0397639" lon="141.3571746"></trkpt>
    <trkpt lat="43.0398367" lon="141.3570310"></trkpt>
    <trkpt lat="43.0398600" lon="141.3569884"></trkpt>
    <trkpt lat="43.0399076" lon="141.3569777"></trkpt>
    <trkpt lat="43.0399348" lon="141.3569150"></trkpt>
    <trkpt lat="43.0399723" lon="141.3568331"></trkpt>
    <trkpt lat="43.0399707" lon="141.3567927"></trkpt>
    <trkpt lat="43.0399710" lon="141.3567643"></trkpt>
    <trkpt lat="43.0399760" lon="141.3567359"></trkpt>
    <trkpt lat="43.0401926" lon="141.3562869"></trkpt>
    <trkpt lat="43.0402940" lon="141.3562359"></trkpt>
    <trkpt lat="43.0403324" lon="141.3562478"></trkpt>
    <trkpt lat="43.0408290" lon="141.3564369"></trkpt>
    <trkpt lat="43.0408541" lon="141.3564096"></trkpt>
    <trkpt lat="43.0413723" lon="141.3565329"></trkpt>
    <trkpt lat="43.0413960" lon="141.3565363"></trkpt>
    <trkpt lat="43.0414231" lon="141.3565405"></trkpt>
    <trkpt lat="43.0417030" lon="141.3565912"></trkpt>
    <trkpt lat="43.0420714" lon="141.3566128"></trkpt>
    <trkpt lat="43.0420975" lon="141.3566141"></trkpt>
    <trkpt lat="43.0421326" lon="141.3566158"></trkpt>
    <trkpt lat="43.0426762" lon="141.3566313"></trkpt>
    <trkpt lat="43.0427045" lon="141.3566328"></trkpt>
  </trkseg></trk>
</gpx>