<?xml version="1.0" encoding="UTF-8"?>
<gpx version="1.1" creator="RunNavi" xmlns="http://www.topografix.com/GPX/1/1">
<trk><name>kokyo</name><trkseg>
<trkpt lat="35.6771715" lon="139.7516149"/>
<trkpt lat="35.6774446" lon="139.7525317"/>
<trkpt lat="35.6774978" lon="139.7526932"/>
<trkpt lat="35.677479" lon="139.7528118"/>
<trkpt lat="35.6774265" lon="139.7528926"/>
<trkpt lat="35.6774636" lon="139.7529502"/>
<trkpt lat="35.6774902" lon="139.7529876"/>
<trkpt lat="35.6775262" lon="139.7530431"/>
<trkpt lat="35.6776005" lon="139.7530949"/>
<trkpt lat="35.6776117" lon="139.7530903"/>
<trkpt lat="35.6776837" lon="139.7530613"/>
<trkpt lat="35.6777968" lon="139.7530159"/>
<trkpt lat="35.6778506" lon="139.7529942"/>
<trkpt lat="35.6778887" lon="139.7529789"/>
<trkpt lat="35.6779163" lon="139.7530798"/>
<trkpt lat="35.6779633" lon="139.7532038"/>
<trkpt lat="35.6779592" lon="139.7533151"/>
<trkpt lat="35.6779551" lon="139.7534287"/>
<trkpt lat="35.6779451" lon="139.7534494"/>
<trkpt lat="35.6778959" lon="139.7535515"/>
<trkpt lat="35.67701" lon="139.7556429"/>
<trkpt lat="35.6769948" lon="139.7556858"/>
<trkpt lat="35.6769863" lon="139.7557325"/>
<trkpt lat="35.6769863" lon="139.7557526"/>
<trkpt lat="35.6769958" lon="139.7557877"/>
<trkpt lat="35.6770132" lon="139.7558221"/>
<trkpt lat="35.6770364" lon="139.7558526"/>
<trkpt lat="35.677617" lon="139.7562273"/>
<trkpt lat="35.6781016" lon="139.7565557"/>
<trkpt lat="35.6789713" lon="139.7571137"/>
<trkpt lat="35.6792429" lon="139.7572825"/>
<trkpt lat="35.679294" lon="139.7573135"/>
<trkpt lat="35.6799849" lon="139.7577631"/>
<trkpt lat="35.6800782" lon="139.757824"/>
<trkpt lat="35.680125" lon="139.7578545"/>
<trkpt lat="35.6817217" lon="139.7588734"/>
<trkpt lat="35.6822255" lon="139.7591938"/>
<trkpt lat="35.6825339" lon="139.7593861"/>
<trkpt lat="35.6825597" lon="139.7594022"/>
<trkpt lat="35.6830235" lon="139.7597139"/>
<trkpt lat="35.6831891" lon="139.7598252"/>
<trkpt lat="35.6832105" lon="139.7598371"/>
<trkpt lat="35.6845228" lon="139.760274"/>
<trkpt lat="35.6846923" lon="139.760343"/>
<trkpt lat="35.6848072" lon="139.7604032"/>
<trkpt lat="35.6849145" lon="139.7604717"/>
<trkpt lat="35.6849589" lon="139.7605032"/>
<trkpt lat="35.6850917" lon="139.7605991"/>
<trkpt lat="35.6852312" lon="139.7607234"/>
<trkpt lat="35.6852911" lon="139.7607695"/>
<trkpt lat="35.6853171" lon="139.7608162"/>
<trkpt lat="35.6853854" lon="139.7608581"/>
<trkpt lat="35.6855981" lon="139.7609484"/>
<trkpt lat="35.6856476" lon="139.7609674"/>
<trkpt lat="35.6856905" lon="139.7609877"/>
<trkpt lat="35.6857241" lon="139.7610036"/>
<trkpt lat="35.6857599" lon="139.7610205"/>
<trkpt lat="35.6857711" lon="139.7609611"/>
<trkpt lat="35.6857822" lon="139.7609027"/>
<trkpt lat="35.6858732" lon="139.7604212"/>
<trkpt lat="35.6858827" lon="139.7603711"/>
<trkpt lat="35.6859242" lon="139.7601515"/>
<trkpt lat="35.6860559" lon="139.7601925"/>
<trkpt lat="35.6861512" lon="139.7602222"/>
<trkpt lat="35.6861779" lon="139.7602305"/>
<trkpt lat="35.6862196" lon="139.7599487"/>
<trkpt lat="35.6862425" lon="139.7597811"/>
<trkpt lat="35.6862675" lon="139.7596149"/>
<trkpt lat="35.6861927" lon="139.7593975"/>
<trkpt lat="35.686148" lon="139.759229"/>
<trkpt lat="35.6861647" lon="139.7590279"/>
<trkpt lat="35.6861801" lon="139.7588459"/>
<trkpt lat="35.6862251" lon="139.7584064"/>
<trkpt lat="35.6862263" lon="139.7582743"/>
<trkpt lat="35.6862123" lon="139.7582035"/>
<trkpt lat="35.6861984" lon="139.7581597"/>
<trkpt lat="35.6861786" lon="139.7581185"/>
<trkpt lat="35.6861331" lon="139.7580629"/>
<trkpt lat="35.6860737" lon="139.7580376"/>
<trkpt lat="35.6860094" lon="139.7580271"/>
<trkpt lat="35.6860178" lon="139.7577829"/>
<trkpt lat="35.6860129" lon="139.7577758"/>
<trkpt lat="35.6860482" lon="139.7577495"/>
<trkpt lat="35.686288" lon="139.7575258"/>
<trkpt lat="35.6864297" lon="139.7574318"/>
<trkpt lat="35.6867201" lon="139.7573424"/>
<trkpt lat="35.6872035" lon="139.7571934"/>
<trkpt lat="35.6876921" lon="139.7570311"/>
<trkpt lat="35.6878011" lon="139.7569973"/>
<trkpt lat="35.6880987" lon="139.7569049"/>
<trkpt lat="35.6882235" lon="139.7568663"/>
<trkpt lat="35.6886124" lon="139.756736"/>
<trkpt lat="35.6886948" lon="139.7566208"/>
<trkpt lat="35.6887502" lon="139.7564983"/>
<trkpt lat="35.6887813" lon="139.7564118"/>
<trkpt lat="35.6888005" lon="139.7563627"/>
<trkpt lat="35.6888001" lon="139.756308"/>
<trkpt lat="35.6888069" lon="139.7562141"/>
<trkpt lat="35.6888279" lon="139.7561701"/>
<trkpt lat="35.6888496" lon="139.7561534"/>
<trkpt lat="35.6888907" lon="139.756136"/>
<trkpt lat="35.6890004" lon="139.7561034"/>
<trkpt lat="35.689055" lon="139.7560603"/>
<trkpt lat="35.689125" lon="139.7559673"/>
<trkpt lat="35.6891666" lon="139.755882"/>
<trkpt lat="35.6891851" lon="139.7557918"/>
<trkpt lat="35.6891902" lon="139.755684"/>
<trkpt lat="35.6891915" lon="139.7556574"/>
<trkpt lat="35.6891898" lon="139.755533"/>
<trkpt lat="35.6891844" lon="139.7554802"/>
<trkpt lat="35.6891819" lon="139.75545"/>
<trkpt lat="35.6891308" lon="139.755259"/>
<trkpt lat="35.6890929" lon="139.7551951"/>
<trkpt lat="35.6890706" lon="139.7551611"/>
<trkpt lat="35.6889584" lon="139.7547234"/>
<trkpt lat="35.688763" lon="139.7540932"/>
<trkpt lat="35.6888641" lon="139.7540372"/>
<trkpt lat="35.6888908" lon="139.7540217"/>
<trkpt lat="35.6890118" lon="139.7539529"/>
<trkpt lat="35.6893647" lon="139.753726"/>
<trkpt lat="35.689452" lon="139.7536756"/>
<trkpt lat="35.6892915" lon="139.753362"/>
<trkpt lat="35.6890896" lon="139.752974"/>
<trkpt lat="35.6891164" lon="139.7529353"/>
<trkpt lat="35.6891211" lon="139.7529084"/>
<trkpt lat="35.6891164" lon="139.7528791"/>
<trkpt lat="35.6891049" lon="139.7528521"/>
<trkpt lat="35.6890964" lon="139.7527841"/>
<trkpt lat="35.6890964" lon="139.7527419"/>
<trkpt lat="35.6890974" lon="139.7527241"/>
<trkpt lat="35.6890992" lon="139.7526939"/>
<trkpt lat="35.6891068" lon="139.752654"/>
<trkpt lat="35.6891211" lon="139.7525966"/>
<trkpt lat="35.6891402" lon="139.7525462"/>
<trkpt lat="35.6891478" lon="139.7525005"/>
<trkpt lat="35.6891477" lon="139.7524412"/>
<trkpt lat="35.6892682" lon="139.7523448"/>
<trkpt lat="35.689469" lon="139.7521901"/>
<trkpt lat="35.6894951" lon="139.7521543"/>
<trkpt lat="35.6895085" lon="139.7521001"/>
<trkpt lat="35.6895033" lon="139.7520404"/>
<trkpt lat="35.6894609" lon="139.7518471"/>
<trkpt lat="35.6894239" lon="139.7516458"/>
<trkpt lat="35.6893936" lon="139.7514942"/>
<trkpt lat="35.6893602" lon="139.751344"/>
<trkpt lat="35.689218" lon="139.7510194"/>
<trkpt lat="35.6887204" lon="139.7499537"/>
<trkpt lat="35.6884708" lon="139.7494027"/>
<trkpt lat="35.6883029" lon="139.7490074"/>
<trkpt lat="35.6882105" lon="139.7487247"/>
<trkpt lat="35.688118" lon="139.7483345"/>
<trkpt lat="35.6880502" lon="139.747892"/>
<trkpt lat="35.6880202" lon="139.7475777"/>
<trkpt lat="35.6879379" lon="139.7466118"/>
<trkpt lat="35.6879337" lon="139.7464755"/>
<trkpt lat="35.6879327" lon="139.7463924"/>
<trkpt lat="35.6880394" lon="139.7455477"/>
<trkpt lat="35.688026" lon="139.7453687"/>
<trkpt lat="35.6879519" lon="139.7452888"/>
<trkpt lat="35.6879026" lon="139.7452501"/>
<trkpt lat="35.6876014" lon="139.7451718"/>
<trkpt lat="35.6868433" lon="139.7449746"/>
<trkpt lat="35.6867806" lon="139.7449583"/>
<trkpt lat="35.6862534" lon="139.7448188"/>
<trkpt lat="35.6857616" lon="139.7446853"/>
<trkpt lat="35.6855295" lon="139.7446223"/>
<trkpt lat="35.685266" lon="139.7445575"/>
<trkpt lat="35.6846069" lon="139.7443954"/>
<trkpt lat="35.6842843" lon="139.744363"/>
<trkpt lat="35.6841704" lon="139.7443531"/>
<trkpt lat="35.684133" lon="139.7443498"/>
<trkpt lat="35.6840827" lon="139.7443462"/>
<trkpt lat="35.6839068" lon="139.7443316"/>
<trkpt lat="35.6837262" lon="139.7442873"/>
<trkpt lat="35.6836446" lon="139.744273"/>
<trkpt lat="35.6835293" lon="139.7442785"/>
<trkpt lat="35.683315" lon="139.7443073"/>
<trkpt lat="35.6829521" lon="139.744374"/>
<trkpt lat="35.6826356" lon="139.7444385"/>
<trkpt lat="35.6824848" lon="139.7444844"/>
<trkpt lat="35.6822885" lon="139.7445723"/>
<trkpt lat="35.6821339" lon="139.7446529"/>
<trkpt lat="35.6818101" lon="139.7448468"/>
<trkpt lat="35.6812824" lon="139.7451627"/>
<trkpt lat="35.6805261" lon="139.745617"/>
<trkpt lat="35.6802268" lon="139.7457927"/>
<trkpt lat="35.6801182" lon="139.7458652"/>
<trkpt lat="35.6800335" lon="139.7459271"/>
<trkpt lat="35.6799707" lon="139.7459911"/>
<trkpt lat="35.6799177" lon="139.7460663"/>
<trkpt lat="35.6798596" lon="139.7461783"/>
<trkpt lat="35.6797984" lon="139.7463684"/>
<trkpt lat="35.6796791" lon="139.746753"/>
<trkpt lat="35.6795576" lon="139.7471551"/>
<trkpt lat="35.6794763" lon="139.747335"/>
<trkpt lat="35.6793503" lon="139.7475113"/>
<trkpt lat="35.6791721" lon="139.7477352"/>
<trkpt lat="35.6790117" lon="139.7479078"/>
<trkpt lat="35.6787992" lon="139.748107"/>
<trkpt lat="35.6786113" lon="139.7482934"/>
<trkpt lat="35.678486" lon="139.7483916"/>
<trkpt lat="35.6782631" lon="139.7485513"/>
<trkpt lat="35.6781639" lon="139.7486303"/>
<trkpt lat="35.6780006" lon="139.7487928"/>
<trkpt lat="35.6776568" lon="139.7491792"/>
<trkpt lat="35.6775573" lon="139.7493538"/>
<trkpt lat="35.6774741" lon="139.7495737"/>
<trkpt lat="35.6774226" lon="139.7499336"/>
<trkpt lat="35.67741" lon="139.7500817"/>
<trkpt lat="35.6773885" lon="139.7501666"/>
<trkpt lat="35.6773767" lon="139.7502403"/>
<trkpt lat="35.6773442" lon="139.7502382"/>
<trkpt lat="35.6773484" lon="139.7501381"/>
<trkpt lat="35.677248" lon="139.7501391"/>
<trkpt lat="35.6769513" lon="139.7501551"/>
<trkpt lat="35.676806" lon="139.7503507"/>
<trkpt lat="35.6767886" lon="139.7502867"/>
<trkpt lat="35.6768037" lon="139.7502792"/>
<trkpt lat="35.6771715" lon="139.7516149"/>
</trkseg></trk></gpx>