<?xml version="1.0" encoding="UTF-8"?>
<gpx version="1.1" creator="RunNavi nationwide seed" xmlns="http://www.topografix.com/GPX/1/1">
  <metadata>
    <name>多摩川 · 二子橋 往復 4.8K</name>
    <copyright author="OpenStreetMap contributors">
      <license>https://opendatacommons.org/licenses/odbl/1-0/</license>
    </copyright>
  </metadata>
  <trk><name>多摩川 · 二子橋 往復 4.8K</name><trkseg>
    <trkpt lat="35.6109796" lon="139.6286467"></trkpt>
    <trkpt lat="35.6109029" lon="139.6287500"></trkpt>
    <trkpt lat="35.6108508" lon="139.6287898"></trkpt>
    <trkpt lat="35.6106518" lon="139.6290305"></trkpt>
    <trkpt lat="35.6105593" lon="139.6291050"></trkpt>
    <trkpt lat="35.6105419" lon="139.6291285"></trkpt>
    <trkpt lat="35.6104436" lon="139.6291848"></trkpt>
    <trkpt lat="35.6103922" lon="139.6292330"></trkpt>
    <trkpt lat="35.6099215" lon="139.6296729"></trkpt>
    <trkpt lat="35.6096797" lon="139.6298942"></trkpt>
    <trkpt lat="35.6095036" lon="139.6300553"></trkpt>
    <trkpt lat="35.6091159" lon="139.6303610"></trkpt>
    <trkpt lat="35.6087319" lon="139.6307209"></trkpt>
    <trkpt lat="35.6084943" lon="139.6309663"></trkpt>
    <trkpt lat="35.6083629" lon="139.6311113"></trkpt>
    <trkpt lat="35.6082442" lon="139.6311850"></trkpt>
    <trkpt lat="35.6081095" lon="139.6313559"></trkpt>
    <trkpt lat="35.6079121" lon="139.6316239"></trkpt>
    <trkpt lat="35.6077070" lon="139.6318867"></trkpt>
    <trkpt lat="35.6072922" lon="139.6324047"></trkpt>
    <trkpt lat="35.6067992" lon="139.6327494"></trkpt>
    <trkpt lat="35.6068824" lon="139.6326181"></trkpt>
    <trkpt lat="35.6069882" lon="139.6323725"></trkpt>
    <trkpt lat="35.6073624" lon="139.6314004"></trkpt>
    <trkpt lat="35.6078301" lon="139.6306530"></trkpt>
    <trkpt lat="35.6081447" lon="139.6301336"></trkpt>
    <trkpt lat="35.6090561" lon="139.6287309"></trkpt>
    <trkpt lat="35.6096156" lon="139.6278460"></trkpt>
    <trkpt lat="35.6096830" lon="139.6277504"></trkpt>
    <trkpt lat="35.6098290" lon="139.6275220"></trkpt>
    <trkpt lat="35.6105173" lon="139.6264993"></trkpt>
    <trkpt lat="35.6106247" lon="139.6263952"></trkpt>
    <trkpt lat="35.6108256" lon="139.6263053"></trkpt>
    <trkpt lat="35.6108942" lon="139.6262029"></trkpt>
    <trkpt lat="35.6111460" lon="139.6258194"></trkpt>
    <trkpt lat="35.6111760" lon="139.6257298"></trkpt>
    <trkpt lat="35.6111944" lon="139.6256748"></trkpt>
    <trkpt lat="35.6112323" lon="139.6256183"></trkpt>
    <trkpt lat="35.6112652" lon="139.6255873"></trkpt>
    <trkpt lat="35.6112151" lon="139.6253523"></trkpt>
    <trkpt lat="35.6111610" lon="139.6249420"></trkpt>
    <trkpt lat="35.6111710" lon="139.6248249"></trkpt>
    <trkpt lat="35.6114150" lon="139.6246235"></trkpt>
    <trkpt lat="35.6117642" lon="139.6243416"></trkpt>
    <trkpt lat="35.6118361" lon="139.6242534"></trkpt>
    <trkpt lat="35.6119240" lon="139.6241458"></trkpt>
    <trkpt lat="35.6120441" lon="139.6239844"></trkpt>
    <trkpt lat="35.6121470" lon="139.6238448"></trkpt>
    <trkpt lat="35.6123113" lon="139.6236348"></trkpt>
    <trkpt lat="35.6123639" lon="139.6235817"></trkpt>
    <trkpt lat="35.6124183" lon="139.6235150"></trkpt>
    <trkpt lat="35.6124977" lon="139.6234258"></trkpt>
    <trkpt lat="35.6126378" lon="139.6233017"></trkpt>
    <trkpt lat="35.6127903" lon="139.6230657"></trkpt>
    <trkpt lat="35.6128897" lon="139.6228378"></trkpt>
    <trkpt lat="35.6128064" lon="139.6225367"></trkpt>
    <trkpt lat="35.6127902" lon="139.6224910"></trkpt>
    <trkpt lat="35.6127743" lon="139.6224542"></trkpt>
    <trkpt lat="35.6127366" lon="139.6223048"></trkpt>
    <trkpt lat="35.6127031" lon="139.6222572"></trkpt>
    <trkpt lat="35.6126802" lon="139.6222394"></trkpt>
    <trkpt lat="35.6126329" lon="139.6221927"></trkpt>
    <trkpt lat="35.6125751" lon="139.6221578"></trkpt>
    <trkpt lat="35.6125276" lon="139.6220923"></trkpt>
    <trkpt lat="35.6124519" lon="139.6220262"></trkpt>
    <trkpt lat="35.6124094" lon="139.6219764"></trkpt>
    <trkpt lat="35.6123217" lon="139.6218460"></trkpt>
    <trkpt lat="35.6122837" lon="139.6217360"></trkpt>
    <trkpt lat="35.6122708" lon="139.6216516"></trkpt>
    <trkpt lat="35.6122448" lon="139.6215992"></trkpt>
    <trkpt lat="35.6121723" lon="139.6215007"></trkpt>
    <trkpt lat="35.6120873" lon="139.6214278"></trkpt>
    <trkpt lat="35.6120388" lon="139.6213349"></trkpt>
    <trkpt lat="35.6120060" lon="139.6212533"></trkpt>
    <trkpt lat="35.6119681" lon="139.6211593"></trkpt>
    <trkpt lat="35.6119763" lon="139.6210696"></trkpt>
    <trkpt lat="35.6128347" lon="139.6178958"></trkpt>
    <trkpt lat="35.6130715" lon="139.6172211"></trkpt>
    <trkpt lat="35.6132363" lon="139.6167021"></trkpt>
    <trkpt lat="35.6132656" lon="139.6166507"></trkpt>
    <trkpt lat="35.6133113" lon="139.6166196"></trkpt>
    <trkpt lat="35.6132656" lon="139.6166507"></trkpt>
    <trkpt lat="35.6132363" lon="139.6167021"></trkpt>
    <trkpt lat="35.6130715" lon="139.6172211"></trkpt>
    <trkpt lat="35.6128347" lon="139.6178958"></trkpt>
    <trkpt lat="35.6119763" lon="139.6210696"></trkpt>
    <trkpt lat="35.6119681" lon="139.6211593"></trkpt>
    <trkpt lat="35.6120060" lon="139.6212533"></trkpt>
    <trkpt lat="35.6120388" lon="139.6213349"></trkpt>
    <trkpt lat="35.6120873" lon="139.6214278"></trkpt>
    <trkpt lat="35.6121723" lon="139.6215007"></trkpt>
    <trkpt lat="35.6122448" lon="139.6215992"></trkpt>
    <trkpt lat="35.6122708" lon="139.6216516"></trkpt>
    <trkpt lat="35.6122837" lon="139.6217360"></trkpt>
    <trkpt lat="35.6123217" lon="139.6218460"></trkpt>
    <trkpt lat="35.6124094" lon="139.6219764"></trkpt>
    <trkpt lat="35.6124519" lon="139.6220262"></trkpt>
    <trkpt lat="35.6125276" lon="139.6220923"></trkpt>
    <trkpt lat="35.6125751" lon="139.6221578"></trkpt>
    <trkpt lat="35.6126329" lon="139.6221927"></trkpt>
    <trkpt lat="35.6126802" lon="139.6222394"></trkpt>
    <trkpt lat="35.6127031" lon="139.6222572"></trkpt>
    <trkpt lat="35.6127366" lon="139.6223048"></trkpt>
    <trkpt lat="35.6127743" lon="139.6224542"></trkpt>
    <trkpt lat="35.6127902" lon="139.6224910"></trkpt>
    <trkpt lat="35.6128064" lon="139.6225367"></trkpt>
    <trkpt lat="35.6128897" lon="139.6228378"></trkpt>
    <trkpt lat="35.6127903" lon="139.6230657"></trkpt>
    <trkpt lat="35.6126378" lon="139.6233017"></trkpt>
    <trkpt lat="35.6124977" lon="139.6234258"></trkpt>
    <trkpt lat="35.6124183" lon="139.6235150"></trkpt>
    <trkpt lat="35.6123639" lon="139.6235817"></trkpt>
    <trkpt lat="35.6123113" lon="139.6236348"></trkpt>
    <trkpt lat="35.6121470" lon="139.6238448"></trkpt>
    <trkpt lat="35.6120441" lon="139.6239844"></trkpt>
    <trkpt lat="35.6119240" lon="139.6241458"></trkpt>
    <trkpt lat="35.6118361" lon="139.6242534"></trkpt>
    <trkpt lat="35.6117642" lon="139.6243416"></trkpt>
    <trkpt lat="35.6114150" lon="139.6246235"></trkpt>
    <trkpt lat="35.6111710" lon="139.6248249"></trkpt>
    <trkpt lat="35.6111610" lon="139.6249420"></trkpt>
    <trkpt lat="35.6112151" lon="139.6253523"></trkpt>
    <trkpt lat="35.6112652" lon="139.6255873"></trkpt>
    <trkpt lat="35.6112323" lon="139.6256183"></trkpt>
    <trkpt lat="35.6111944" lon="139.6256748"></trkpt>
    <trkpt lat="35.6111760" lon="139.6257298"></trkpt>
    <trkpt lat="35.6111460" lon="139.6258194"></trkpt>
    <trkpt lat="35.6108942" lon="139.6262029"></trkpt>
    <trkpt lat="35.6108256" lon="139.6263053"></trkpt>
    <trkpt lat="35.6106247" lon="139.6263952"></trkpt>
    <trkpt lat="35.6105173" lon="139.6264993"></trkpt>
    <trkpt lat="35.6098290" lon="139.6275220"></trkpt>
    <trkpt lat="35.6096830" lon="139.6277504"></trkpt>
    <trkpt lat="35.6096156" lon="139.6278460"></trkpt>
    <trkpt lat="35.6090561" lon="139.6287309"></trkpt>
    <trkpt lat="35.6081447" lon="139.6301336"></trkpt>
    <trkpt lat="35.6078301" lon="139.6306530"></trkpt>
    <trkpt lat="35.6073624" lon="139.6314004"></trkpt>
    <trkpt lat="35.6069882" lon="139.6323725"></trkpt>
    <trkpt lat="35.6068824" lon="139.6326181"></trkpt>
    <trkpt lat="35.6067992" lon="139.6327494"></trkpt>
    <trkpt lat="35.6072922" lon="139.6324047"></trkpt>
    <trkpt lat="35.6077070" lon="139.6318867"></trkpt>
    <trkpt lat="35.6079121" lon="139.6316239"></trkpt>
    <trkpt lat="35.6081095" lon="139.6313559"></trkpt>
    <trkpt lat="35.6082442" lon="139.6311850"></trkpt>
    <trkpt lat="35.6083629" lon="139.6311113"></trkpt>
    <trkpt lat="35.6084943" lon="139.6309663"></trkpt>
    <trkpt lat="35.6087319" lon="139.6307209"></trkpt>
    <trkpt lat="35.6091159" lon="139.6303610"></trkpt>
    <trkpt lat="35.6095036" lon="139.6300553"></trkpt>
    <trkpt lat="35.6096797" lon="139.6298942"></trkpt>
    <trkpt lat="35.6099215" lon="139.6296729"></trkpt>
    <trkpt lat="35.6103922" lon="139.6292330"></trkpt>
    <trkpt lat="35.6104436" lon="139.6291848"></trkpt>
    <trkpt lat="35.6105419" lon="139.6291285"></trkpt>
    <trkpt lat="35.6105593" lon="139.6291050"></trkpt>
    <trkpt lat="35.6106518" lon="139.6290305"></trkpt>
    <trkpt lat="35.6108508" lon="139.6287898"></trkpt>
    <trkpt lat="35.6109029" lon="139.6287500"></trkpt>
    <trkpt lat="35.6109796" lon="139.6286467"></trkpt>
  </trkseg></trk>
</gpx>