<?xml version="1.0" encoding="UTF-8"?>
<gpx version="1.1" creator="RunNavi nationwide seed" xmlns="http://www.topografix.com/GPX/1/1">
  <metadata>
    <name>高松中央部 周回 5.2K</name>
    <copyright author="OpenStreetMap contributors">
      <license>https://opendatacommons.org/licenses/odbl/1-0/</license>
    </copyright>
  </metadata>
  <trk><name>高松中央部 周回 5.2K</name><trkseg>
    <trkpt lat="34.3468736" lon="134.0524913"></trkpt>
    <trkpt lat="34.3468648" lon="134.0525197"></trkpt>
    <trkpt lat="34.3468120" lon="134.0532164"></trkpt>
    <trkpt lat="34.3468737" lon="134.0532860"></trkpt>
    <trkpt lat="34.3471462" lon="134.0533195"></trkpt>
    <trkpt lat="34.3478201" lon="134.0534417"></trkpt>
    <trkpt lat="34.3479315" lon="134.0534522"></trkpt>
    <trkpt lat="34.3479947" lon="134.0534575"></trkpt>
    <trkpt lat="34.3480254" lon="134.0534463"></trkpt>
    <trkpt lat="34.3480747" lon="134.0533595"></trkpt>
    <trkpt lat="34.3481959" lon="134.0530971"></trkpt>
    <trkpt lat="34.3482344" lon="134.0529603"></trkpt>
    <trkpt lat="34.3482328" lon="134.0527900"></trkpt>
    <trkpt lat="34.3482404" lon="134.0525105"></trkpt>
    <trkpt lat="34.3482417" lon="134.0524611"></trkpt>
    <trkpt lat="34.3482398" lon="134.0523762"></trkpt>
    <trkpt lat="34.3482773" lon="134.0512294"></trkpt>
    <trkpt lat="34.3482954" lon="134.0509233"></trkpt>
    <trkpt lat="34.3480628" lon="134.0508864"></trkpt>
    <trkpt lat="34.3480424" lon="134.0508902"></trkpt>
    <trkpt lat="34.3479964" lon="134.0508851"></trkpt>
    <trkpt lat="34.3473195" lon="134.0508068"></trkpt>
    <trkpt lat="34.3470509" lon="134.0507735"></trkpt>
    <trkpt lat="34.3470227" lon="134.0507831"></trkpt>
    <trkpt lat="34.3470174" lon="134.0508123"></trkpt>
    <trkpt lat="34.3469942" lon="134.0511229"></trkpt>
    <trkpt lat="34.3468856" lon="134.0522789"></trkpt>
    <trkpt lat="34.3468755" lon="134.0524038"></trkpt>
    <trkpt lat="34.3468778" lon="134.0524337"></trkpt>
    <trkpt lat="34.3468648" lon="134.0525197"></trkpt>
    <trkpt lat="34.3468120" lon="134.0532164"></trkpt>
    <trkpt lat="34.3468737" lon="134.0532860"></trkpt>
    <trkpt lat="34.3471462" lon="134.0533195"></trkpt>
    <trkpt lat="34.3478201" lon="134.0534417"></trkpt>
    <trkpt lat="34.3479315" lon="134.0534522"></trkpt>
    <trkpt lat="34.3479947" lon="134.0534575"></trkpt>
    <trkpt lat="34.3480254" lon="134.0534463"></trkpt>
    <trkpt lat="34.3480747" lon="134.0533595"></trkpt>
    <trkpt lat="34.3481959" lon="134.0530971"></trkpt>
    <trkpt lat="34.3482344" lon="134.0529603"></trkpt>
    <trkpt lat="34.3482328" lon="134.0527900"></trkpt>
    <trkpt lat="34.3482404" lon="134.0525105"></trkpt>
    <trkpt lat="34.3482417" lon="134.0524611"></trkpt>
    <trkpt lat="34.3482398" lon="134.0523762"></trkpt>
    <trkpt lat="34.3482773" lon="134.0512294"></trkpt>
    <trkpt lat="34.3482954" lon="134.0509233"></trkpt>
    <trkpt lat="34.3480628" lon="134.0508864"></trkpt>
    <trkpt lat="34.3480424" lon="134.0508902"></trkpt>
    <trkpt lat="34.3479964" lon="134.0508851"></trkpt>
    <trkpt lat="34.3473195" lon="134.0508068"></trkpt>
    <trkpt lat="34.3470509" lon="134.0507735"></trkpt>
    <trkpt lat="34.3470227" lon="134.0507831"></trkpt>
    <trkpt lat="34.3470174" lon="134.0508123"></trkpt>
    <trkpt lat="34.3469942" lon="134.0511229"></trkpt>
    <trkpt lat="34.3468856" lon="134.0522789"></trkpt>
    <trkpt lat="34.3468755" lon="134.0524038"></trkpt>
    <trkpt lat="34.3468778" lon="134.0524337"></trkpt>
    <trkpt lat="34.3468648" lon="134.0525197"></trkpt>
    <trkpt lat="34.3468120" lon="134.0532164"></trkpt>
    <trkpt lat="34.3468737" lon="134.0532860"></trkpt>
    <trkpt lat="34.3471462" lon="134.0533195"></trkpt>
    <trkpt lat="34.3478201" lon="134.0534417"></trkpt>
    <trkpt lat="34.3479315" lon="134.0534522"></trkpt>
    <trkpt lat="34.3479947" lon="134.0534575"></trkpt>
    <trkpt lat="34.3480254" lon="134.0534463"></trkpt>
    <trkpt lat="34.3480747" lon="134.0533595"></trkpt>
    <trkpt lat="34.3481959" lon="134.0530971"></trkpt>
    <trkpt lat="34.3482344" lon="134.0529603"></trkpt>
    <trkpt lat="34.3482328" lon="134.0527900"></trkpt>
    <trkpt lat="34.3482404" lon="134.0525105"></trkpt>
    <trkpt lat="34.3482417" lon="134.0524611"></trkpt>
    <trkpt lat="34.3482398" lon="134.0523762"></trkpt>
    <trkpt lat="34.3482773" lon="134.0512294"></trkpt>
    <trkpt lat="34.3482954" lon="134.0509233"></trkpt>
    <trkpt lat="34.3480628" lon="134.0508864"></trkpt>
    <trkpt lat="34.3480424" lon="134.0508902"></trkpt>
    <trkpt lat="34.3479964" lon="134.0508851"></trkpt>
    <trkpt lat="34.3473195" lon="134.0508068"></trkpt>
    <trkpt lat="34.3470509" lon="134.0507735"></trkpt>
    <trkpt lat="34.3470227" lon="134.0507831"></trkpt>
    <trkpt lat="34.3470174" lon="134.0508123"></trkpt>
    <trkpt lat="34.3469942" lon="134.0511229"></trkpt>
    <trkpt lat="34.3468856" lon="134.0522789"></trkpt>
    <trkpt lat="34.3468755" lon="134.0524038"></trkpt>
    <trkpt lat="34.3468778" lon="134.0524337"></trkpt>
    <trkpt lat="34.3468648" lon="134.0525197"></trkpt>
    <trkpt lat="34.3468120" lon="134.0532164"></trkpt>
    <trkpt lat="34.3468737" lon="134.0532860"></trkpt>
    <trkpt lat="34.3471462" lon="134.0533195"></trkpt>
    <trkpt lat="34.3478201" lon="134.0534417"></trkpt>
    <trkpt lat="34.3479315" lon="134.0534522"></trkpt>
    <trkpt lat="34.3479947" lon="134.0534575"></trkpt>
    <trkpt lat="34.3480254" lon="134.0534463"></trkpt>
    <trkpt lat="34.3480747" lon="134.0533595"></trkpt>
    <trkpt lat="34.3481959" lon="134.0530971"></trkpt>
    <trkpt lat="34.3482344" lon="134.0529603"></trkpt>
    <trkpt lat="34.3482328" lon="134.0527900"></trkpt>
    <trkpt lat="34.3482404" lon="134.0525105"></trkpt>
    <trkpt lat="34.3482417" lon="134.0524611"></trkpt>
    <trkpt lat="34.3482398" lon="134.0523762"></trkpt>
    <trkpt lat="34.3482773" lon="134.0512294"></trkpt>
    <trkpt lat="34.3482954" lon="134.0509233"></trkpt>
    <trkpt lat="34.3480628" lon="134.0508864"></trkpt>
    <trkpt lat="34.3480424" lon="134.0508902"></trkpt>
    <trkpt lat="34.3479964" lon="134.0508851"></trkpt>
    <trkpt lat="34.3473195" lon="134.0508068"></trkpt>
    <trkpt lat="34.3470509" lon="134.0507735"></trkpt>
    <trkpt lat="34.3470227" lon="134.0507831"></trkpt>
    <trkpt lat="34.3470174" lon="134.0508123"></trkpt>
    <trkpt lat="34.3469942" lon="134.0511229"></trkpt>
    <trkpt lat="34.3468856" lon="134.0522789"></trkpt>
    <trkpt lat="34.3468755" lon="134.0524038"></trkpt>
    <trkpt lat="34.3468778" lon="134.0524337"></trkpt>
    <trkpt lat="34.3468648" lon="134.0525197"></trkpt>
    <trkpt lat="34.3468120" lon="134.0532164"></trkpt>
    <trkpt lat="34.3468737" lon="134.0532860"></trkpt>
    <trkpt lat="34.3471462" lon="134.0533195"></trkpt>
    <trkpt lat="34.3478201" lon="134.0534417"></trkpt>
    <trkpt lat="34.3479315" lon="134.0534522"></trkpt>
    <trkpt lat="34.3479947" lon="134.0534575"></trkpt>
    <trkpt lat="34.3480254" lon="134.0534463"></trkpt>
    <trkpt lat="34.3480747" lon="134.0533595"></trkpt>
    <trkpt lat="34.3481959" lon="134.0530971"></trkpt>
    <trkpt lat="34.3482344" lon="134.0529603"></trkpt>
    <trkpt lat="34.3482328" lon="134.0527900"></trkpt>
    <trkpt lat="34.3482404" lon="134.0525105"></trkpt>
    <trkpt lat="34.3482417" lon="134.0524611"></trkpt>
    <trkpt lat="34.3482398" lon="134.0523762"></trkpt>
    <trkpt lat="34.3482773" lon="134.0512294"></trkpt>
    <trkpt lat="34.3482954" lon="134.0509233"></trkpt>
    <trkpt lat="34.3480628" lon="134.0508864"></trkpt>
    <trkpt lat="34.3480424" lon="134.0508902"></trkpt>
    <trkpt lat="34.3479964" lon="134.0508851"></trkpt>
    <trkpt lat="34.3473195" lon="134.0508068"></trkpt>
    <trkpt lat="34.3470509" lon="134.0507735"></trkpt>
    <trkpt lat="34.3470227" lon="134.0507831"></trkpt>
    <trkpt lat="34.3470174" lon="134.0508123"></trkpt>
    <trkpt lat="34.3469942" lon="134.0511229"></trkpt>
    <trkpt lat="34.3468856" lon="134.0522789"></trkpt>
    <trkpt lat="34.3468755" lon="134.0524038"></trkpt>
    <trkpt lat="34.3468778" lon="134.0524337"></trkpt>
    <trkpt lat="34.3468648" lon="134.0525197"></trkpt>
    <trkpt lat="34.3468120" lon="134.0532164"></trkpt>
    <trkpt lat="34.3468737" lon="134.0532860"></trkpt>
    <trkpt lat="34.3471462" lon="134.0533195"></trkpt>
    <trkpt lat="34.3478201" lon="134.0534417"></trkpt>
    <trkpt lat="34.3479315" lon="134.0534522"></trkpt>
    <trkpt lat="34.3479947" lon="134.0534575"></trkpt>
    <trkpt lat="34.3480254" lon="134.0534463"></trkpt>
    <trkpt lat="34.3480747" lon="134.0533595"></trkpt>
    <trkpt lat="34.3481959" lon="134.0530971"></trkpt>
    <trkpt lat="34.3482344" lon="134.0529603"></trkpt>
    <trkpt lat="34.3482328" lon="134.0527900"></trkpt>
    <trkpt lat="34.3482404" lon="134.0525105"></trkpt>
    <trkpt lat="34.3482417" lon="134.0524611"></trkpt>
    <trkpt lat="34.3482398" lon="134.0523762"></trkpt>
    <trkpt lat="34.3482773" lon="134.0512294"></trkpt>
    <trkpt lat="34.3482954" lon="134.0509233"></trkpt>
    <trkpt lat="34.3480628" lon="134.0508864"></trkpt>
    <trkpt lat="34.3480424" lon="134.0508902"></trkpt>
    <trkpt lat="34.3479964" lon="134.0508851"></trkpt>
    <trkpt lat="34.3473195" lon="134.0508068"></trkpt>
    <trkpt lat="34.3470509" lon="134.0507735"></trkpt>
    <trkpt lat="34.3470227" lon="134.0507831"></trkpt>
    <trkpt lat="34.3470174" lon="134.0508123"></trkpt>
    <trkpt lat="34.3469942" lon="134.0511229"></trkpt>
    <trkpt lat="34.3468856" lon="134.0522789"></trkpt>
    <trkpt lat="34.3468755" lon="134.0524038"></trkpt>
    <trkpt lat="34.3468778" lon="134.0524337"></trkpt>
    <trkpt lat="34.3468648" lon="134.0525197"></trkpt>
    <trkpt lat="34.3468120" lon="134.0532164"></trkpt>
    <trkpt lat="34.3468737" lon="134.0532860"></trkpt>
    <trkpt lat="34.3471462" lon="134.0533195"></trkpt>
    <trkpt lat="34.3478201" lon="134.0534417"></trkpt>
    <trkpt lat="34.3479315" lon="134.0534522"></trkpt>
    <trkpt lat="34.3479947" lon="134.0534575"></trkpt>
    <trkpt lat="34.3480254" lon="134.0534463"></trkpt>
    <trkpt lat="34.3480747" lon="134.0533595"></trkpt>
    <trkpt lat="34.3481959" lon="134.0530971"></trkpt>
    <trkpt lat="34.3482344" lon="134.0529603"></trkpt>
    <trkpt lat="34.3482328" lon="134.0527900"></trkpt>
    <trkpt lat="34.3482404" lon="134.0525105"></trkpt>
    <trkpt lat="34.3482417" lon="134.0524611"></trkpt>
    <trkpt lat="34.3482398" lon="134.0523762"></trkpt>
    <trkpt lat="34.3482773" lon="134.0512294"></trkpt>
    <trkpt lat="34.3482954" lon="134.0509233"></trkpt>
    <trkpt lat="34.3480628" lon="134.0508864"></trkpt>
    <trkpt lat="34.3480424" lon="134.0508902"></trkpt>
    <trkpt lat="34.3479964" lon="134.0508851"></trkpt>
    <trkpt lat="34.3473195" lon="134.0508068"></trkpt>
    <trkpt lat="34.3470509" lon="134.0507735"></trkpt>
    <trkpt lat="34.3470227" lon="134.0507831"></trkpt>
    <trkpt lat="34.3470174" lon="134.0508123"></trkpt>
    <trkpt lat="34.3469942" lon="134.0511229"></trkpt>
    <trkpt lat="34.3468856" lon="134.0522789"></trkpt>
    <trkpt lat="34.3468755" lon="134.0524038"></trkpt>
    <trkpt lat="34.3468778" lon="134.0524337"></trkpt>
  </trkseg></trk>
</gpx>