<?xml version="1.0" encoding="UTF-8"?>
<gpx version="1.1" creator="RunNavi nationwide seed" xmlns="http://www.topografix.com/GPX/1/1">
  <metadata>
    <name>山下公園 · 開港の道 周回 5K</name>
    <copyright author="OpenStreetMap contributors">
      <license>https://opendatacommons.org/licenses/odbl/1-0/</license>
    </copyright>
  </metadata>
  <trk><name>山下公園 · 開港の道 周回 5K</name><trkseg>
    <trkpt lat="35.4456798" lon="139.6497966"></trkpt>
    <trkpt lat="35.4456788" lon="139.6497781"></trkpt>
    <trkpt lat="35.4456796" lon="139.6497623"></trkpt>
    <trkpt lat="35.4456838" lon="139.6497395"></trkpt>
    <trkpt lat="35.4456873" lon="139.6497279"></trkpt>
    <trkpt lat="35.4456929" lon="139.6497143"></trkpt>
    <trkpt lat="35.4456990" lon="139.6497029"></trkpt>
    <trkpt lat="35.4457040" lon="139.6496467"></trkpt>
    <trkpt lat="35.4456823" lon="139.6496289"></trkpt>
    <trkpt lat="35.4456823" lon="139.6496138"></trkpt>
    <trkpt lat="35.4457423" lon="139.6495068"></trkpt>
    <trkpt lat="35.4457510" lon="139.6495000"></trkpt>
    <trkpt lat="35.4456652" lon="139.6493893"></trkpt>
    <trkpt lat="35.4457623" lon="139.6492524"></trkpt>
    <trkpt lat="35.4457932" lon="139.6492009"></trkpt>
    <trkpt lat="35.4458513" lon="139.6491041"></trkpt>
    <trkpt lat="35.4458992" lon="139.6490243"></trkpt>
    <trkpt lat="35.4460568" lon="139.6487618"></trkpt>
    <trkpt lat="35.4462046" lon="139.6485224"></trkpt>
    <trkpt lat="35.4464089" lon="139.6481464"></trkpt>
    <trkpt lat="35.4464637" lon="139.6480248"></trkpt>
    <trkpt lat="35.4465615" lon="139.6478539"></trkpt>
    <trkpt lat="35.4466572" lon="139.6477077"></trkpt>
    <trkpt lat="35.4467412" lon="139.6476044"></trkpt>
    <trkpt lat="35.4467798" lon="139.6475952"></trkpt>
    <trkpt lat="35.4469755" lon="139.6472645"></trkpt>
    <trkpt lat="35.4472756" lon="139.6467573"></trkpt>
    <trkpt lat="35.4473050" lon="139.6467035"></trkpt>
    <trkpt lat="35.4473357" lon="139.6466481"></trkpt>
    <trkpt lat="35.4474340" lon="139.6464711"></trkpt>
    <trkpt lat="35.4474488" lon="139.6464467"></trkpt>
    <trkpt lat="35.4474784" lon="139.6463978"></trkpt>
    <trkpt lat="35.4475348" lon="139.6463009"></trkpt>
    <trkpt lat="35.4476552" lon="139.6464045"></trkpt>
    <trkpt lat="35.4476842" lon="139.6464312"></trkpt>
    <trkpt lat="35.4477232" lon="139.6464645"></trkpt>
    <trkpt lat="35.4477322" lon="139.6464686"></trkpt>
    <trkpt lat="35.4477441" lon="139.6464683"></trkpt>
    <trkpt lat="35.4477517" lon="139.6464632"></trkpt>
    <trkpt lat="35.4477551" lon="139.6464535"></trkpt>
    <trkpt lat="35.4477550" lon="139.6464396"></trkpt>
    <trkpt lat="35.4477496" lon="139.6464273"></trkpt>
    <trkpt lat="35.4477424" lon="139.6464175"></trkpt>
    <trkpt lat="35.4475541" lon="139.6462514"></trkpt>
    <trkpt lat="35.4477870" lon="139.6458698"></trkpt>
    <trkpt lat="35.4480157" lon="139.6454907"></trkpt>
    <trkpt lat="35.4481047" lon="139.6453429"></trkpt>
    <trkpt lat="35.4481885" lon="139.6451834"></trkpt>
    <trkpt lat="35.4482842" lon="139.6449553"></trkpt>
    <trkpt lat="35.4483589" lon="139.6447477"></trkpt>
    <trkpt lat="35.4483863" lon="139.6446635"></trkpt>
    <trkpt lat="35.4484439" lon="139.6444864"></trkpt>
    <trkpt lat="35.4485128" lon="139.6443027"></trkpt>
    <trkpt lat="35.4485967" lon="139.6441059"></trkpt>
    <trkpt lat="35.4487844" lon="139.6437293"></trkpt>
    <trkpt lat="35.4489351" lon="139.6434503"></trkpt>
    <trkpt lat="35.4490905" lon="139.6432360"></trkpt>
    <trkpt lat="35.4492036" lon="139.6431167"></trkpt>
    <trkpt lat="35.4493148" lon="139.6430050"></trkpt>
    <trkpt lat="35.4494360" lon="139.6429116"></trkpt>
    <trkpt lat="35.4494934" lon="139.6428792"></trkpt>
    <trkpt lat="35.4495875" lon="139.6428232"></trkpt>
    <trkpt lat="35.4497766" lon="139.6427245"></trkpt>
    <trkpt lat="35.4499669" lon="139.6426370"></trkpt>
    <trkpt lat="35.4500822" lon="139.6425898"></trkpt>
    <trkpt lat="35.4501617" lon="139.6425606"></trkpt>
    <trkpt lat="35.4503883" lon="139.6424924"></trkpt>
    <trkpt lat="35.4505796" lon="139.6424138"></trkpt>
    <trkpt lat="35.4506867" lon="139.6423891"></trkpt>
    <trkpt lat="35.4508942" lon="139.6423493"></trkpt>
    <trkpt lat="35.4512763" lon="139.6422720"></trkpt>
    <trkpt lat="35.4513216" lon="139.6422577"></trkpt>
    <trkpt lat="35.4513506" lon="139.6422507"></trkpt>
    <trkpt lat="35.4517365" lon="139.6421633"></trkpt>
    <trkpt lat="35.4517265" lon="139.6421018"></trkpt>
    <trkpt lat="35.4517055" lon="139.6419810"></trkpt>
    <trkpt lat="35.4516953" lon="139.6419046"></trkpt>
    <trkpt lat="35.4517318" lon="139.6418685"></trkpt>
    <trkpt lat="35.4518382" lon="139.6418345"></trkpt>
    <trkpt lat="35.4519455" lon="139.6417914"></trkpt>
    <trkpt lat="35.4519025" lon="139.6417577"></trkpt>
    <trkpt lat="35.4520336" lon="139.6414678"></trkpt>
    <trkpt lat="35.4523440" lon="139.6408944"></trkpt>
    <trkpt lat="35.4528527" lon="139.6401180"></trkpt>
    <trkpt lat="35.4529199" lon="139.6400019"></trkpt>
    <trkpt lat="35.4529599" lon="139.6400089"></trkpt>
    <trkpt lat="35.4530021" lon="139.6400148"></trkpt>
    <trkpt lat="35.4530383" lon="139.6399506"></trkpt>
    <trkpt lat="35.4530897" lon="139.6398576"></trkpt>
    <trkpt lat="35.4531217" lon="139.6398013"></trkpt>
    <trkpt lat="35.4533028" lon="139.6399360"></trkpt>
    <trkpt lat="35.4535731" lon="139.6401567"></trkpt>
    <trkpt lat="35.4538603" lon="139.6400997"></trkpt>
    <trkpt lat="35.4538807" lon="139.6400956"></trkpt>
    <trkpt lat="35.4548967" lon="139.6380390"></trkpt>
    <trkpt lat="35.4549418" lon="139.6380777"></trkpt>
    <trkpt lat="35.4549639" lon="139.6380966"></trkpt>
    <trkpt lat="35.4552814" lon="139.6383689"></trkpt>
    <trkpt lat="35.4553112" lon="139.6383945"></trkpt>
    <trkpt lat="35.4554078" lon="139.6382321"></trkpt>
    <trkpt lat="35.4555118" lon="139.6380574"></trkpt>
    <trkpt lat="35.4555505" lon="139.6379923"></trkpt>
    <trkpt lat="35.4556658" lon="139.6378304"></trkpt>
    <trkpt lat="35.4559077" lon="139.6374854"></trkpt>
    <trkpt lat="35.4560045" lon="139.6373482"></trkpt>
    <trkpt lat="35.4560437" lon="139.6372926"></trkpt>
    <trkpt lat="35.4562622" lon="139.6370431"></trkpt>
    <trkpt lat="35.4565189" lon="139.6368071"></trkpt>
    <trkpt lat="35.4568510" lon="139.6365349"></trkpt>
    <trkpt lat="35.4569365" lon="139.6364587"></trkpt>
    <trkpt lat="35.4571479" lon="139.6362864"></trkpt>
    <trkpt lat="35.4571814" lon="139.6362585"></trkpt>
    <trkpt lat="35.4573693" lon="139.6361121"></trkpt>
    <trkpt lat="35.4577167" lon="139.6358304"></trkpt>
    <trkpt lat="35.4579292" lon="139.6356591"></trkpt>
    <trkpt lat="35.4581268" lon="139.6355009"></trkpt>
    <trkpt lat="35.4582408" lon="139.6354090"></trkpt>
    <trkpt lat="35.4583175" lon="139.6353482"></trkpt>
    <trkpt lat="35.4584220" lon="139.6352647"></trkpt>
    <trkpt lat="35.4584392" lon="139.6352967"></trkpt>
    <trkpt lat="35.4584948" lon="139.6352435"></trkpt>
    <trkpt lat="35.4588191" lon="139.6349818"></trkpt>
    <trkpt lat="35.4589160" lon="139.6349025"></trkpt>
    <trkpt lat="35.4592337" lon="139.6346513"></trkpt>
    <trkpt lat="35.4593910" lon="139.6345281"></trkpt>
    <trkpt lat="35.4597930" lon="139.6342036"></trkpt>
    <trkpt lat="35.4598616" lon="139.6341518"></trkpt>
    <trkpt lat="35.4598891" lon="139.6341311"></trkpt>
    <trkpt lat="35.4600733" lon="139.6339800"></trkpt>
    <trkpt lat="35.4600585" lon="139.6339506"></trkpt>
    <trkpt lat="35.4599621" lon="139.6340243"></trkpt>
    <trkpt lat="35.4596109" lon="139.6343096"></trkpt>
    <trkpt lat="35.4590592" lon="139.6347482"></trkpt>
    <trkpt lat="35.4585327" lon="139.6351760"></trkpt>
    <trkpt lat="35.4584220" lon="139.6352647"></trkpt>
    <trkpt lat="35.4584055" lon="139.6352340"></trkpt>
    <trkpt lat="35.4582670" lon="139.6349766"></trkpt>
    <trkpt lat="35.4582495" lon="139.6349466"></trkpt>
    <trkpt lat="35.4581454" lon="139.6350280"></trkpt>
    <trkpt lat="35.4580681" lon="139.6350881"></trkpt>
    <trkpt lat="35.4579577" lon="139.6351822"></trkpt>
    <trkpt lat="35.4579314" lon="139.6352035"></trkpt>
    <trkpt lat="35.4575589" lon="139.6355035"></trkpt>
    <trkpt lat="35.4573546" lon="139.6356645"></trkpt>
    <trkpt lat="35.4569755" lon="139.6359686"></trkpt>
    <trkpt lat="35.4568706" lon="139.6360527"></trkpt>
    <trkpt lat="35.4567638" lon="139.6361384"></trkpt>
    <trkpt lat="35.4567177" lon="139.6361754"></trkpt>
    <trkpt lat="35.4566784" lon="139.6362082"></trkpt>
    <trkpt lat="35.4562120" lon="139.6365979"></trkpt>
    <trkpt lat="35.4559105" lon="139.6368567"></trkpt>
    <trkpt lat="35.4557998" lon="139.6369639"></trkpt>
    <trkpt lat="35.4555795" lon="139.6371772"></trkpt>
    <trkpt lat="35.4554418" lon="139.6373355"></trkpt>
    <trkpt lat="35.4551751" lon="139.6377028"></trkpt>
    <trkpt lat="35.4551588" lon="139.6376856"></trkpt>
    <trkpt lat="35.4550518" lon="139.6377460"></trkpt>
    <trkpt lat="35.4549830" lon="139.6377470"></trkpt>
    <trkpt lat="35.4547303" lon="139.6375278"></trkpt>
    <trkpt lat="35.4545346" lon="139.6373580"></trkpt>
    <trkpt lat="35.4544761" lon="139.6373243"></trkpt>
    <trkpt lat="35.4544400" lon="139.6373035"></trkpt>
    <trkpt lat="35.4543487" lon="139.6372776"></trkpt>
    <trkpt lat="35.4542745" lon="139.6372784"></trkpt>
    <trkpt lat="35.4542575" lon="139.6372833"></trkpt>
    <trkpt lat="35.4541927" lon="139.6373018"></trkpt>
    <trkpt lat="35.4541246" lon="139.6373385"></trkpt>
    <trkpt lat="35.4540833" lon="139.6373669"></trkpt>
    <trkpt lat="35.4539920" lon="139.6375338"></trkpt>
    <trkpt lat="35.4538797" lon="139.6377680"></trkpt>
    <trkpt lat="35.4537686" lon="139.6379794"></trkpt>
    <trkpt lat="35.4537328" lon="139.6380418"></trkpt>
    <trkpt lat="35.4536564" lon="139.6381881"></trkpt>
    <trkpt lat="35.4535219" lon="139.6384403"></trkpt>
    <trkpt lat="35.4534924" lon="139.6384789"></trkpt>
    <trkpt lat="35.4533728" lon="139.6386970"></trkpt>
    <trkpt lat="35.4533616" lon="139.6387409"></trkpt>
    <trkpt lat="35.4532868" lon="139.6388772"></trkpt>
    <trkpt lat="35.4529852" lon="139.6394472"></trkpt>
    <trkpt lat="35.4528947" lon="139.6395594"></trkpt>
    <trkpt lat="35.4528253" lon="139.6395645"></trkpt>
    <trkpt lat="35.4527970" lon="139.6396222"></trkpt>
    <trkpt lat="35.4527489" lon="139.6397173"></trkpt>
    <trkpt lat="35.4527162" lon="139.6397829"></trkpt>
    <trkpt lat="35.4525306" lon="139.6396362"></trkpt>
    <trkpt lat="35.4521680" lon="139.6393453"></trkpt>
    <trkpt lat="35.4519026" lon="139.6398294"></trkpt>
    <trkpt lat="35.4519232" lon="139.6398486"></trkpt>
    <trkpt lat="35.4512012" lon="139.6411953"></trkpt>
    <trkpt lat="35.4512105" lon="139.6412803"></trkpt>
    <trkpt lat="35.4511895" lon="139.6412843"></trkpt>
    <trkpt lat="35.4513000" lon="139.6420199"></trkpt>
    <trkpt lat="35.4512441" lon="139.6420354"></trkpt>
    <trkpt lat="35.4508637" lon="139.6421203"></trkpt>
    <trkpt lat="35.4500970" lon="139.6422976"></trkpt>
    <trkpt lat="35.4497606" lon="139.6424430"></trkpt>
    <trkpt lat="35.4494806" lon="139.6426180"></trkpt>
    <trkpt lat="35.4493612" lon="139.6427005"></trkpt>
    <trkpt lat="35.4493049" lon="139.6427230"></trkpt>
    <trkpt lat="35.4492449" lon="139.6427424"></trkpt>
    <trkpt lat="35.4491854" lon="139.6427504"></trkpt>
    <trkpt lat="35.4491265" lon="139.6427514"></trkpt>
    <trkpt lat="35.4490644" lon="139.6427374"></trkpt>
    <trkpt lat="35.4490004" lon="139.6427119"></trkpt>
    <trkpt lat="35.4487007" lon="139.6424799"></trkpt>
    <trkpt lat="35.4486739" lon="139.6425379"></trkpt>
    <trkpt lat="35.4486229" lon="139.6426387"></trkpt>
    <trkpt lat="35.4485945" lon="139.6426355"></trkpt>
    <trkpt lat="35.4485744" lon="139.6426546"></trkpt>
    <trkpt lat="35.4481383" lon="139.6435313"></trkpt>
    <trkpt lat="35.4480821" lon="139.6436448"></trkpt>
    <trkpt lat="35.4480080" lon="139.6437915"></trkpt>
    <trkpt lat="35.4477676" lon="139.6442777"></trkpt>
    <trkpt lat="35.4477501" lon="139.6443643"></trkpt>
    <trkpt lat="35.4477606" lon="139.6444840"></trkpt>
    <trkpt lat="35.4477842" lon="139.6445811"></trkpt>
    <trkpt lat="35.4478083" lon="139.6446098"></trkpt>
    <trkpt lat="35.4478292" lon="139.6446167"></trkpt>
    <trkpt lat="35.4478574" lon="139.6447260"></trkpt>
    <trkpt lat="35.4478810" lon="139.6448215"></trkpt>
    <trkpt lat="35.4478685" lon="139.6448416"></trkpt>
    <trkpt lat="35.4478622" lon="139.6448708"></trkpt>
    <trkpt lat="35.4479035" lon="139.6449893"></trkpt>
    <trkpt lat="35.4479094" lon="139.6450622"></trkpt>
    <trkpt lat="35.4479017" lon="139.6451359"></trkpt>
    <trkpt lat="35.4478825" lon="139.6452111"></trkpt>
    <trkpt lat="35.4478510" lon="139.6452846"></trkpt>
    <trkpt lat="35.4476472" lon="139.6456916"></trkpt>
    <trkpt lat="35.4474127" lon="139.6461436"></trkpt>
    <trkpt lat="35.4473789" lon="139.6462006"></trkpt>
    <trkpt lat="35.4471914" lon="139.6465130"></trkpt>
    <trkpt lat="35.4471544" lon="139.6465747"></trkpt>
    <trkpt lat="35.4471299" lon="139.6466134"></trkpt>
    <trkpt lat="35.4469222" lon="139.6469703"></trkpt>
    <trkpt lat="35.4468277" lon="139.6471291"></trkpt>
    <trkpt lat="35.4466128" lon="139.6474903"></trkpt>
    <trkpt lat="35.4463901" lon="139.6478645"></trkpt>
    <trkpt lat="35.4463532" lon="139.6479255"></trkpt>
    <trkpt lat="35.4463784" lon="139.6479481"></trkpt>
    <trkpt lat="35.4463694" lon="139.6479641"></trkpt>
    <trkpt lat="35.4464352" lon="139.6480235"></trkpt>
    <trkpt lat="35.4464361" lon="139.6480379"></trkpt>
    <trkpt lat="35.4464346" lon="139.6480569"></trkpt>
    <trkpt lat="35.4464188" lon="139.6480897"></trkpt>
    <trkpt lat="35.4463653" lon="139.6482079"></trkpt>
    <trkpt lat="35.4463215" lon="139.6482828"></trkpt>
    <trkpt lat="35.4462139" lon="139.6484686"></trkpt>
    <trkpt lat="35.4460925" lon="139.6486711"></trkpt>
    <trkpt lat="35.4459863" lon="139.6488444"></trkpt>
    <trkpt lat="35.4458838" lon="139.6490115"></trkpt>
    <trkpt lat="35.4458367" lon="139.6490919"></trkpt>
    <trkpt lat="35.4457766" lon="139.6491887"></trkpt>
    <trkpt lat="35.4457449" lon="139.6492387"></trkpt>
    <trkpt lat="35.4456476" lon="139.6493774"></trkpt>
    <trkpt lat="35.4455746" lon="139.6494922"></trkpt>
    <trkpt lat="35.4455564" lon="139.6495789"></trkpt>
    <trkpt lat="35.4456358" lon="139.6496890"></trkpt>
    <trkpt lat="35.4455720" lon="139.6498002"></trkpt>
    <trkpt lat="35.4455656" lon="139.6498175"></trkpt>
    <trkpt lat="35.4456687" lon="139.6499004"></trkpt>
    <trkpt lat="35.4456857" lon="139.6499028"></trkpt>
    <trkpt lat="35.4457052" lon="139.6499214"></trkpt>
    <trkpt lat="35.4457258" lon="139.6498857"></trkpt>
    <trkpt lat="35.4457087" lon="139.6498683"></trkpt>
    <trkpt lat="35.4456970" lon="139.6498509"></trkpt>
    <trkpt lat="35.4456891" lon="139.6498341"></trkpt>
    <trkpt lat="35.4456828" lon="139.6498138"></trkpt>
    <trkpt lat="35.4456798" lon="139.6497966"></trkpt>
  </trkseg></trk>
</gpx>