<?xml version="1.0" encoding="UTF-8"?>
<gpx version="1.1" creator="RunNavi nationwide seed" xmlns="http://www.topografix.com/GPX/1/1">
  <metadata>
    <name>동래역 · 온천천 왕복 8.2K</name>
    <copyright author="OpenStreetMap contributors">
      <license>https://opendatacommons.org/licenses/odbl/1-0/</license>
    </copyright>
  </metadata>
  <trk><name>동래역 · 온천천 왕복 8.2K</name><trkseg>
    <trkpt lat="35.2042612" lon="129.0788890"></trkpt>
    <trkpt lat="35.2042788" lon="129.0788184"></trkpt>
    <trkpt lat="35.2042841" lon="129.0787971"></trkpt>
    <trkpt lat="35.2043028" lon="129.0787223"></trkpt>
    <trkpt lat="35.2047446" lon="129.0787245"></trkpt>
    <trkpt lat="35.2051527" lon="129.0787060"></trkpt>
    <trkpt lat="35.2054747" lon="129.0787004"></trkpt>
    <trkpt lat="35.2057151" lon="129.0786847"></trkpt>
    <trkpt lat="35.2059127" lon="129.0786439"></trkpt>
    <trkpt lat="35.2066334" lon="129.0786469"></trkpt>
    <trkpt lat="35.2083252" lon="129.0786643"></trkpt>
    <trkpt lat="35.2084930" lon="129.0785957"></trkpt>
    <trkpt lat="35.2094050" lon="129.0785967"></trkpt>
    <trkpt lat="35.2098983" lon="129.0786368"></trkpt>
    <trkpt lat="35.2102881" lon="129.0787067"></trkpt>
    <trkpt lat="35.2103646" lon="129.0787159"></trkpt>
    <trkpt lat="35.2111377" lon="129.0789375"></trkpt>
    <trkpt lat="35.2116981" lon="129.0793384"></trkpt>
    <trkpt lat="35.2120613" lon="129.0795612"></trkpt>
    <trkpt lat="35.2126813" lon="129.0799667"></trkpt>
    <trkpt lat="35.2131301" lon="129.0802977"></trkpt>
    <trkpt lat="35.2144528" lon="129.0812014"></trkpt>
    <trkpt lat="35.2149827" lon="129.0817241"></trkpt>
    <trkpt lat="35.2155764" lon="129.0825682"></trkpt>
    <trkpt lat="35.2157000" lon="129.0827750"></trkpt>
    <trkpt lat="35.2158097" lon="129.0829343"></trkpt>
    <trkpt lat="35.2162460" lon="129.0835272"></trkpt>
    <trkpt lat="35.2165234" lon="129.0838189"></trkpt>
    <trkpt lat="35.2170295" lon="129.0842819"></trkpt>
    <trkpt lat="35.2172974" lon="129.0845459"></trkpt>
    <trkpt lat="35.2177130" lon="129.0848950"></trkpt>
    <trkpt lat="35.2184348" lon="129.0854230"></trkpt>
    <trkpt lat="35.2192540" lon="129.0860404"></trkpt>
    <trkpt lat="35.2197128" lon="129.0863838"></trkpt>
    <trkpt lat="35.2197375" lon="129.0864023"></trkpt>
    <trkpt lat="35.2202062" lon="129.0866609"></trkpt>
    <trkpt lat="35.2207227" lon="129.0869494"></trkpt>
    <trkpt lat="35.2213505" lon="129.0872985"></trkpt>
    <trkpt lat="35.2218975" lon="129.0876104"></trkpt>
    <trkpt lat="35.2227697" lon="129.0880905"></trkpt>
    <trkpt lat="35.2233279" lon="129.0883385"></trkpt>
    <trkpt lat="35.2234806" lon="129.0883896"></trkpt>
    <trkpt lat="35.2238305" lon="129.0885067"></trkpt>
    <trkpt lat="35.2241688" lon="129.0885801"></trkpt>
    <trkpt lat="35.2246879" lon="129.0886323"></trkpt>
    <trkpt lat="35.2259374" lon="129.0888058"></trkpt>
    <trkpt lat="35.2265121" lon="129.0889346"></trkpt>
    <trkpt lat="35.2270704" lon="129.0890857"></trkpt>
    <trkpt lat="35.2276834" lon="129.0893497"></trkpt>
    <trkpt lat="35.2282892" lon="129.0894961"></trkpt>
    <trkpt lat="35.2287553" lon="129.0895685"></trkpt>
    <trkpt lat="35.2291561" lon="129.0896409"></trkpt>
    <trkpt lat="35.2294717" lon="129.0896387"></trkpt>
    <trkpt lat="35.2302960" lon="129.0894876"></trkpt>
    <trkpt lat="35.2308955" lon="129.0893879"></trkpt>
    <trkpt lat="35.2310720" lon="129.0893585"></trkpt>
    <trkpt lat="35.2312670" lon="129.0893261"></trkpt>
    <trkpt lat="35.2316814" lon="129.0892927"></trkpt>
    <trkpt lat="35.2322707" lon="129.0893678"></trkpt>
    <trkpt lat="35.2328108" lon="129.0895234"></trkpt>
    <trkpt lat="35.2333804" lon="129.0897259"></trkpt>
    <trkpt lat="35.2337430" lon="129.0898118"></trkpt>
    <trkpt lat="35.2339676" lon="129.0898305"></trkpt>
    <trkpt lat="35.2342118" lon="129.0898027"></trkpt>
    <trkpt lat="35.2342502" lon="129.0897983"></trkpt>
    <trkpt lat="35.2345711" lon="129.0896911"></trkpt>
    <trkpt lat="35.2351594" lon="129.0894497"></trkpt>
    <trkpt lat="35.2359086" lon="129.0891519"></trkpt>
    <trkpt lat="35.2366162" lon="129.0888690"></trkpt>
    <trkpt lat="35.2373786" lon="129.0885511"></trkpt>
    <trkpt lat="35.2378135" lon="129.0883942"></trkpt>
    <trkpt lat="35.2380588" lon="129.0883486"></trkpt>
    <trkpt lat="35.2378135" lon="129.0883942"></trkpt>
    <trkpt lat="35.2373786" lon="129.0885511"></trkpt>
    <trkpt lat="35.2366162" lon="129.0888690"></trkpt>
    <trkpt lat="35.2359086" lon="129.0891519"></trkpt>
    <trkpt lat="35.2351594" lon="129.0894497"></trkpt>
    <trkpt lat="35.2345711" lon="129.0896911"></trkpt>
    <trkpt lat="35.2342502" lon="129.0897983"></trkpt>
    <trkpt lat="35.2342118" lon="129.0898027"></trkpt>
    <trkpt lat="35.2339676" lon="129.0898305"></trkpt>
    <trkpt lat="35.2337430" lon="129.0898118"></trkpt>
    <trkpt lat="35.2333804" lon="129.0897259"></trkpt>
    <trkpt lat="35.2328108" lon="129.0895234"></trkpt>
    <trkpt lat="35.2322707" lon="129.0893678"></trkpt>
    <trkpt lat="35.2316814" lon="129.0892927"></trkpt>
    <trkpt lat="35.2312670" lon="129.0893261"></trkpt>
    <trkpt lat="35.2310720" lon="129.0893585"></trkpt>
    <trkpt lat="35.2308955" lon="129.0893879"></trkpt>
    <trkpt lat="35.2302960" lon="129.0894876"></trkpt>
    <trkpt lat="35.2294717" lon="129.0896387"></trkpt>
    <trkpt lat="35.2291561" lon="129.0896409"></trkpt>
    <trkpt lat="35.2287553" lon="129.0895685"></trkpt>
    <trkpt lat="35.2282892" lon="129.0894961"></trkpt>
    <trkpt lat="35.2276834" lon="129.0893497"></trkpt>
    <trkpt lat="35.2270704" lon="129.0890857"></trkpt>
    <trkpt lat="35.2265121" lon="129.0889346"></trkpt>
    <trkpt lat="35.2259374" lon="129.0888058"></trkpt>
    <trkpt lat="35.2246879" lon="129.0886323"></trkpt>
    <trkpt lat="35.2241688" lon="129.0885801"></trkpt>
    <trkpt lat="35.2238305" lon="129.0885067"></trkpt>
    <trkpt lat="35.2234806" lon="129.0883896"></trkpt>
    <trkpt lat="35.2233279" lon="129.0883385"></trkpt>
    <trkpt lat="35.2227697" lon="129.0880905"></trkpt>
    <trkpt lat="35.2218975" lon="129.0876104"></trkpt>
    <trkpt lat="35.2213505" lon="129.0872985"></trkpt>
    <trkpt lat="35.2207227" lon="129.0869494"></trkpt>
    <trkpt lat="35.2202062" lon="129.0866609"></trkpt>
    <trkpt lat="35.2197375" lon="129.0864023"></trkpt>
    <trkpt lat="35.2197128" lon="129.0863838"></trkpt>
    <trkpt lat="35.2192540" lon="129.0860404"></trkpt>
    <trkpt lat="35.2184348" lon="129.0854230"></trkpt>
    <trkpt lat="35.2177130" lon="129.0848950"></trkpt>
    <trkpt lat="35.2172974" lon="129.0845459"></trkpt>
    <trkpt lat="35.2170295" lon="129.0842819"></trkpt>
    <trkpt lat="35.2165234" lon="129.0838189"></trkpt>
    <trkpt lat="35.2162460" lon="129.0835272"></trkpt>
    <trkpt lat="35.2158097" lon="129.0829343"></trkpt>
    <trkpt lat="35.2157000" lon="129.0827750"></trkpt>
    <trkpt lat="35.2155764" lon="129.0825682"></trkpt>
    <trkpt lat="35.2149827" lon="129.0817241"></trkpt>
    <trkpt lat="35.2144528" lon="129.0812014"></trkpt>
    <trkpt lat="35.2131301" lon="129.0802977"></trkpt>
    <trkpt lat="35.2126813" lon="129.0799667"></trkpt>
    <trkpt lat="35.2120613" lon="129.0795612"></trkpt>
    <trkpt lat="35.2116981" lon="129.0793384"></trkpt>
    <trkpt lat="35.2111377" lon="129.0789375"></trkpt>
    <trkpt lat="35.2103646" lon="129.0787159"></trkpt>
    <trkpt lat="35.2102881" lon="129.0787067"></trkpt>
    <trkpt lat="35.2098983" lon="129.0786368"></trkpt>
    <trkpt lat="35.2094050" lon="129.0785967"></trkpt>
    <trkpt lat="35.2084930" lon="129.0785957"></trkpt>
    <trkpt lat="35.2083252" lon="129.0786643"></trkpt>
    <trkpt lat="35.2066334" lon="129.0786469"></trkpt>
    <trkpt lat="35.2059127" lon="129.0786439"></trkpt>
    <trkpt lat="35.2057151" lon="129.0786847"></trkpt>
    <trkpt lat="35.2054747" lon="129.0787004"></trkpt>
    <trkpt lat="35.2051527" lon="129.0787060"></trkpt>
    <trkpt lat="35.2047446" lon="129.0787245"></trkpt>
    <trkpt lat="35.2043028" lon="129.0787223"></trkpt>
    <trkpt lat="35.2042841" lon="129.0787971"></trkpt>
    <trkpt lat="35.2042788" lon="129.0788184"></trkpt>
    <trkpt lat="35.2042612" lon="129.0788890"></trkpt>
  </trkseg></trk>
</gpx>