<?xml version="1.0" encoding="UTF-8"?>
<gpx version="1.1" creator="RunNavi nationwide seed" xmlns="http://www.topografix.com/GPX/1/1">
  <metadata>
    <name>부산아시아드 트랙 4.9K</name>
    <copyright author="OpenStreetMap contributors">
      <license>https://opendatacommons.org/licenses/odbl/1-0/</license>
    </copyright>
  </metadata>
  <trk><name>부산아시아드 트랙 4.9K</name><trkseg>
    <trkpt lat="35.1901140" lon="129.0550431"></trkpt>
    <trkpt lat="35.1888459" lon="129.0554132"></trkpt>
    <trkpt lat="35.1888679" lon="129.0555151"></trkpt>
    <trkpt lat="35.1888295" lon="129.0555929"></trkpt>
    <trkpt lat="35.1887988" lon="129.0556707"></trkpt>
    <trkpt lat="35.1887846" lon="129.0557605"></trkpt>
    <trkpt lat="35.1887791" lon="129.0558625"></trkpt>
    <trkpt lat="35.1887878" lon="129.0559604"></trkpt>
    <trkpt lat="35.1888131" lon="129.0560610"></trkpt>
    <trkpt lat="35.1888558" lon="129.0561535"></trkpt>
    <trkpt lat="35.1889150" lon="129.0562340"></trkpt>
    <trkpt lat="35.1889884" lon="129.0562983"></trkpt>
    <trkpt lat="35.1890728" lon="129.0563453"></trkpt>
    <trkpt lat="35.1891758" lon="129.0563640"></trkpt>
    <trkpt lat="35.1892800" lon="129.0563627"></trkpt>
    <trkpt lat="35.1900625" lon="129.0561374"></trkpt>
    <trkpt lat="35.1901480" lon="129.0560864"></trkpt>
    <trkpt lat="35.1902039" lon="129.0560288"></trkpt>
    <trkpt lat="35.1902631" lon="129.0559537"></trkpt>
    <trkpt lat="35.1903190" lon="129.0558584"></trkpt>
    <trkpt lat="35.1903551" lon="129.0557512"></trkpt>
    <trkpt lat="35.1903705" lon="129.0556345"></trkpt>
    <trkpt lat="35.1903639" lon="129.0555285"></trkpt>
    <trkpt lat="35.1903365" lon="129.0554172"></trkpt>
    <trkpt lat="35.1902883" lon="129.0553274"></trkpt>
    <trkpt lat="35.1902236" lon="129.0552523"></trkpt>
    <trkpt lat="35.1901524" lon="129.0551946"></trkpt>
    <trkpt lat="35.1900844" lon="129.0551624"></trkpt>
    <trkpt lat="35.1901338" lon="129.0551477"></trkpt>
    <trkpt lat="35.1901140" lon="129.0550431"></trkpt>
    <trkpt lat="35.1888459" lon="129.0554132"></trkpt>
    <trkpt lat="35.1888679" lon="129.0555151"></trkpt>
    <trkpt lat="35.1888295" lon="129.0555929"></trkpt>
    <trkpt lat="35.1887988" lon="129.0556707"></trkpt>
    <trkpt lat="35.1887846" lon="129.0557605"></trkpt>
    <trkpt lat="35.1887791" lon="129.0558625"></trkpt>
    <trkpt lat="35.1887878" lon="129.0559604"></trkpt>
    <trkpt lat="35.1888131" lon="129.0560610"></trkpt>
    <trkpt lat="35.1888558" lon="129.0561535"></trkpt>
    <trkpt lat="35.1889150" lon="129.0562340"></trkpt>
    <trkpt lat="35.1889884" lon="129.0562983"></trkpt>
    <trkpt lat="35.1890728" lon="129.0563453"></trkpt>
    <trkpt lat="35.1891758" lon="129.0563640"></trkpt>
    <trkpt lat="35.1892800" lon="129.0563627"></trkpt>
    <trkpt lat="35.1900625" lon="129.0561374"></trkpt>
    <trkpt lat="35.1901480" lon="129.0560864"></trkpt>
    <trkpt lat="35.1902039" lon="129.0560288"></trkpt>
    <trkpt lat="35.1902631" lon="129.0559537"></trkpt>
    <trkpt lat="35.1903190" lon="129.0558584"></trkpt>
    <trkpt lat="35.1903551" lon="129.0557512"></trkpt>
    <trkpt lat="35.1903705" lon="129.0556345"></trkpt>
    <trkpt lat="35.1903639" lon="129.0555285"></trkpt>
    <trkpt lat="35.1903365" lon="129.0554172"></trkpt>
    <trkpt lat="35.1902883" lon="129.0553274"></trkpt>
    <trkpt lat="35.1902236" lon="129.0552523"></trkpt>
    <trkpt lat="35.1901524" lon="129.0551946"></trkpt>
    <trkpt lat="35.1900844" lon="129.0551624"></trkpt>
    <trkpt lat="35.1901338" lon="129.0551477"></trkpt>
    <trkpt lat="35.1901140" lon="129.0550431"></trkpt>
    <trkpt lat="35.1888459" lon="129.0554132"></trkpt>
    <trkpt lat="35.1888679" lon="129.0555151"></trkpt>
    <trkpt lat="35.1888295" lon="129.0555929"></trkpt>
    <trkpt lat="35.1887988" lon="129.0556707"></trkpt>
    <trkpt lat="35.1887846" lon="129.0557605"></trkpt>
    <trkpt lat="35.1887791" lon="129.0558625"></trkpt>
    <trkpt lat="35.1887878" lon="129.0559604"></trkpt>
    <trkpt lat="35.1888131" lon="129.0560610"></trkpt>
    <trkpt lat="35.1888558" lon="129.0561535"></trkpt>
    <trkpt lat="35.1889150" lon="129.0562340"></trkpt>
    <trkpt lat="35.1889884" lon="129.0562983"></trkpt>
    <trkpt lat="35.1890728" lon="129.0563453"></trkpt>
    <trkpt lat="35.1891758" lon="129.0563640"></trkpt>
    <trkpt lat="35.1892800" lon="129.0563627"></trkpt>
    <trkpt lat="35.1900625" lon="129.0561374"></trkpt>
    <trkpt lat="35.1901480" lon="129.0560864"></trkpt>
    <trkpt lat="35.1902039" lon="129.0560288"></trkpt>
    <trkpt lat="35.1902631" lon="129.0559537"></trkpt>
    <trkpt lat="35.1903190" lon="129.0558584"></trkpt>
    <trkpt lat="35.1903551" lon="129.0557512"></trkpt>
    <trkpt lat="35.1903705" lon="129.0556345"></trkpt>
    <trkpt lat="35.1903639" lon="129.0555285"></trkpt>
    <trkpt lat="35.1903365" lon="129.0554172"></trkpt>
    <trkpt lat="35.1902883" lon="129.0553274"></trkpt>
    <trkpt lat="35.1902236" lon="129.0552523"></trkpt>
    <trkpt lat="35.1901524" lon="129.0551946"></trkpt>
    <trkpt lat="35.1900844" lon="129.0551624"></trkpt>
    <trkpt lat="35.1901338" lon="129.0551477"></trkpt>
    <trkpt lat="35.1901140" lon="129.0550431"></trkpt>
    <trkpt lat="35.1888459" lon="129.0554132"></trkpt>
    <trkpt lat="35.1888679" lon="129.0555151"></trkpt>
    <trkpt lat="35.1888295" lon="129.0555929"></trkpt>
    <trkpt lat="35.1887988" lon="129.0556707"></trkpt>
    <trkpt lat="35.1887846" lon="129.0557605"></trkpt>
    <trkpt lat="35.1887791" lon="129.0558625"></trkpt>
    <trkpt lat="35.1887878" lon="129.0559604"></trkpt>
    <trkpt lat="35.1888131" lon="129.0560610"></trkpt>
    <trkpt lat="35.1888558" lon="129.0561535"></trkpt>
    <trkpt lat="35.1889150" lon="129.0562340"></trkpt>
    <trkpt lat="35.1889884" lon="129.0562983"></trkpt>
    <trkpt lat="35.1890728" lon="129.0563453"></trkpt>
    <trkpt lat="35.1891758" lon="129.0563640"></trkpt>
    <trkpt lat="35.1892800" lon="129.0563627"></trkpt>
    <trkpt lat="35.1900625" lon="129.0561374"></trkpt>
    <trkpt lat="35.1901480" lon="129.0560864"></trkpt>
    <trkpt lat="35.1902039" lon="129.0560288"></trkpt>
    <trkpt lat="35.1902631" lon="129.0559537"></trkpt>
    <trkpt lat="35.1903190" lon="129.0558584"></trkpt>
    <trkpt lat="35.1903551" lon="129.0557512"></trkpt>
    <trkpt lat="35.1903705" lon="129.0556345"></trkpt>
    <trkpt lat="35.1903639" lon="129.0555285"></trkpt>
    <trkpt lat="35.1903365" lon="129.0554172"></trkpt>
    <trkpt lat="35.1902883" lon="129.0553274"></trkpt>
    <trkpt lat="35.1902236" lon="129.0552523"></trkpt>
    <trkpt lat="35.1901524" lon="129.0551946"></trkpt>
    <trkpt lat="35.1900844" lon="129.0551624"></trkpt>
    <trkpt lat="35.1901338" lon="129.0551477"></trkpt>
    <trkpt lat="35.1901140" lon="129.0550431"></trkpt>
    <trkpt lat="35.1888459" lon="129.0554132"></trkpt>
    <trkpt lat="35.1888679" lon="129.0555151"></trkpt>
    <trkpt lat="35.1888295" lon="129.0555929"></trkpt>
    <trkpt lat="35.1887988" lon="129.0556707"></trkpt>
    <trkpt lat="35.1887846" lon="129.0557605"></trkpt>
    <trkpt lat="35.1887791" lon="129.0558625"></trkpt>
    <trkpt lat="35.1887878" lon="129.0559604"></trkpt>
    <trkpt lat="35.1888131" lon="129.0560610"></trkpt>
    <trkpt lat="35.1888558" lon="129.0561535"></trkpt>
    <trkpt lat="35.1889150" lon="129.0562340"></trkpt>
    <trkpt lat="35.1889884" lon="129.0562983"></trkpt>
    <trkpt lat="35.1890728" lon="129.0563453"></trkpt>
    <trkpt lat="35.1891758" lon="129.0563640"></trkpt>
    <trkpt lat="35.1892800" lon="129.0563627"></trkpt>
    <trkpt lat="35.1900625" lon="129.0561374"></trkpt>
    <trkpt lat="35.1901480" lon="129.0560864"></trkpt>
    <trkpt lat="35.1902039" lon="129.0560288"></trkpt>
    <trkpt lat="35.1902631" lon="129.0559537"></trkpt>
    <trkpt lat="35.1903190" lon="129.0558584"></trkpt>
    <trkpt lat="35.1903551" lon="129.0557512"></trkpt>
    <trkpt lat="35.1903705" lon="129.0556345"></trkpt>
    <trkpt lat="35.1903639" lon="129.0555285"></trkpt>
    <trkpt lat="35.1903365" lon="129.0554172"></trkpt>
    <trkpt lat="35.1902883" lon="129.0553274"></trkpt>
    <trkpt lat="35.1902236" lon="129.0552523"></trkpt>
    <trkpt lat="35.1901524" lon="129.0551946"></trkpt>
    <trkpt lat="35.1900844" lon="129.0551624"></trkpt>
    <trkpt lat="35.1901338" lon="129.0551477"></trkpt>
    <trkpt lat="35.1901140" lon="129.0550431"></trkpt>
    <trkpt lat="35.1888459" lon="129.0554132"></trkpt>
    <trkpt lat="35.1888679" lon="129.0555151"></trkpt>
    <trkpt lat="35.1888295" lon="129.0555929"></trkpt>
    <trkpt lat="35.1887988" lon="129.0556707"></trkpt>
    <trkpt lat="35.1887846" lon="129.0557605"></trkpt>
    <trkpt lat="35.1887791" lon="129.0558625"></trkpt>
    <trkpt lat="35.1887878" lon="129.0559604"></trkpt>
    <trkpt lat="35.1888131" lon="129.0560610"></trkpt>
    <trkpt lat="35.1888558" lon="129.0561535"></trkpt>
    <trkpt lat="35.1889150" lon="129.0562340"></trkpt>
    <trkpt lat="35.1889884" lon="129.0562983"></trkpt>
    <trkpt lat="35.1890728" lon="129.0563453"></trkpt>
    <trkpt lat="35.1891758" lon="129.0563640"></trkpt>
    <trkpt lat="35.1892800" lon="129.0563627"></trkpt>
    <trkpt lat="35.1900625" lon="129.0561374"></trkpt>
    <trkpt lat="35.1901480" lon="129.0560864"></trkpt>
    <trkpt lat="35.1902039" lon="129.0560288"></trkpt>
    <trkpt lat="35.1902631" lon="129.0559537"></trkpt>
    <trkpt lat="35.1903190" lon="129.0558584"></trkpt>
    <trkpt lat="35.1903551" lon="129.0557512"></trkpt>
    <trkpt lat="35.1903705" lon="129.0556345"></trkpt>
    <trkpt lat="35.1903639" lon="129.0555285"></trkpt>
    <trkpt lat="35.1903365" lon="129.0554172"></trkpt>
    <trkpt lat="35.1902883" lon="129.0553274"></trkpt>
    <trkpt lat="35.1902236" lon="129.0552523"></trkpt>
    <trkpt lat="35.1901524" lon="129.0551946"></trkpt>
    <trkpt lat="35.1900844" lon="129.0551624"></trkpt>
    <trkpt lat="35.1901338" lon="129.0551477"></trkpt>
    <trkpt lat="35.1901140" lon="129.0550431"></trkpt>
    <trkpt lat="35.1888459" lon="129.0554132"></trkpt>
    <trkpt lat="35.1888679" lon="129.0555151"></trkpt>
    <trkpt lat="35.1888295" lon="129.0555929"></trkpt>
    <trkpt lat="35.1887988" lon="129.0556707"></trkpt>
    <trkpt lat="35.1887846" lon="129.0557605"></trkpt>
    <trkpt lat="35.1887791" lon="129.0558625"></trkpt>
    <trkpt lat="35.1887878" lon="129.0559604"></trkpt>
    <trkpt lat="35.1888131" lon="129.0560610"></trkpt>
    <trkpt lat="35.1888558" lon="129.0561535"></trkpt>
    <trkpt lat="35.1889150" lon="129.0562340"></trkpt>
    <trkpt lat="35.1889884" lon="129.0562983"></trkpt>
    <trkpt lat="35.1890728" lon="129.0563453"></trkpt>
    <trkpt lat="35.1891758" lon="129.0563640"></trkpt>
    <trkpt lat="35.1892800" lon="129.0563627"></trkpt>
    <trkpt lat="35.1900625" lon="129.0561374"></trkpt>
    <trkpt lat="35.1901480" lon="129.0560864"></trkpt>
    <trkpt lat="35.1902039" lon="129.0560288"></trkpt>
    <trkpt lat="35.1902631" lon="129.0559537"></trkpt>
    <trkpt lat="35.1903190" lon="129.0558584"></trkpt>
    <trkpt lat="35.1903551" lon="129.0557512"></trkpt>
    <trkpt lat="35.1903705" lon="129.0556345"></trkpt>
    <trkpt lat="35.1903639" lon="129.0555285"></trkpt>
    <trkpt lat="35.1903365" lon="129.0554172"></trkpt>
    <trkpt lat="35.1902883" lon="129.0553274"></trkpt>
    <trkpt lat="35.1902236" lon="129.0552523"></trkpt>
    <trkpt lat="35.1901524" lon="129.0551946"></trkpt>
    <trkpt lat="35.1900844" lon="129.0551624"></trkpt>
    <trkpt lat="35.1901338" lon="129.0551477"></trkpt>
    <trkpt lat="35.1901140" lon="129.0550431"></trkpt>
    <trkpt lat="35.1888459" lon="129.0554132"></trkpt>
    <trkpt lat="35.1888679" lon="129.0555151"></trkpt>
    <trkpt lat="35.1888295" lon="129.0555929"></trkpt>
    <trkpt lat="35.1887988" lon="129.0556707"></trkpt>
    <trkpt lat="35.1887846" lon="129.0557605"></trkpt>
    <trkpt lat="35.1887791" lon="129.0558625"></trkpt>
    <trkpt lat="35.1887878" lon="129.0559604"></trkpt>
    <trkpt lat="35.1888131" lon="129.0560610"></trkpt>
    <trkpt lat="35.1888558" lon="129.0561535"></trkpt>
    <trkpt lat="35.1889150" lon="129.0562340"></trkpt>
    <trkpt lat="35.1889884" lon="129.0562983"></trkpt>
    <trkpt lat="35.1890728" lon="129.0563453"></trkpt>
    <trkpt lat="35.1891758" lon="129.0563640"></trkpt>
    <trkpt lat="35.1892800" lon="129.0563627"></trkpt>
    <trkpt lat="35.1900625" lon="129.0561374"></trkpt>
    <trkpt lat="35.1901480" lon="129.0560864"></trkpt>
    <trkpt lat="35.1902039" lon="129.0560288"></trkpt>
    <trkpt lat="35.1902631" lon="129.0559537"></trkpt>
    <trkpt lat="35.1903190" lon="129.0558584"></trkpt>
    <trkpt lat="35.1903551" lon="129.0557512"></trkpt>
    <trkpt lat="35.1903705" lon="129.0556345"></trkpt>
    <trkpt lat="35.1903639" lon="129.0555285"></trkpt>
    <trkpt lat="35.1903365" lon="129.0554172"></trkpt>
    <trkpt lat="35.1902883" lon="129.0553274"></trkpt>
    <trkpt lat="35.1902236" lon="129.0552523"></trkpt>
    <trkpt lat="35.1901524" lon="129.0551946"></trkpt>
    <trkpt lat="35.1900844" lon="129.0551624"></trkpt>
    <trkpt lat="35.1901338" lon="129.0551477"></trkpt>
    <trkpt lat="35.1901140" lon="129.0550431"></trkpt>
    <trkpt lat="35.1888459" lon="129.0554132"></trkpt>
    <trkpt lat="35.1888679" lon="129.0555151"></trkpt>
    <trkpt lat="35.1888295" lon="129.0555929"></trkpt>
    <trkpt lat="35.1887988" lon="129.0556707"></trkpt>
    <trkpt lat="35.1887846" lon="129.0557605"></trkpt>
    <trkpt lat="35.1887791" lon="129.0558625"></trkpt>
    <trkpt lat="35.1887878" lon="129.0559604"></trkpt>
    <trkpt lat="35.1888131" lon="129.0560610"></trkpt>
    <trkpt lat="35.1888558" lon="129.0561535"></trkpt>
    <trkpt lat="35.1889150" lon="129.0562340"></trkpt>
    <trkpt lat="35.1889884" lon="129.0562983"></trkpt>
    <trkpt lat="35.1890728" lon="129.0563453"></trkpt>
    <trkpt lat="35.1891758" lon="129.0563640"></trkpt>
    <trkpt lat="35.1892800" lon="129.0563627"></trkpt>
    <trkpt lat="35.1900625" lon="129.0561374"></trkpt>
    <trkpt lat="35.1901480" lon="129.0560864"></trkpt>
    <trkpt lat="35.1902039" lon="129.0560288"></trkpt>
    <trkpt lat="35.1902631" lon="129.0559537"></trkpt>
    <trkpt lat="35.1903190" lon="129.0558584"></trkpt>
    <trkpt lat="35.1903551" lon="129.0557512"></trkpt>
    <trkpt lat="35.1903705" lon="129.0556345"></trkpt>
    <trkpt lat="35.1903639" lon="129.0555285"></trkpt>
    <trkpt lat="35.1903365" lon="129.0554172"></trkpt>
    <trkpt lat="35.1902883" lon="129.0553274"></trkpt>
    <trkpt lat="35.1902236" lon="129.0552523"></trkpt>
    <trkpt lat="35.1901524" lon="129.0551946"></trkpt>
    <trkpt lat="35.1900844" lon="129.0551624"></trkpt>
    <trkpt lat="35.1901338" lon="129.0551477"></trkpt>
    <trkpt lat="35.1901140" lon="129.0550431"></trkpt>
    <trkpt lat="35.1888459" lon="129.0554132"></trkpt>
    <trkpt lat="35.1888679" lon="129.0555151"></trkpt>
    <trkpt lat="35.1888295" lon="129.0555929"></trkpt>
    <trkpt lat="35.1887988" lon="129.0556707"></trkpt>
    <trkpt lat="35.1887846" lon="129.0557605"></trkpt>
    <trkpt lat="35.1887791" lon="129.0558625"></trkpt>
    <trkpt lat="35.1887878" lon="129.0559604"></trkpt>
    <trkpt lat="35.1888131" lon="129.0560610"></trkpt>
    <trkpt lat="35.1888558" lon="129.0561535"></trkpt>
    <trkpt lat="35.1889150" lon="129.0562340"></trkpt>
    <trkpt lat="35.1889884" lon="129.0562983"></trkpt>
    <trkpt lat="35.1890728" lon="129.0563453"></trkpt>
    <trkpt lat="35.1891758" lon="129.0563640"></trkpt>
    <trkpt lat="35.1892800" lon="129.0563627"></trkpt>
    <trkpt lat="35.1900625" lon="129.0561374"></trkpt>
    <trkpt lat="35.1901480" lon="129.0560864"></trkpt>
    <trkpt lat="35.1902039" lon="129.0560288"></trkpt>
    <trkpt lat="35.1902631" lon="129.0559537"></trkpt>
    <trkpt lat="35.1903190" lon="129.0558584"></trkpt>
    <trkpt lat="35.1903551" lon="129.0557512"></trkpt>
    <trkpt lat="35.1903705" lon="129.0556345"></trkpt>
    <trkpt lat="35.1903639" lon="129.0555285"></trkpt>
    <trkpt lat="35.1903365" lon="129.0554172"></trkpt>
    <trkpt lat="35.1902883" lon="129.0553274"></trkpt>
    <trkpt lat="35.1902236" lon="129.0552523"></trkpt>
    <trkpt lat="35.1901524" lon="129.0551946"></trkpt>
    <trkpt lat="35.1900844" lon="129.0551624"></trkpt>
    <trkpt lat="35.1901338" lon="129.0551477"></trkpt>
    <trkpt lat="35.1901140" lon="129.0550431"></trkpt>
  </trkseg></trk>
</gpx>