<?xml version="1.0" encoding="UTF-8"?>
<gpx version="1.1" creator="RunNavi nationwide seed" xmlns="http://www.topografix.com/GPX/1/1">
  <metadata>
    <name>수영교 · 수영강 왕복 10K</name>
    <copyright author="OpenStreetMap contributors">
      <license>https://opendatacommons.org/licenses/odbl/1-0/</license>
    </copyright>
  </metadata>
  <trk><name>수영교 · 수영강 왕복 10K</name><trkseg>
    <trkpt lat="35.1705038" lon="129.1250184"></trkpt>
    <trkpt lat="35.1708912" lon="129.1247759"></trkpt>
    <trkpt lat="35.1713414" lon="129.1245128"></trkpt>
    <trkpt lat="35.1722460" lon="129.1239395"></trkpt>
    <trkpt lat="35.1724333" lon="129.1238208"></trkpt>
    <trkpt lat="35.1730149" lon="129.1234549"></trkpt>
    <trkpt lat="35.1731283" lon="129.1233836"></trkpt>
    <trkpt lat="35.1732146" lon="129.1233060"></trkpt>
    <trkpt lat="35.1734552" lon="129.1231619"></trkpt>
    <trkpt lat="35.1740071" lon="129.1228337"></trkpt>
    <trkpt lat="35.1749173" lon="129.1216997"></trkpt>
    <trkpt lat="35.1752768" lon="129.1212469"></trkpt>
    <trkpt lat="35.1755045" lon="129.1209995"></trkpt>
    <trkpt lat="35.1757148" lon="129.1208374"></trkpt>
    <trkpt lat="35.1757969" lon="129.1207763"></trkpt>
    <trkpt lat="35.1758921" lon="129.1207005"></trkpt>
    <trkpt lat="35.1761031" lon="129.1205935"></trkpt>
    <trkpt lat="35.1762872" lon="129.1205207"></trkpt>
    <trkpt lat="35.1764880" lon="129.1204491"></trkpt>
    <trkpt lat="35.1770046" lon="129.1202647"></trkpt>
    <trkpt lat="35.1771075" lon="129.1202282"></trkpt>
    <trkpt lat="35.1773382" lon="129.1201691"></trkpt>
    <trkpt lat="35.1781903" lon="129.1199613"></trkpt>
    <trkpt lat="35.1788159" lon="129.1198210"></trkpt>
    <trkpt lat="35.1795727" lon="129.1196453"></trkpt>
    <trkpt lat="35.1801638" lon="129.1195473"></trkpt>
    <trkpt lat="35.1802409" lon="129.1194941"></trkpt>
    <trkpt lat="35.1803760" lon="129.1194177"></trkpt>
    <trkpt lat="35.1806182" lon="129.1193530"></trkpt>
    <trkpt lat="35.1807038" lon="129.1193175"></trkpt>
    <trkpt lat="35.1812922" lon="129.1191502"></trkpt>
    <trkpt lat="35.1815544" lon="129.1190761"></trkpt>
    <trkpt lat="35.1818132" lon="129.1190030"></trkpt>
    <trkpt lat="35.1818632" lon="129.1189888"></trkpt>
    <trkpt lat="35.1820485" lon="129.1189207"></trkpt>
    <trkpt lat="35.1824583" lon="129.1187685"></trkpt>
    <trkpt lat="35.1829638" lon="129.1185620"></trkpt>
    <trkpt lat="35.1833651" lon="129.1183887"></trkpt>
    <trkpt lat="35.1838599" lon="129.1181835"></trkpt>
    <trkpt lat="35.1841065" lon="129.1180706"></trkpt>
    <trkpt lat="35.1846190" lon="129.1178621"></trkpt>
    <trkpt lat="35.1850681" lon="129.1176761"></trkpt>
    <trkpt lat="35.1854696" lon="129.1175039"></trkpt>
    <trkpt lat="35.1858323" lon="129.1173640"></trkpt>
    <trkpt lat="35.1862684" lon="129.1171723"></trkpt>
    <trkpt lat="35.1866072" lon="129.1169842"></trkpt>
    <trkpt lat="35.1866311" lon="129.1169737"></trkpt>
    <trkpt lat="35.1869665" lon="129.1168436"></trkpt>
    <trkpt lat="35.1875562" lon="129.1166076"></trkpt>
    <trkpt lat="35.1880834" lon="129.1163943"></trkpt>
    <trkpt lat="35.1882226" lon="129.1163420"></trkpt>
    <trkpt lat="35.1884078" lon="129.1162696"></trkpt>
    <trkpt lat="35.1884812" lon="129.1162683"></trkpt>
    <trkpt lat="35.1887684" lon="129.1161610"></trkpt>
    <trkpt lat="35.1892452" lon="129.1159786"></trkpt>
    <trkpt lat="35.1896167" lon="129.1158418"></trkpt>
    <trkpt lat="35.1897734" lon="129.1157895"></trkpt>
    <trkpt lat="35.1901929" lon="129.1156515"></trkpt>
    <trkpt lat="35.1902886" lon="129.1156266"></trkpt>
    <trkpt lat="35.1903269" lon="129.1156347"></trkpt>
    <trkpt lat="35.1903536" lon="129.1156779"></trkpt>
    <trkpt lat="35.1912001" lon="129.1153920"></trkpt>
    <trkpt lat="35.1928659" lon="129.1148676"></trkpt>
    <trkpt lat="35.1933942" lon="129.1147603"></trkpt>
    <trkpt lat="35.1934442" lon="129.1147430"></trkpt>
    <trkpt lat="35.1935184" lon="129.1146977"></trkpt>
    <trkpt lat="35.1938079" lon="129.1146755"></trkpt>
    <trkpt lat="35.1942460" lon="129.1147231"></trkpt>
    <trkpt lat="35.1943293" lon="129.1147445"></trkpt>
    <trkpt lat="35.1945616" lon="129.1147231"></trkpt>
    <trkpt lat="35.1947107" lon="129.1147231"></trkpt>
    <trkpt lat="35.1951381" lon="129.1147151"></trkpt>
    <trkpt lat="35.1955305" lon="129.1147204"></trkpt>
    <trkpt lat="35.1956689" lon="129.1147988"></trkpt>
    <trkpt lat="35.1957486" lon="129.1148123"></trkpt>
    <trkpt lat="35.1958089" lon="129.1147976"></trkpt>
    <trkpt lat="35.1959020" lon="129.1147895"></trkpt>
    <trkpt lat="35.1959228" lon="129.1147895"></trkpt>
    <trkpt lat="35.1959612" lon="129.1147895"></trkpt>
    <trkpt lat="35.1960149" lon="129.1147949"></trkpt>
    <trkpt lat="35.1960683" lon="129.1147959"></trkpt>
    <trkpt lat="35.1961012" lon="129.1148032"></trkpt>
    <trkpt lat="35.1962513" lon="129.1148039"></trkpt>
    <trkpt lat="35.1963335" lon="129.1148053"></trkpt>
    <trkpt lat="35.1966497" lon="129.1148120"></trkpt>
    <trkpt lat="35.1966919" lon="129.1148133"></trkpt>
    <trkpt lat="35.1969977" lon="129.1148529"></trkpt>
    <trkpt lat="35.1970294" lon="129.1148576"></trkpt>
    <trkpt lat="35.1971599" lon="129.1148991"></trkpt>
    <trkpt lat="35.1973884" lon="129.1149769"></trkpt>
    <trkpt lat="35.1977226" lon="129.1151224"></trkpt>
    <trkpt lat="35.1979785" lon="129.1152512"></trkpt>
    <trkpt lat="35.1982952" lon="129.1154094"></trkpt>
    <trkpt lat="35.1987801" lon="129.1156531"></trkpt>
    <trkpt lat="35.1994059" lon="129.1159696"></trkpt>
    <trkpt lat="35.1999056" lon="129.1162351"></trkpt>
    <trkpt lat="35.2002716" lon="129.1164095"></trkpt>
    <trkpt lat="35.2002936" lon="129.1164175"></trkpt>
    <trkpt lat="35.2003725" lon="129.1164363"></trkpt>
    <trkpt lat="35.2005270" lon="129.1165087"></trkpt>
    <trkpt lat="35.2008064" lon="129.1166594"></trkpt>
    <trkpt lat="35.2008875" lon="129.1165001"></trkpt>
    <trkpt lat="35.2010375" lon="129.1161958"></trkpt>
    <trkpt lat="35.2010680" lon="129.1161347"></trkpt>
    <trkpt lat="35.2016934" lon="129.1165903"></trkpt>
    <trkpt lat="35.2023423" lon="129.1170512"></trkpt>
    <trkpt lat="35.2028363" lon="129.1174142"></trkpt>
    <trkpt lat="35.2034973" lon="129.1179315"></trkpt>
    <trkpt lat="35.2041749" lon="129.1184530"></trkpt>
    <trkpt lat="35.2047828" lon="129.1187639"></trkpt>
    <trkpt lat="35.2049663" lon="129.1188458"></trkpt>
    <trkpt lat="35.2052073" lon="129.1189938"></trkpt>
    <trkpt lat="35.2055438" lon="129.1192854"></trkpt>
    <trkpt lat="35.2055471" lon="129.1193281"></trkpt>
    <trkpt lat="35.2055578" lon="129.1194653"></trkpt>
    <trkpt lat="35.2056604" lon="129.1195239"></trkpt>
    <trkpt lat="35.2062109" lon="129.1197942"></trkpt>
    <trkpt lat="35.2068763" lon="129.1201082"></trkpt>
    <trkpt lat="35.2071842" lon="129.1202221"></trkpt>
    <trkpt lat="35.2080147" lon="129.1204340"></trkpt>
    <trkpt lat="35.2087453" lon="129.1206426"></trkpt>
    <trkpt lat="35.2095306" lon="129.1209066"></trkpt>
    <trkpt lat="35.2099976" lon="129.1210524"></trkpt>
    <trkpt lat="35.2101107" lon="129.1210620"></trkpt>
    <trkpt lat="35.2102055" lon="129.1210471"></trkpt>
    <trkpt lat="35.2104368" lon="129.1209374"></trkpt>
    <trkpt lat="35.2105838" lon="129.1208204"></trkpt>
    <trkpt lat="35.2107569" lon="129.1206575"></trkpt>
    <trkpt lat="35.2108273" lon="129.1206096"></trkpt>
    <trkpt lat="35.2113431" lon="129.1203626"></trkpt>
    <trkpt lat="35.2118541" lon="129.1201385"></trkpt>
    <trkpt lat="35.2113431" lon="129.1203626"></trkpt>
    <trkpt lat="35.2108273" lon="129.1206096"></trkpt>
    <trkpt lat="35.2107569" lon="129.1206575"></trkpt>
    <trkpt lat="35.2105838" lon="129.1208204"></trkpt>
    <trkpt lat="35.2104368" lon="129.1209374"></trkpt>
    <trkpt lat="35.2102055" lon="129.1210471"></trkpt>
    <trkpt lat="35.2101107" lon="129.1210620"></trkpt>
    <trkpt lat="35.2099976" lon="129.1210524"></trkpt>
    <trkpt lat="35.2095306" lon="129.1209066"></trkpt>
    <trkpt lat="35.2087453" lon="129.1206426"></trkpt>
    <trkpt lat="35.2080147" lon="129.1204340"></trkpt>
    <trkpt lat="35.2071842" lon="129.1202221"></trkpt>
    <trkpt lat="35.2068763" lon="129.1201082"></trkpt>
    <trkpt lat="35.2062109" lon="129.1197942"></trkpt>
    <trkpt lat="35.2056604" lon="129.1195239"></trkpt>
    <trkpt lat="35.2055578" lon="129.1194653"></trkpt>
    <trkpt lat="35.2055471" lon="129.1193281"></trkpt>
    <trkpt lat="35.2055438" lon="129.1192854"></trkpt>
    <trkpt lat="35.2052073" lon="129.1189938"></trkpt>
    <trkpt lat="35.2049663" lon="129.1188458"></trkpt>
    <trkpt lat="35.2047828" lon="129.1187639"></trkpt>
    <trkpt lat="35.2041749" lon="129.1184530"></trkpt>
    <trkpt lat="35.2034973" lon="129.1179315"></trkpt>
    <trkpt lat="35.2028363" lon="129.1174142"></trkpt>
    <trkpt lat="35.2023423" lon="129.1170512"></trkpt>
    <trkpt lat="35.2016934" lon="129.1165903"></trkpt>
    <trkpt lat="35.2010680" lon="129.1161347"></trkpt>
    <trkpt lat="35.2010375" lon="129.1161958"></trkpt>
    <trkpt lat="35.2008875" lon="129.1165001"></trkpt>
    <trkpt lat="35.2008064" lon="129.1166594"></trkpt>
    <trkpt lat="35.2005270" lon="129.1165087"></trkpt>
    <trkpt lat="35.2003725" lon="129.1164363"></trkpt>
    <trkpt lat="35.2002936" lon="129.1164175"></trkpt>
    <trkpt lat="35.2002716" lon="129.1164095"></trkpt>
    <trkpt lat="35.1999056" lon="129.1162351"></trkpt>
    <trkpt lat="35.1994059" lon="129.1159696"></trkpt>
    <trkpt lat="35.1987801" lon="129.1156531"></trkpt>
    <trkpt lat="35.1982952" lon="129.1154094"></trkpt>
    <trkpt lat="35.1979785" lon="129.1152512"></trkpt>
    <trkpt lat="35.1977226" lon="129.1151224"></trkpt>
    <trkpt lat="35.1973884" lon="129.1149769"></trkpt>
    <trkpt lat="35.1971599" lon="129.1148991"></trkpt>
    <trkpt lat="35.1970294" lon="129.1148576"></trkpt>
    <trkpt lat="35.1969977" lon="129.1148529"></trkpt>
    <trkpt lat="35.1966919" lon="129.1148133"></trkpt>
    <trkpt lat="35.1966497" lon="129.1148120"></trkpt>
    <trkpt lat="35.1963335" lon="129.1148053"></trkpt>
    <trkpt lat="35.1962513" lon="129.1148039"></trkpt>
    <trkpt lat="35.1961012" lon="129.1148032"></trkpt>
    <trkpt lat="35.1960683" lon="129.1147959"></trkpt>
    <trkpt lat="35.1960149" lon="129.1147949"></trkpt>
    <trkpt lat="35.1959612" lon="129.1147895"></trkpt>
    <trkpt lat="35.1959228" lon="129.1147895"></trkpt>
    <trkpt lat="35.1959020" lon="129.1147895"></trkpt>
    <trkpt lat="35.1958089" lon="129.1147976"></trkpt>
    <trkpt lat="35.1957486" lon="129.1148123"></trkpt>
    <trkpt lat="35.1956689" lon="129.1147988"></trkpt>
    <trkpt lat="35.1955305" lon="129.1147204"></trkpt>
    <trkpt lat="35.1951381" lon="129.1147151"></trkpt>
    <trkpt lat="35.1947107" lon="129.1147231"></trkpt>
    <trkpt lat="35.1945616" lon="129.1147231"></trkpt>
    <trkpt lat="35.1943293" lon="129.1147445"></trkpt>
    <trkpt lat="35.1942460" lon="129.1147231"></trkpt>
    <trkpt lat="35.1938079" lon="129.1146755"></trkpt>
    <trkpt lat="35.1935184" lon="129.1146977"></trkpt>
    <trkpt lat="35.1934442" lon="129.1147430"></trkpt>
    <trkpt lat="35.1933942" lon="129.1147603"></trkpt>
    <trkpt lat="35.1928659" lon="129.1148676"></trkpt>
    <trkpt lat="35.1912001" lon="129.1153920"></trkpt>
    <trkpt lat="35.1903536" lon="129.1156779"></trkpt>
    <trkpt lat="35.1903269" lon="129.1156347"></trkpt>
    <trkpt lat="35.1902886" lon="129.1156266"></trkpt>
    <trkpt lat="35.1901929" lon="129.1156515"></trkpt>
    <trkpt lat="35.1897734" lon="129.1157895"></trkpt>
    <trkpt lat="35.1896167" lon="129.1158418"></trkpt>
    <trkpt lat="35.1892452" lon="129.1159786"></trkpt>
    <trkpt lat="35.1887684" lon="129.1161610"></trkpt>
    <trkpt lat="35.1884812" lon="129.1162683"></trkpt>
    <trkpt lat="35.1884078" lon="129.1162696"></trkpt>
    <trkpt lat="35.1882226" lon="129.1163420"></trkpt>
    <trkpt lat="35.1880834" lon="129.1163943"></trkpt>
    <trkpt lat="35.1875562" lon="129.1166076"></trkpt>
    <trkpt lat="35.1869665" lon="129.1168436"></trkpt>
    <trkpt lat="35.1866311" lon="129.1169737"></trkpt>
    <trkpt lat="35.1866072" lon="129.1169842"></trkpt>
    <trkpt lat="35.1862684" lon="129.1171723"></trkpt>
    <trkpt lat="35.1858323" lon="129.1173640"></trkpt>
    <trkpt lat="35.1854696" lon="129.1175039"></trkpt>
    <trkpt lat="35.1850681" lon="129.1176761"></trkpt>
    <trkpt lat="35.1846190" lon="129.1178621"></trkpt>
    <trkpt lat="35.1841065" lon="129.1180706"></trkpt>
    <trkpt lat="35.1838599" lon="129.1181835"></trkpt>
    <trkpt lat="35.1833651" lon="129.1183887"></trkpt>
    <trkpt lat="35.1829638" lon="129.1185620"></trkpt>
    <trkpt lat="35.1824583" lon="129.1187685"></trkpt>
    <trkpt lat="35.1820485" lon="129.1189207"></trkpt>
    <trkpt lat="35.1818632" lon="129.1189888"></trkpt>
    <trkpt lat="35.1818132" lon="129.1190030"></trkpt>
    <trkpt lat="35.1815544" lon="129.1190761"></trkpt>
    <trkpt lat="35.1812922" lon="129.1191502"></trkpt>
    <trkpt lat="35.1807038" lon="129.1193175"></trkpt>
    <trkpt lat="35.1806182" lon="129.1193530"></trkpt>
    <trkpt lat="35.1803760" lon="129.1194177"></trkpt>
    <trkpt lat="35.1802409" lon="129.1194941"></trkpt>
    <trkpt lat="35.1801638" lon="129.1195473"></trkpt>
    <trkpt lat="35.1795727" lon="129.1196453"></trkpt>
    <trkpt lat="35.1788159" lon="129.1198210"></trkpt>
    <trkpt lat="35.1781903" lon="129.1199613"></trkpt>
    <trkpt lat="35.1773382" lon="129.1201691"></trkpt>
    <trkpt lat="35.1771075" lon="129.1202282"></trkpt>
    <trkpt lat="35.1770046" lon="129.1202647"></trkpt>
    <trkpt lat="35.1764880" lon="129.1204491"></trkpt>
    <trkpt lat="35.1762872" lon="129.1205207"></trkpt>
    <trkpt lat="35.1761031" lon="129.1205935"></trkpt>
    <trkpt lat="35.1758921" lon="129.1207005"></trkpt>
    <trkpt lat="35.1757969" lon="129.1207763"></trkpt>
    <trkpt lat="35.1757148" lon="129.1208374"></trkpt>
    <trkpt lat="35.1755045" lon="129.1209995"></trkpt>
    <trkpt lat="35.1752768" lon="129.1212469"></trkpt>
    <trkpt lat="35.1749173" lon="129.1216997"></trkpt>
    <trkpt lat="35.1740071" lon="129.1228337"></trkpt>
    <trkpt lat="35.1734552" lon="129.1231619"></trkpt>
    <trkpt lat="35.1732146" lon="129.1233060"></trkpt>
    <trkpt lat="35.1731283" lon="129.1233836"></trkpt>
    <trkpt lat="35.1730149" lon="129.1234549"></trkpt>
    <trkpt lat="35.1724333" lon="129.1238208"></trkpt>
    <trkpt lat="35.1722460" lon="129.1239395"></trkpt>
    <trkpt lat="35.1713414" lon="129.1245128"></trkpt>
    <trkpt lat="35.1708912" lon="129.1247759"></trkpt>
    <trkpt lat="35.1705038" lon="129.1250184"></trkpt>
  </trkseg></trk>
</gpx>