<?xml version="1.0" encoding="UTF-8"?>
<gpx version="1.1" creator="RunNavi nationwide seed" xmlns="http://www.topografix.com/GPX/1/1">
  <metadata>
    <name>공지교 · 공지천 왕복 5K</name>
    <copyright author="OpenStreetMap contributors">
      <license>https://opendatacommons.org/licenses/odbl/1-0/</license>
    </copyright>
  </metadata>
  <trk><name>공지교 · 공지천 왕복 5K</name><trkseg>
    <trkpt lat="37.8726200" lon="127.7141453"></trkpt>
    <trkpt lat="37.8725108" lon="127.7142340"></trkpt>
    <trkpt lat="37.8724269" lon="127.7142900"></trkpt>
    <trkpt lat="37.8722773" lon="127.7144587"></trkpt>
    <trkpt lat="37.8721378" lon="127.7146312"></trkpt>
    <trkpt lat="37.8719617" lon="127.7147022"></trkpt>
    <trkpt lat="37.8717811" lon="127.7146874"></trkpt>
    <trkpt lat="37.8717500" lon="127.7145572"></trkpt>
    <trkpt lat="37.8716511" lon="127.7146934"></trkpt>
    <trkpt lat="37.8715623" lon="127.7148144"></trkpt>
    <trkpt lat="37.8715316" lon="127.7153326"></trkpt>
    <trkpt lat="37.8715696" lon="127.7156588"></trkpt>
    <trkpt lat="37.8716011" lon="127.7159728"></trkpt>
    <trkpt lat="37.8716076" lon="127.7161434"></trkpt>
    <trkpt lat="37.8714975" lon="127.7179452"></trkpt>
    <trkpt lat="37.8713410" lon="127.7199971"></trkpt>
    <trkpt lat="37.8711697" lon="127.7204119"></trkpt>
    <trkpt lat="37.8710143" lon="127.7208228"></trkpt>
    <trkpt lat="37.8709440" lon="127.7209328"></trkpt>
    <trkpt lat="37.8708871" lon="127.7209954"></trkpt>
    <trkpt lat="37.8708728" lon="127.7210112"></trkpt>
    <trkpt lat="37.8707896" lon="127.7210848"></trkpt>
    <trkpt lat="37.8707301" lon="127.7211672"></trkpt>
    <trkpt lat="37.8706556" lon="127.7212691"></trkpt>
    <trkpt lat="37.8705070" lon="127.7215181"></trkpt>
    <trkpt lat="37.8703606" lon="127.7217776"></trkpt>
    <trkpt lat="37.8701996" lon="127.7220576"></trkpt>
    <trkpt lat="37.8700941" lon="127.7222356"></trkpt>
    <trkpt lat="37.8700338" lon="127.7223467"></trkpt>
    <trkpt lat="37.8694160" lon="127.7234559"></trkpt>
    <trkpt lat="37.8693844" lon="127.7235637"></trkpt>
    <trkpt lat="37.8691274" lon="127.7240506"></trkpt>
    <trkpt lat="37.8690901" lon="127.7241214"></trkpt>
    <trkpt lat="37.8690027" lon="127.7242604"></trkpt>
    <trkpt lat="37.8689555" lon="127.7242950"></trkpt>
    <trkpt lat="37.8685457" lon="127.7250323"></trkpt>
    <trkpt lat="37.8682458" lon="127.7255793"></trkpt>
    <trkpt lat="37.8681784" lon="127.7257009"></trkpt>
    <trkpt lat="37.8679313" lon="127.7261757"></trkpt>
    <trkpt lat="37.8673627" lon="127.7272395"></trkpt>
    <trkpt lat="37.8672431" lon="127.7275506"></trkpt>
    <trkpt lat="37.8670175" lon="127.7279333"></trkpt>
    <trkpt lat="37.8668106" lon="127.7283852"></trkpt>
    <trkpt lat="37.8666181" lon="127.7287396"></trkpt>
    <trkpt lat="37.8664332" lon="127.7290918"></trkpt>
    <trkpt lat="37.8662793" lon="127.7293494"></trkpt>
    <trkpt lat="37.8660351" lon="127.7298514"></trkpt>
    <trkpt lat="37.8660036" lon="127.7299785"></trkpt>
    <trkpt lat="37.8659414" lon="127.7300737"></trkpt>
    <trkpt lat="37.8658714" lon="127.7301671"></trkpt>
    <trkpt lat="37.8658346" lon="127.7302602"></trkpt>
    <trkpt lat="37.8657172" lon="127.7305715"></trkpt>
    <trkpt lat="37.8656028" lon="127.7308141"></trkpt>
    <trkpt lat="37.8655475" lon="127.7308950"></trkpt>
    <trkpt lat="37.8655169" lon="127.7309803"></trkpt>
    <trkpt lat="37.8654549" lon="127.7310550"></trkpt>
    <trkpt lat="37.8653210" lon="127.7312163"></trkpt>
    <trkpt lat="37.8652382" lon="127.7313658"></trkpt>
    <trkpt lat="37.8651594" lon="127.7315289"></trkpt>
    <trkpt lat="37.8649567" lon="127.7318540"></trkpt>
    <trkpt lat="37.8647744" lon="127.7322307"></trkpt>
    <trkpt lat="37.8640447" lon="127.7336255"></trkpt>
    <trkpt lat="37.8635952" lon="127.7344012"></trkpt>
    <trkpt lat="37.8634296" lon="127.7346046"></trkpt>
    <trkpt lat="37.8632926" lon="127.7347509"></trkpt>
    <trkpt lat="37.8631977" lon="127.7348438"></trkpt>
    <trkpt lat="37.8631294" lon="127.7349326"></trkpt>
    <trkpt lat="37.8630644" lon="127.7350386"></trkpt>
    <trkpt lat="37.8630027" lon="127.7351903"></trkpt>
    <trkpt lat="37.8629669" lon="127.7352704"></trkpt>
    <trkpt lat="37.8628040" lon="127.7354692"></trkpt>
    <trkpt lat="37.8624446" lon="127.7359049"></trkpt>
    <trkpt lat="37.8622264" lon="127.7361944"></trkpt>
    <trkpt lat="37.8621153" lon="127.7363199"></trkpt>
    <trkpt lat="37.8618846" lon="127.7364517"></trkpt>
    <trkpt lat="37.8618386" lon="127.7365017"></trkpt>
    <trkpt lat="37.8613197" lon="127.7370435"></trkpt>
    <trkpt lat="37.8612600" lon="127.7371043"></trkpt>
    <trkpt lat="37.8613197" lon="127.7370435"></trkpt>
    <trkpt lat="37.8618386" lon="127.7365017"></trkpt>
    <trkpt lat="37.8618846" lon="127.7364517"></trkpt>
    <trkpt lat="37.8621153" lon="127.7363199"></trkpt>
    <trkpt lat="37.8622264" lon="127.7361944"></trkpt>
    <trkpt lat="37.8624446" lon="127.7359049"></trkpt>
    <trkpt lat="37.8628040" lon="127.7354692"></trkpt>
    <trkpt lat="37.8629669" lon="127.7352704"></trkpt>
    <trkpt lat="37.8630027" lon="127.7351903"></trkpt>
    <trkpt lat="37.8630644" lon="127.7350386"></trkpt>
    <trkpt lat="37.8631294" lon="127.7349326"></trkpt>
    <trkpt lat="37.8631977" lon="127.7348438"></trkpt>
    <trkpt lat="37.8632926" lon="127.7347509"></trkpt>
    <trkpt lat="37.8634296" lon="127.7346046"></trkpt>
    <trkpt lat="37.8635952" lon="127.7344012"></trkpt>
    <trkpt lat="37.8640447" lon="127.7336255"></trkpt>
    <trkpt lat="37.8647744" lon="127.7322307"></trkpt>
    <trkpt lat="37.8649567" lon="127.7318540"></trkpt>
    <trkpt lat="37.8651594" lon="127.7315289"></trkpt>
    <trkpt lat="37.8652382" lon="127.7313658"></trkpt>
    <trkpt lat="37.8653210" lon="127.7312163"></trkpt>
    <trkpt lat="37.8654549" lon="127.7310550"></trkpt>
    <trkpt lat="37.8655169" lon="127.7309803"></trkpt>
    <trkpt lat="37.8655475" lon="127.7308950"></trkpt>
    <trkpt lat="37.8656028" lon="127.7308141"></trkpt>
    <trkpt lat="37.8657172" lon="127.7305715"></trkpt>
    <trkpt lat="37.8658346" lon="127.7302602"></trkpt>
    <trkpt lat="37.8658714" lon="127.7301671"></trkpt>
    <trkpt lat="37.8659414" lon="127.7300737"></trkpt>
    <trkpt lat="37.8660036" lon="127.7299785"></trkpt>
    <trkpt lat="37.8660351" lon="127.7298514"></trkpt>
    <trkpt lat="37.8662793" lon="127.7293494"></trkpt>
    <trkpt lat="37.8664332" lon="127.7290918"></trkpt>
    <trkpt lat="37.8666181" lon="127.7287396"></trkpt>
    <trkpt lat="37.8668106" lon="127.7283852"></trkpt>
    <trkpt lat="37.8670175" lon="127.7279333"></trkpt>
    <trkpt lat="37.8672431" lon="127.7275506"></trkpt>
    <trkpt lat="37.8673627" lon="127.7272395"></trkpt>
    <trkpt lat="37.8679313" lon="127.7261757"></trkpt>
    <trkpt lat="37.8681784" lon="127.7257009"></trkpt>
    <trkpt lat="37.8682458" lon="127.7255793"></trkpt>
    <trkpt lat="37.8685457" lon="127.7250323"></trkpt>
    <trkpt lat="37.8689555" lon="127.7242950"></trkpt>
    <trkpt lat="37.8690027" lon="127.7242604"></trkpt>
    <trkpt lat="37.8690901" lon="127.7241214"></trkpt>
    <trkpt lat="37.8691274" lon="127.7240506"></trkpt>
    <trkpt lat="37.8693844" lon="127.7235637"></trkpt>
    <trkpt lat="37.8694160" lon="127.7234559"></trkpt>
    <trkpt lat="37.8700338" lon="127.7223467"></trkpt>
    <trkpt lat="37.8700941" lon="127.7222356"></trkpt>
    <trkpt lat="37.8701996" lon="127.7220576"></trkpt>
    <trkpt lat="37.8703606" lon="127.7217776"></trkpt>
    <trkpt lat="37.8705070" lon="127.7215181"></trkpt>
    <trkpt lat="37.8706556" lon="127.7212691"></trkpt>
    <trkpt lat="37.8707301" lon="127.7211672"></trkpt>
    <trkpt lat="37.8707896" lon="127.7210848"></trkpt>
    <trkpt lat="37.8708728" lon="127.7210112"></trkpt>
    <trkpt lat="37.8708871" lon="127.7209954"></trkpt>
    <trkpt lat="37.8709440" lon="127.7209328"></trkpt>
    <trkpt lat="37.8710143" lon="127.7208228"></trkpt>
    <trkpt lat="37.8711697" lon="127.7204119"></trkpt>
    <trkpt lat="37.8713410" lon="127.7199971"></trkpt>
    <trkpt lat="37.8714975" lon="127.7179452"></trkpt>
    <trkpt lat="37.8716076" lon="127.7161434"></trkpt>
    <trkpt lat="37.8716011" lon="127.7159728"></trkpt>
    <trkpt lat="37.8715696" lon="127.7156588"></trkpt>
    <trkpt lat="37.8715316" lon="127.7153326"></trkpt>
    <trkpt lat="37.8715623" lon="127.7148144"></trkpt>
    <trkpt lat="37.8716511" lon="127.7146934"></trkpt>
    <trkpt lat="37.8717500" lon="127.7145572"></trkpt>
    <trkpt lat="37.8717811" lon="127.7146874"></trkpt>
    <trkpt lat="37.8719617" lon="127.7147022"></trkpt>
    <trkpt lat="37.8721378" lon="127.7146312"></trkpt>
    <trkpt lat="37.8722773" lon="127.7144587"></trkpt>
    <trkpt lat="37.8724269" lon="127.7142900"></trkpt>
    <trkpt lat="37.8725108" lon="127.7142340"></trkpt>
    <trkpt lat="37.8726200" lon="127.7141453"></trkpt>
  </trkseg></trk>
</gpx>