<?xml version="1.0" encoding="UTF-8"?>
<gpx version="1.1" creator="RunNavi nationwide seed" xmlns="http://www.topografix.com/GPX/1/1">
  <metadata>
    <name>청주대교 · 무심천 왕복 10K</name>
    <copyright author="OpenStreetMap contributors">
      <license>https://opendatacommons.org/licenses/odbl/1-0/</license>
    </copyright>
  </metadata>
  <trk><name>청주대교 · 무심천 왕복 10K</name><trkseg>
    <trkpt lat="36.6338354" lon="127.4817494"></trkpt>
    <trkpt lat="36.6334467" lon="127.4814923"></trkpt>
    <trkpt lat="36.6332089" lon="127.4813458"></trkpt>
    <trkpt lat="36.6328433" lon="127.4811559"></trkpt>
    <trkpt lat="36.6325233" lon="127.4810275"></trkpt>
    <trkpt lat="36.6323444" lon="127.4810008"></trkpt>
    <trkpt lat="36.6321882" lon="127.4810001"></trkpt>
    <trkpt lat="36.6320511" lon="127.4809887"></trkpt>
    <trkpt lat="36.6315643" lon="127.4809771"></trkpt>
    <trkpt lat="36.6313459" lon="127.4810041"></trkpt>
    <trkpt lat="36.6311183" lon="127.4810419"></trkpt>
    <trkpt lat="36.6308836" lon="127.4811145"></trkpt>
    <trkpt lat="36.6303759" lon="127.4813315"></trkpt>
    <trkpt lat="36.6301867" lon="127.4814329"></trkpt>
    <trkpt lat="36.6299238" lon="127.4816061"></trkpt>
    <trkpt lat="36.6298469" lon="127.4816783"></trkpt>
    <trkpt lat="36.6297895" lon="127.4817189"></trkpt>
    <trkpt lat="36.6297279" lon="127.4817588"></trkpt>
    <trkpt lat="36.6295454" lon="127.4818529"></trkpt>
    <trkpt lat="36.6293786" lon="127.4819879"></trkpt>
    <trkpt lat="36.6292253" lon="127.4821302"></trkpt>
    <trkpt lat="36.6290638" lon="127.4823525"></trkpt>
    <trkpt lat="36.6289438" lon="127.4825426"></trkpt>
    <trkpt lat="36.6287989" lon="127.4827433"></trkpt>
    <trkpt lat="36.6285885" lon="127.4829742"></trkpt>
    <trkpt lat="36.6281173" lon="127.4835596"></trkpt>
    <trkpt lat="36.6279056" lon="127.4838246"></trkpt>
    <trkpt lat="36.6276802" lon="127.4841704"></trkpt>
    <trkpt lat="36.6273523" lon="127.4847185"></trkpt>
    <trkpt lat="36.6269534" lon="127.4854496"></trkpt>
    <trkpt lat="36.6267618" lon="127.4857831"></trkpt>
    <trkpt lat="36.6262679" lon="127.4866633"></trkpt>
    <trkpt lat="36.6257499" lon="127.4876022"></trkpt>
    <trkpt lat="36.6256091" lon="127.4878373"></trkpt>
    <trkpt lat="36.6255020" lon="127.4880300"></trkpt>
    <trkpt lat="36.6253156" lon="127.4883211"></trkpt>
    <trkpt lat="36.6250533" lon="127.4887576"></trkpt>
    <trkpt lat="36.6249183" lon="127.4889743"></trkpt>
    <trkpt lat="36.6249120" lon="127.4892486"></trkpt>
    <trkpt lat="36.6248976" lon="127.4893356"></trkpt>
    <trkpt lat="36.6248581" lon="127.4894354"></trkpt>
    <trkpt lat="36.6246503" lon="127.4899461"></trkpt>
    <trkpt lat="36.6244091" lon="127.4904722"></trkpt>
    <trkpt lat="36.6241762" lon="127.4909028"></trkpt>
    <trkpt lat="36.6238899" lon="127.4914194"></trkpt>
    <trkpt lat="36.6238445" lon="127.4914937"></trkpt>
    <trkpt lat="36.6235808" lon="127.4919003"></trkpt>
    <trkpt lat="36.6234310" lon="127.4921259"></trkpt>
    <trkpt lat="36.6233354" lon="127.4922346"></trkpt>
    <trkpt lat="36.6231859" lon="127.4923287"></trkpt>
    <trkpt lat="36.6230249" lon="127.4924176"></trkpt>
    <trkpt lat="36.6227212" lon="127.4925729"></trkpt>
    <trkpt lat="36.6224476" lon="127.4926760"></trkpt>
    <trkpt lat="36.6221861" lon="127.4927262"></trkpt>
    <trkpt lat="36.6219889" lon="127.4927684"></trkpt>
    <trkpt lat="36.6216840" lon="127.4928374"></trkpt>
    <trkpt lat="36.6212866" lon="127.4928591"></trkpt>
    <trkpt lat="36.6208845" lon="127.4928776"></trkpt>
    <trkpt lat="36.6208302" lon="127.4928777"></trkpt>
    <trkpt lat="36.6206951" lon="127.4928954"></trkpt>
    <trkpt lat="36.6205782" lon="127.4929390"></trkpt>
    <trkpt lat="36.6204197" lon="127.4929983"></trkpt>
    <trkpt lat="36.6200369" lon="127.4929652"></trkpt>
    <trkpt lat="36.6193992" lon="127.4929023"></trkpt>
    <trkpt lat="36.6189319" lon="127.4928569"></trkpt>
    <trkpt lat="36.6185270" lon="127.4928710"></trkpt>
    <trkpt lat="36.6183274" lon="127.4929060"></trkpt>
    <trkpt lat="36.6179531" lon="127.4929915"></trkpt>
    <trkpt lat="36.6175849" lon="127.4931051"></trkpt>
    <trkpt lat="36.6172767" lon="127.4932444"></trkpt>
    <trkpt lat="36.6168976" lon="127.4934392"></trkpt>
    <trkpt lat="36.6165743" lon="127.4936220"></trkpt>
    <trkpt lat="36.6163137" lon="127.4938055"></trkpt>
    <trkpt lat="36.6160436" lon="127.4939281"></trkpt>
    <trkpt lat="36.6157228" lon="127.4940679"></trkpt>
    <trkpt lat="36.6155016" lon="127.4941844"></trkpt>
    <trkpt lat="36.6153980" lon="127.4942879"></trkpt>
    <trkpt lat="36.6152969" lon="127.4943670"></trkpt>
    <trkpt lat="36.6150907" lon="127.4945186"></trkpt>
    <trkpt lat="36.6146886" lon="127.4947676"></trkpt>
    <trkpt lat="36.6146353" lon="127.4948007"></trkpt>
    <trkpt lat="36.6145356" lon="127.4948558"></trkpt>
    <trkpt lat="36.6143243" lon="127.4949745"></trkpt>
    <trkpt lat="36.6141856" lon="127.4950680"></trkpt>
    <trkpt lat="36.6138058" lon="127.4953389"></trkpt>
    <trkpt lat="36.6134611" lon="127.4955861"></trkpt>
    <trkpt lat="36.6130520" lon="127.4958476"></trkpt>
    <trkpt lat="36.6125841" lon="127.4960928"></trkpt>
    <trkpt lat="36.6122967" lon="127.4962503"></trkpt>
    <trkpt lat="36.6120736" lon="127.4963656"></trkpt>
    <trkpt lat="36.6116682" lon="127.4965550"></trkpt>
    <trkpt lat="36.6112454" lon="127.4967363"></trkpt>
    <trkpt lat="36.6107781" lon="127.4969288"></trkpt>
    <trkpt lat="36.6104104" lon="127.4970510"></trkpt>
    <trkpt lat="36.6100861" lon="127.4971367"></trkpt>
    <trkpt lat="36.6097766" lon="127.4972068"></trkpt>
    <trkpt lat="36.6094769" lon="127.4972453"></trkpt>
    <trkpt lat="36.6087277" lon="127.4973137"></trkpt>
    <trkpt lat="36.6086869" lon="127.4973200"></trkpt>
    <trkpt lat="36.6085658" lon="127.4973386"></trkpt>
    <trkpt lat="36.6084103" lon="127.4973283"></trkpt>
    <trkpt lat="36.6081069" lon="127.4973567"></trkpt>
    <trkpt lat="36.6068963" lon="127.4974120"></trkpt>
    <trkpt lat="36.6065426" lon="127.4974307"></trkpt>
    <trkpt lat="36.6058113" lon="127.4974560"></trkpt>
    <trkpt lat="36.6057709" lon="127.4974594"></trkpt>
    <trkpt lat="36.6049401" lon="127.4975290"></trkpt>
    <trkpt lat="36.6043051" lon="127.4975754"></trkpt>
    <trkpt lat="36.6042056" lon="127.4976022"></trkpt>
    <trkpt lat="36.6041445" lon="127.4975812"></trkpt>
    <trkpt lat="36.6039432" lon="127.4975743"></trkpt>
    <trkpt lat="36.6038845" lon="127.4975738"></trkpt>
    <trkpt lat="36.6038770" lon="127.4975738"></trkpt>
    <trkpt lat="36.6031920" lon="127.4975943"></trkpt>
    <trkpt lat="36.6025758" lon="127.4976244"></trkpt>
    <trkpt lat="36.6022183" lon="127.4976252"></trkpt>
    <trkpt lat="36.6015338" lon="127.4975927"></trkpt>
    <trkpt lat="36.6014236" lon="127.4975846"></trkpt>
    <trkpt lat="36.6006404" lon="127.4975323"></trkpt>
    <trkpt lat="36.6000868" lon="127.4974390"></trkpt>
    <trkpt lat="36.5999887" lon="127.4974169"></trkpt>
    <trkpt lat="36.5997850" lon="127.4974070"></trkpt>
    <trkpt lat="36.5993939" lon="127.4973661"></trkpt>
    <trkpt lat="36.5992010" lon="127.4973380"></trkpt>
    <trkpt lat="36.5989594" lon="127.4972846"></trkpt>
    <trkpt lat="36.5986649" lon="127.4971948"></trkpt>
    <trkpt lat="36.5985308" lon="127.4971432"></trkpt>
    <trkpt lat="36.5983015" lon="127.4970620"></trkpt>
    <trkpt lat="36.5979350" lon="127.4969257"></trkpt>
    <trkpt lat="36.5978122" lon="127.4968933"></trkpt>
    <trkpt lat="36.5976722" lon="127.4968605"></trkpt>
    <trkpt lat="36.5974239" lon="127.4968366"></trkpt>
    <trkpt lat="36.5971991" lon="127.4968471"></trkpt>
    <trkpt lat="36.5970945" lon="127.4968672"></trkpt>
    <trkpt lat="36.5969827" lon="127.4968897"></trkpt>
    <trkpt lat="36.5967657" lon="127.4969545"></trkpt>
    <trkpt lat="36.5966059" lon="127.4969803"></trkpt>
    <trkpt lat="36.5965023" lon="127.4970905"></trkpt>
    <trkpt lat="36.5964322" lon="127.4971376"></trkpt>
    <trkpt lat="36.5963528" lon="127.4971601"></trkpt>
    <trkpt lat="36.5960034" lon="127.4971573"></trkpt>
    <trkpt lat="36.5957812" lon="127.4971456"></trkpt>
    <trkpt lat="36.5955040" lon="127.4970846"></trkpt>
    <trkpt lat="36.5954035" lon="127.4970388"></trkpt>
    <trkpt lat="36.5953337" lon="127.4970473"></trkpt>
    <trkpt lat="36.5951905" lon="127.4970612"></trkpt>
    <trkpt lat="36.5950476" lon="127.4970740"></trkpt>
    <trkpt lat="36.5948613" lon="127.4970748"></trkpt>
    <trkpt lat="36.5945876" lon="127.4970394"></trkpt>
    <trkpt lat="36.5943968" lon="127.4969923"></trkpt>
    <trkpt lat="36.5945876" lon="127.4970394"></trkpt>
    <trkpt lat="36.5948613" lon="127.4970748"></trkpt>
    <trkpt lat="36.5950476" lon="127.4970740"></trkpt>
    <trkpt lat="36.5951905" lon="127.4970612"></trkpt>
    <trkpt lat="36.5953337" lon="127.4970473"></trkpt>
    <trkpt lat="36.5954035" lon="127.4970388"></trkpt>
    <trkpt lat="36.5955040" lon="127.4970846"></trkpt>
    <trkpt lat="36.5957812" lon="127.4971456"></trkpt>
    <trkpt lat="36.5960034" lon="127.4971573"></trkpt>
    <trkpt lat="36.5963528" lon="127.4971601"></trkpt>
    <trkpt lat="36.5964322" lon="127.4971376"></trkpt>
    <trkpt lat="36.5965023" lon="127.4970905"></trkpt>
    <trkpt lat="36.5966059" lon="127.4969803"></trkpt>
    <trkpt lat="36.5967657" lon="127.4969545"></trkpt>
    <trkpt lat="36.5969827" lon="127.4968897"></trkpt>
    <trkpt lat="36.5970945" lon="127.4968672"></trkpt>
    <trkpt lat="36.5971991" lon="127.4968471"></trkpt>
    <trkpt lat="36.5974239" lon="127.4968366"></trkpt>
    <trkpt lat="36.5976722" lon="127.4968605"></trkpt>
    <trkpt lat="36.5978122" lon="127.4968933"></trkpt>
    <trkpt lat="36.5979350" lon="127.4969257"></trkpt>
    <trkpt lat="36.5983015" lon="127.4970620"></trkpt>
    <trkpt lat="36.5985308" lon="127.4971432"></trkpt>
    <trkpt lat="36.5986649" lon="127.4971948"></trkpt>
    <trkpt lat="36.5989594" lon="127.4972846"></trkpt>
    <trkpt lat="36.5992010" lon="127.4973380"></trkpt>
    <trkpt lat="36.5993939" lon="127.4973661"></trkpt>
    <trkpt lat="36.5997850" lon="127.4974070"></trkpt>
    <trkpt lat="36.5999887" lon="127.4974169"></trkpt>
    <trkpt lat="36.6000868" lon="127.4974390"></trkpt>
    <trkpt lat="36.6006404" lon="127.4975323"></trkpt>
    <trkpt lat="36.6014236" lon="127.4975846"></trkpt>
    <trkpt lat="36.6015338" lon="127.4975927"></trkpt>
    <trkpt lat="36.6022183" lon="127.4976252"></trkpt>
    <trkpt lat="36.6025758" lon="127.4976244"></trkpt>
    <trkpt lat="36.6031920" lon="127.4975943"></trkpt>
    <trkpt lat="36.6038770" lon="127.4975738"></trkpt>
    <trkpt lat="36.6038845" lon="127.4975738"></trkpt>
    <trkpt lat="36.6039432" lon="127.4975743"></trkpt>
    <trkpt lat="36.6041445" lon="127.4975812"></trkpt>
    <trkpt lat="36.6042056" lon="127.4976022"></trkpt>
    <trkpt lat="36.6043051" lon="127.4975754"></trkpt>
    <trkpt lat="36.6049401" lon="127.4975290"></trkpt>
    <trkpt lat="36.6057709" lon="127.4974594"></trkpt>
    <trkpt lat="36.6058113" lon="127.4974560"></trkpt>
    <trkpt lat="36.6065426" lon="127.4974307"></trkpt>
    <trkpt lat="36.6068963" lon="127.4974120"></trkpt>
    <trkpt lat="36.6081069" lon="127.4973567"></trkpt>
    <trkpt lat="36.6084103" lon="127.4973283"></trkpt>
    <trkpt lat="36.6085658" lon="127.4973386"></trkpt>
    <trkpt lat="36.6086869" lon="127.4973200"></trkpt>
    <trkpt lat="36.6087277" lon="127.4973137"></trkpt>
    <trkpt lat="36.6094769" lon="127.4972453"></trkpt>
    <trkpt lat="36.6097766" lon="127.4972068"></trkpt>
    <trkpt lat="36.6100861" lon="127.4971367"></trkpt>
    <trkpt lat="36.6104104" lon="127.4970510"></trkpt>
    <trkpt lat="36.6107781" lon="127.4969288"></trkpt>
    <trkpt lat="36.6112454" lon="127.4967363"></trkpt>
    <trkpt lat="36.6116682" lon="127.4965550"></trkpt>
    <trkpt lat="36.6120736" lon="127.4963656"></trkpt>
    <trkpt lat="36.6122967" lon="127.4962503"></trkpt>
    <trkpt lat="36.6125841" lon="127.4960928"></trkpt>
    <trkpt lat="36.6130520" lon="127.4958476"></trkpt>
    <trkpt lat="36.6134611" lon="127.4955861"></trkpt>
    <trkpt lat="36.6138058" lon="127.4953389"></trkpt>
    <trkpt lat="36.6141856" lon="127.4950680"></trkpt>
    <trkpt lat="36.6143243" lon="127.4949745"></trkpt>
    <trkpt lat="36.6145356" lon="127.4948558"></trkpt>
    <trkpt lat="36.6146353" lon="127.4948007"></trkpt>
    <trkpt lat="36.6146886" lon="127.4947676"></trkpt>
    <trkpt lat="36.6150907" lon="127.4945186"></trkpt>
    <trkpt lat="36.6152969" lon="127.4943670"></trkpt>
    <trkpt lat="36.6153980" lon="127.4942879"></trkpt>
    <trkpt lat="36.6155016" lon="127.4941844"></trkpt>
    <trkpt lat="36.6157228" lon="127.4940679"></trkpt>
    <trkpt lat="36.6160436" lon="127.4939281"></trkpt>
    <trkpt lat="36.6163137" lon="127.4938055"></trkpt>
    <trkpt lat="36.6165743" lon="127.4936220"></trkpt>
    <trkpt lat="36.6168976" lon="127.4934392"></trkpt>
    <trkpt lat="36.6172767" lon="127.4932444"></trkpt>
    <trkpt lat="36.6175849" lon="127.4931051"></trkpt>
    <trkpt lat="36.6179531" lon="127.4929915"></trkpt>
    <trkpt lat="36.6183274" lon="127.4929060"></trkpt>
    <trkpt lat="36.6185270" lon="127.4928710"></trkpt>
    <trkpt lat="36.6189319" lon="127.4928569"></trkpt>
    <trkpt lat="36.6193992" lon="127.4929023"></trkpt>
    <trkpt lat="36.6200369" lon="127.4929652"></trkpt>
    <trkpt lat="36.6204197" lon="127.4929983"></trkpt>
    <trkpt lat="36.6205782" lon="127.4929390"></trkpt>
    <trkpt lat="36.6206951" lon="127.4928954"></trkpt>
    <trkpt lat="36.6208302" lon="127.4928777"></trkpt>
    <trkpt lat="36.6208845" lon="127.4928776"></trkpt>
    <trkpt lat="36.6212866" lon="127.4928591"></trkpt>
    <trkpt lat="36.6216840" lon="127.4928374"></trkpt>
    <trkpt lat="36.6219889" lon="127.4927684"></trkpt>
    <trkpt lat="36.6221861" lon="127.4927262"></trkpt>
    <trkpt lat="36.6224476" lon="127.4926760"></trkpt>
    <trkpt lat="36.6227212" lon="127.4925729"></trkpt>
    <trkpt lat="36.6230249" lon="127.4924176"></trkpt>
    <trkpt lat="36.6231859" lon="127.4923287"></trkpt>
    <trkpt lat="36.6233354" lon="127.4922346"></trkpt>
    <trkpt lat="36.6234310" lon="127.4921259"></trkpt>
    <trkpt lat="36.6235808" lon="127.4919003"></trkpt>
    <trkpt lat="36.6238445" lon="127.4914937"></trkpt>
    <trkpt lat="36.6238899" lon="127.4914194"></trkpt>
    <trkpt lat="36.6241762" lon="127.4909028"></trkpt>
    <trkpt lat="36.6244091" lon="127.4904722"></trkpt>
    <trkpt lat="36.6246503" lon="127.4899461"></trkpt>
    <trkpt lat="36.6248581" lon="127.4894354"></trkpt>
    <trkpt lat="36.6248976" lon="127.4893356"></trkpt>
    <trkpt lat="36.6249120" lon="127.4892486"></trkpt>
    <trkpt lat="36.6249183" lon="127.4889743"></trkpt>
    <trkpt lat="36.6250533" lon="127.4887576"></trkpt>
    <trkpt lat="36.6253156" lon="127.4883211"></trkpt>
    <trkpt lat="36.6255020" lon="127.4880300"></trkpt>
    <trkpt lat="36.6256091" lon="127.4878373"></trkpt>
    <trkpt lat="36.6257499" lon="127.4876022"></trkpt>
    <trkpt lat="36.6262679" lon="127.4866633"></trkpt>
    <trkpt lat="36.6267618" lon="127.4857831"></trkpt>
    <trkpt lat="36.6269534" lon="127.4854496"></trkpt>
    <trkpt lat="36.6273523" lon="127.4847185"></trkpt>
    <trkpt lat="36.6276802" lon="127.4841704"></trkpt>
    <trkpt lat="36.6279056" lon="127.4838246"></trkpt>
    <trkpt lat="36.6281173" lon="127.4835596"></trkpt>
    <trkpt lat="36.6285885" lon="127.4829742"></trkpt>
    <trkpt lat="36.6287989" lon="127.4827433"></trkpt>
    <trkpt lat="36.6289438" lon="127.4825426"></trkpt>
    <trkpt lat="36.6290638" lon="127.4823525"></trkpt>
    <trkpt lat="36.6292253" lon="127.4821302"></trkpt>
    <trkpt lat="36.6293786" lon="127.4819879"></trkpt>
    <trkpt lat="36.6295454" lon="127.4818529"></trkpt>
    <trkpt lat="36.6297279" lon="127.4817588"></trkpt>
    <trkpt lat="36.6297895" lon="127.4817189"></trkpt>
    <trkpt lat="36.6298469" lon="127.4816783"></trkpt>
    <trkpt lat="36.6299238" lon="127.4816061"></trkpt>
    <trkpt lat="36.6301867" lon="127.4814329"></trkpt>
    <trkpt lat="36.6303759" lon="127.4813315"></trkpt>
    <trkpt lat="36.6308836" lon="127.4811145"></trkpt>
    <trkpt lat="36.6311183" lon="127.4810419"></trkpt>
    <trkpt lat="36.6313459" lon="127.4810041"></trkpt>
    <trkpt lat="36.6315643" lon="127.4809771"></trkpt>
    <trkpt lat="36.6320511" lon="127.4809887"></trkpt>
    <trkpt lat="36.6321882" lon="127.4810001"></trkpt>
    <trkpt lat="36.6323444" lon="127.4810008"></trkpt>
    <trkpt lat="36.6325233" lon="127.4810275"></trkpt>
    <trkpt lat="36.6328433" lon="127.4811559"></trkpt>
    <trkpt lat="36.6332089" lon="127.4813458"></trkpt>
    <trkpt lat="36.6334467" lon="127.4814923"></trkpt>
    <trkpt lat="36.6338354" lon="127.4817494"></trkpt>
  </trkseg></trk>
</gpx>