<?xml version="1.0" encoding="UTF-8"?>
<gpx version="1.1" creator="RunNavi nationwide seed" xmlns="http://www.topografix.com/GPX/1/1">
  <metadata>
    <name>창원종합운동장 트랙 5K</name>
    <copyright author="OpenStreetMap contributors">
      <license>https://opendatacommons.org/licenses/odbl/1-0/</license>
    </copyright>
  </metadata>
  <trk><name>창원종합운동장 트랙 5K</name><trkseg>
    <trkpt lat="35.2329102" lon="128.6625295"></trkpt>
    <trkpt lat="35.2329087" lon="128.6626288"></trkpt>
    <trkpt lat="35.2329043" lon="128.6626667"></trkpt>
    <trkpt lat="35.2324666" lon="128.6635201"></trkpt>
    <trkpt lat="35.2323811" lon="128.6636645"></trkpt>
    <trkpt lat="35.2323177" lon="128.6637511"></trkpt>
    <trkpt lat="35.2322190" lon="128.6637908"></trkpt>
    <trkpt lat="35.2320730" lon="128.6637800"></trkpt>
    <trkpt lat="35.2319522" lon="128.6637114"></trkpt>
    <trkpt lat="35.2318623" lon="128.6636067"></trkpt>
    <trkpt lat="35.2318225" lon="128.6635183"></trkpt>
    <trkpt lat="35.2318033" lon="128.6634317"></trkpt>
    <trkpt lat="35.2317945" lon="128.6632928"></trkpt>
    <trkpt lat="35.2318033" lon="128.6632116"></trkpt>
    <trkpt lat="35.2318313" lon="128.6631538"></trkpt>
    <trkpt lat="35.2323118" lon="128.6622300"></trkpt>
    <trkpt lat="35.2323958" lon="128.6621669"></trkpt>
    <trkpt lat="35.2325078" lon="128.6621398"></trkpt>
    <trkpt lat="35.2326567" lon="128.6621560"></trkpt>
    <trkpt lat="35.2328380" lon="128.6623166"></trkpt>
    <trkpt lat="35.2328822" lon="128.6624231"></trkpt>
    <trkpt lat="35.2329102" lon="128.6625295"></trkpt>
    <trkpt lat="35.2329087" lon="128.6626288"></trkpt>
    <trkpt lat="35.2329043" lon="128.6626667"></trkpt>
    <trkpt lat="35.2324666" lon="128.6635201"></trkpt>
    <trkpt lat="35.2323811" lon="128.6636645"></trkpt>
    <trkpt lat="35.2323177" lon="128.6637511"></trkpt>
    <trkpt lat="35.2322190" lon="128.6637908"></trkpt>
    <trkpt lat="35.2320730" lon="128.6637800"></trkpt>
    <trkpt lat="35.2319522" lon="128.6637114"></trkpt>
    <trkpt lat="35.2318623" lon="128.6636067"></trkpt>
    <trkpt lat="35.2318225" lon="128.6635183"></trkpt>
    <trkpt lat="35.2318033" lon="128.6634317"></trkpt>
    <trkpt lat="35.2317945" lon="128.6632928"></trkpt>
    <trkpt lat="35.2318033" lon="128.6632116"></trkpt>
    <trkpt lat="35.2318313" lon="128.6631538"></trkpt>
    <trkpt lat="35.2323118" lon="128.6622300"></trkpt>
    <trkpt lat="35.2323958" lon="128.6621669"></trkpt>
    <trkpt lat="35.2325078" lon="128.6621398"></trkpt>
    <trkpt lat="35.2326567" lon="128.6621560"></trkpt>
    <trkpt lat="35.2328380" lon="128.6623166"></trkpt>
    <trkpt lat="35.2328822" lon="128.6624231"></trkpt>
    <trkpt lat="35.2329102" lon="128.6625295"></trkpt>
    <trkpt lat="35.2329087" lon="128.6626288"></trkpt>
    <trkpt lat="35.2329043" lon="128.6626667"></trkpt>
    <trkpt lat="35.2324666" lon="128.6635201"></trkpt>
    <trkpt lat="35.2323811" lon="128.6636645"></trkpt>
    <trkpt lat="35.2323177" lon="128.6637511"></trkpt>
    <trkpt lat="35.2322190" lon="128.6637908"></trkpt>
    <trkpt lat="35.2320730" lon="128.6637800"></trkpt>
    <trkpt lat="35.2319522" lon="128.6637114"></trkpt>
    <trkpt lat="35.2318623" lon="128.6636067"></trkpt>
    <trkpt lat="35.2318225" lon="128.6635183"></trkpt>
    <trkpt lat="35.2318033" lon="128.6634317"></trkpt>
    <trkpt lat="35.2317945" lon="128.6632928"></trkpt>
    <trkpt lat="35.2318033" lon="128.6632116"></trkpt>
    <trkpt lat="35.2318313" lon="128.6631538"></trkpt>
    <trkpt lat="35.2323118" lon="128.6622300"></trkpt>
    <trkpt lat="35.2323958" lon="128.6621669"></trkpt>
    <trkpt lat="35.2325078" lon="128.6621398"></trkpt>
    <trkpt lat="35.2326567" lon="128.6621560"></trkpt>
    <trkpt lat="35.2328380" lon="128.6623166"></trkpt>
    <trkpt lat="35.2328822" lon="128.6624231"></trkpt>
    <trkpt lat="35.2329102" lon="128.6625295"></trkpt>
    <trkpt lat="35.2329087" lon="128.6626288"></trkpt>
    <trkpt lat="35.2329043" lon="128.6626667"></trkpt>
    <trkpt lat="35.2324666" lon="128.6635201"></trkpt>
    <trkpt lat="35.2323811" lon="128.6636645"></trkpt>
    <trkpt lat="35.2323177" lon="128.6637511"></trkpt>
    <trkpt lat="35.2322190" lon="128.6637908"></trkpt>
    <trkpt lat="35.2320730" lon="128.6637800"></trkpt>
    <trkpt lat="35.2319522" lon="128.6637114"></trkpt>
    <trkpt lat="35.2318623" lon="128.6636067"></trkpt>
    <trkpt lat="35.2318225" lon="128.6635183"></trkpt>
    <trkpt lat="35.2318033" lon="128.6634317"></trkpt>
    <trkpt lat="35.2317945" lon="128.6632928"></trkpt>
    <trkpt lat="35.2318033" lon="128.6632116"></trkpt>
    <trkpt lat="35.2318313" lon="128.6631538"></trkpt>
    <trkpt lat="35.2323118" lon="128.6622300"></trkpt>
    <trkpt lat="35.2323958" lon="128.6621669"></trkpt>
    <trkpt lat="35.2325078" lon="128.6621398"></trkpt>
    <trkpt lat="35.2326567" lon="128.6621560"></trkpt>
    <trkpt lat="35.2328380" lon="128.6623166"></trkpt>
    <trkpt lat="35.2328822" lon="128.6624231"></trkpt>
    <trkpt lat="35.2329102" lon="128.6625295"></trkpt>
    <trkpt lat="35.2329087" lon="128.6626288"></trkpt>
    <trkpt lat="35.2329043" lon="128.6626667"></trkpt>
    <trkpt lat="35.2324666" lon="128.6635201"></trkpt>
    <trkpt lat="35.2323811" lon="128.6636645"></trkpt>
    <trkpt lat="35.2323177" lon="128.6637511"></trkpt>
    <trkpt lat="35.2322190" lon="128.6637908"></trkpt>
    <trkpt lat="35.2320730" lon="128.6637800"></trkpt>
    <trkpt lat="35.2319522" lon="128.6637114"></trkpt>
    <trkpt lat="35.2318623" lon="128.6636067"></trkpt>
    <trkpt lat="35.2318225" lon="128.6635183"></trkpt>
    <trkpt lat="35.2318033" lon="128.6634317"></trkpt>
    <trkpt lat="35.2317945" lon="128.6632928"></trkpt>
    <trkpt lat="35.2318033" lon="128.6632116"></trkpt>
    <trkpt lat="35.2318313" lon="128.6631538"></trkpt>
    <trkpt lat="35.2323118" lon="128.6622300"></trkpt>
    <trkpt lat="35.2323958" lon="128.6621669"></trkpt>
    <trkpt lat="35.2325078" lon="128.6621398"></trkpt>
    <trkpt lat="35.2326567" lon="128.6621560"></trkpt>
    <trkpt lat="35.2328380" lon="128.6623166"></trkpt>
    <trkpt lat="35.2328822" lon="128.6624231"></trkpt>
    <trkpt lat="35.2329102" lon="128.6625295"></trkpt>
    <trkpt lat="35.2329087" lon="128.6626288"></trkpt>
    <trkpt lat="35.2329043" lon="128.6626667"></trkpt>
    <trkpt lat="35.2324666" lon="128.6635201"></trkpt>
    <trkpt lat="35.2323811" lon="128.6636645"></trkpt>
    <trkpt lat="35.2323177" lon="128.6637511"></trkpt>
    <trkpt lat="35.2322190" lon="128.6637908"></trkpt>
    <trkpt lat="35.2320730" lon="128.6637800"></trkpt>
    <trkpt lat="35.2319522" lon="128.6637114"></trkpt>
    <trkpt lat="35.2318623" lon="128.6636067"></trkpt>
    <trkpt lat="35.2318225" lon="128.6635183"></trkpt>
    <trkpt lat="35.2318033" lon="128.6634317"></trkpt>
    <trkpt lat="35.2317945" lon="128.6632928"></trkpt>
    <trkpt lat="35.2318033" lon="128.6632116"></trkpt>
    <trkpt lat="35.2318313" lon="128.6631538"></trkpt>
    <trkpt lat="35.2323118" lon="128.6622300"></trkpt>
    <trkpt lat="35.2323958" lon="128.6621669"></trkpt>
    <trkpt lat="35.2325078" lon="128.6621398"></trkpt>
    <trkpt lat="35.2326567" lon="128.6621560"></trkpt>
    <trkpt lat="35.2328380" lon="128.6623166"></trkpt>
    <trkpt lat="35.2328822" lon="128.6624231"></trkpt>
    <trkpt lat="35.2329102" lon="128.6625295"></trkpt>
    <trkpt lat="35.2329087" lon="128.6626288"></trkpt>
    <trkpt lat="35.2329043" lon="128.6626667"></trkpt>
    <trkpt lat="35.2324666" lon="128.6635201"></trkpt>
    <trkpt lat="35.2323811" lon="128.6636645"></trkpt>
    <trkpt lat="35.2323177" lon="128.6637511"></trkpt>
    <trkpt lat="35.2322190" lon="128.6637908"></trkpt>
    <trkpt lat="35.2320730" lon="128.6637800"></trkpt>
    <trkpt lat="35.2319522" lon="128.6637114"></trkpt>
    <trkpt lat="35.2318623" lon="128.6636067"></trkpt>
    <trkpt lat="35.2318225" lon="128.6635183"></trkpt>
    <trkpt lat="35.2318033" lon="128.6634317"></trkpt>
    <trkpt lat="35.2317945" lon="128.6632928"></trkpt>
    <trkpt lat="35.2318033" lon="128.6632116"></trkpt>
    <trkpt lat="35.2318313" lon="128.6631538"></trkpt>
    <trkpt lat="35.2323118" lon="128.6622300"></trkpt>
    <trkpt lat="35.2323958" lon="128.6621669"></trkpt>
    <trkpt lat="35.2325078" lon="128.6621398"></trkpt>
    <trkpt lat="35.2326567" lon="128.6621560"></trkpt>
    <trkpt lat="35.2328380" lon="128.6623166"></trkpt>
    <trkpt lat="35.2328822" lon="128.6624231"></trkpt>
    <trkpt lat="35.2329102" lon="128.6625295"></trkpt>
    <trkpt lat="35.2329087" lon="128.6626288"></trkpt>
    <trkpt lat="35.2329043" lon="128.6626667"></trkpt>
    <trkpt lat="35.2324666" lon="128.6635201"></trkpt>
    <trkpt lat="35.2323811" lon="128.6636645"></trkpt>
    <trkpt lat="35.2323177" lon="128.6637511"></trkpt>
    <trkpt lat="35.2322190" lon="128.6637908"></trkpt>
    <trkpt lat="35.2320730" lon="128.6637800"></trkpt>
    <trkpt lat="35.2319522" lon="128.6637114"></trkpt>
    <trkpt lat="35.2318623" lon="128.6636067"></trkpt>
    <trkpt lat="35.2318225" lon="128.6635183"></trkpt>
    <trkpt lat="35.2318033" lon="128.6634317"></trkpt>
    <trkpt lat="35.2317945" lon="128.6632928"></trkpt>
    <trkpt lat="35.2318033" lon="128.6632116"></trkpt>
    <trkpt lat="35.2318313" lon="128.6631538"></trkpt>
    <trkpt lat="35.2323118" lon="128.6622300"></trkpt>
    <trkpt lat="35.2323958" lon="128.6621669"></trkpt>
    <trkpt lat="35.2325078" lon="128.6621398"></trkpt>
    <trkpt lat="35.2326567" lon="128.6621560"></trkpt>
    <trkpt lat="35.2328380" lon="128.6623166"></trkpt>
    <trkpt lat="35.2328822" lon="128.6624231"></trkpt>
    <trkpt lat="35.2329102" lon="128.6625295"></trkpt>
    <trkpt lat="35.2329087" lon="128.6626288"></trkpt>
    <trkpt lat="35.2329043" lon="128.6626667"></trkpt>
    <trkpt lat="35.2324666" lon="128.6635201"></trkpt>
    <trkpt lat="35.2323811" lon="128.6636645"></trkpt>
    <trkpt lat="35.2323177" lon="128.6637511"></trkpt>
    <trkpt lat="35.2322190" lon="128.6637908"></trkpt>
    <trkpt lat="35.2320730" lon="128.6637800"></trkpt>
    <trkpt lat="35.2319522" lon="128.6637114"></trkpt>
    <trkpt lat="35.2318623" lon="128.6636067"></trkpt>
    <trkpt lat="35.2318225" lon="128.6635183"></trkpt>
    <trkpt lat="35.2318033" lon="128.6634317"></trkpt>
    <trkpt lat="35.2317945" lon="128.6632928"></trkpt>
    <trkpt lat="35.2318033" lon="128.6632116"></trkpt>
    <trkpt lat="35.2318313" lon="128.6631538"></trkpt>
    <trkpt lat="35.2323118" lon="128.6622300"></trkpt>
    <trkpt lat="35.2323958" lon="128.6621669"></trkpt>
    <trkpt lat="35.2325078" lon="128.6621398"></trkpt>
    <trkpt lat="35.2326567" lon="128.6621560"></trkpt>
    <trkpt lat="35.2328380" lon="128.6623166"></trkpt>
    <trkpt lat="35.2328822" lon="128.6624231"></trkpt>
    <trkpt lat="35.2329102" lon="128.6625295"></trkpt>
    <trkpt lat="35.2329087" lon="128.6626288"></trkpt>
    <trkpt lat="35.2329043" lon="128.6626667"></trkpt>
    <trkpt lat="35.2324666" lon="128.6635201"></trkpt>
    <trkpt lat="35.2323811" lon="128.6636645"></trkpt>
    <trkpt lat="35.2323177" lon="128.6637511"></trkpt>
    <trkpt lat="35.2322190" lon="128.6637908"></trkpt>
    <trkpt lat="35.2320730" lon="128.6637800"></trkpt>
    <trkpt lat="35.2319522" lon="128.6637114"></trkpt>
    <trkpt lat="35.2318623" lon="128.6636067"></trkpt>
    <trkpt lat="35.2318225" lon="128.6635183"></trkpt>
    <trkpt lat="35.2318033" lon="128.6634317"></trkpt>
    <trkpt lat="35.2317945" lon="128.6632928"></trkpt>
    <trkpt lat="35.2318033" lon="128.6632116"></trkpt>
    <trkpt lat="35.2318313" lon="128.6631538"></trkpt>
    <trkpt lat="35.2323118" lon="128.6622300"></trkpt>
    <trkpt lat="35.2323958" lon="128.6621669"></trkpt>
    <trkpt lat="35.2325078" lon="128.6621398"></trkpt>
    <trkpt lat="35.2326567" lon="128.6621560"></trkpt>
    <trkpt lat="35.2328380" lon="128.6623166"></trkpt>
    <trkpt lat="35.2328822" lon="128.6624231"></trkpt>
    <trkpt lat="35.2329102" lon="128.6625295"></trkpt>
    <trkpt lat="35.2329087" lon="128.6626288"></trkpt>
    <trkpt lat="35.2329043" lon="128.6626667"></trkpt>
    <trkpt lat="35.2324666" lon="128.6635201"></trkpt>
    <trkpt lat="35.2323811" lon="128.6636645"></trkpt>
    <trkpt lat="35.2323177" lon="128.6637511"></trkpt>
    <trkpt lat="35.2322190" lon="128.6637908"></trkpt>
    <trkpt lat="35.2320730" lon="128.6637800"></trkpt>
    <trkpt lat="35.2319522" lon="128.6637114"></trkpt>
    <trkpt lat="35.2318623" lon="128.6636067"></trkpt>
    <trkpt lat="35.2318225" lon="128.6635183"></trkpt>
    <trkpt lat="35.2318033" lon="128.6634317"></trkpt>
    <trkpt lat="35.2317945" lon="128.6632928"></trkpt>
    <trkpt lat="35.2318033" lon="128.6632116"></trkpt>
    <trkpt lat="35.2318313" lon="128.6631538"></trkpt>
    <trkpt lat="35.2323118" lon="128.6622300"></trkpt>
    <trkpt lat="35.2323958" lon="128.6621669"></trkpt>
    <trkpt lat="35.2325078" lon="128.6621398"></trkpt>
    <trkpt lat="35.2326567" lon="128.6621560"></trkpt>
    <trkpt lat="35.2328380" lon="128.6623166"></trkpt>
    <trkpt lat="35.2328822" lon="128.6624231"></trkpt>
    <trkpt lat="35.2329102" lon="128.6625295"></trkpt>
    <trkpt lat="35.2329087" lon="128.6626288"></trkpt>
    <trkpt lat="35.2329043" lon="128.6626667"></trkpt>
    <trkpt lat="35.2324666" lon="128.6635201"></trkpt>
    <trkpt lat="35.2323811" lon="128.6636645"></trkpt>
    <trkpt lat="35.2323177" lon="128.6637511"></trkpt>
    <trkpt lat="35.2322190" lon="128.6637908"></trkpt>
    <trkpt lat="35.2320730" lon="128.6637800"></trkpt>
    <trkpt lat="35.2319522" lon="128.6637114"></trkpt>
    <trkpt lat="35.2318623" lon="128.6636067"></trkpt>
    <trkpt lat="35.2318225" lon="128.6635183"></trkpt>
    <trkpt lat="35.2318033" lon="128.6634317"></trkpt>
    <trkpt lat="35.2317945" lon="128.6632928"></trkpt>
    <trkpt lat="35.2318033" lon="128.6632116"></trkpt>
    <trkpt lat="35.2318313" lon="128.6631538"></trkpt>
    <trkpt lat="35.2323118" lon="128.6622300"></trkpt>
    <trkpt lat="35.2323958" lon="128.6621669"></trkpt>
    <trkpt lat="35.2325078" lon="128.6621398"></trkpt>
    <trkpt lat="35.2326567" lon="128.6621560"></trkpt>
    <trkpt lat="35.2328380" lon="128.6623166"></trkpt>
    <trkpt lat="35.2328822" lon="128.6624231"></trkpt>
    <trkpt lat="35.2329102" lon="128.6625295"></trkpt>
  </trkseg></trk>
</gpx>