<?xml version="1.0" encoding="UTF-8"?>
<gpx version="1.1" creator="RunNavi nationwide seed" xmlns="http://www.topografix.com/GPX/1/1">
  <metadata>
    <name>용지호수공원 순환 4.8K</name>
    <copyright author="OpenStreetMap contributors">
      <license>https://opendatacommons.org/licenses/odbl/1-0/</license>
    </copyright>
  </metadata>
  <trk><name>용지호수공원 순환 4.8K</name><trkseg>
    <trkpt lat="35.2340074" lon="128.6811226"></trkpt>
    <trkpt lat="35.2340003" lon="128.6811501"></trkpt>
    <trkpt lat="35.2335019" lon="128.6820191"></trkpt>
    <trkpt lat="35.2334707" lon="128.6820586"></trkpt>
    <trkpt lat="35.2334329" lon="128.6820634"></trkpt>
    <trkpt lat="35.2331075" lon="128.6820077"></trkpt>
    <trkpt lat="35.2330128" lon="128.6820251"></trkpt>
    <trkpt lat="35.2329070" lon="128.6820982"></trkpt>
    <trkpt lat="35.2328298" lon="128.6821532"></trkpt>
    <trkpt lat="35.2327597" lon="128.6821733"></trkpt>
    <trkpt lat="35.2326102" lon="128.6821955"></trkpt>
    <trkpt lat="35.2325100" lon="128.6822350"></trkpt>
    <trkpt lat="35.2322931" lon="128.6823852"></trkpt>
    <trkpt lat="35.2322032" lon="128.6825073"></trkpt>
    <trkpt lat="35.2321791" lon="128.6826293"></trkpt>
    <trkpt lat="35.2321813" lon="128.6827326"></trkpt>
    <trkpt lat="35.2322186" lon="128.6828989"></trkpt>
    <trkpt lat="35.2324147" lon="128.6833629"></trkpt>
    <trkpt lat="35.2325614" lon="128.6836714"></trkpt>
    <trkpt lat="35.2325669" lon="128.6837116"></trkpt>
    <trkpt lat="35.2324432" lon="128.6839228"></trkpt>
    <trkpt lat="35.2324125" lon="128.6839356"></trkpt>
    <trkpt lat="35.2323665" lon="128.6839154"></trkpt>
    <trkpt lat="35.2315799" lon="128.6832267"></trkpt>
    <trkpt lat="35.2313532" lon="128.6830343"></trkpt>
    <trkpt lat="35.2312995" lon="128.6829740"></trkpt>
    <trkpt lat="35.2312140" lon="128.6827339"></trkpt>
    <trkpt lat="35.2311264" lon="128.6825059"></trkpt>
    <trkpt lat="35.2310727" lon="128.6823839"></trkpt>
    <trkpt lat="35.2310267" lon="128.6822940"></trkpt>
    <trkpt lat="35.2309194" lon="128.6821559"></trkpt>
    <trkpt lat="35.2307978" lon="128.6820070"></trkpt>
    <trkpt lat="35.2307145" lon="128.6819360"></trkpt>
    <trkpt lat="35.2305458" lon="128.6818609"></trkpt>
    <trkpt lat="35.2305547" lon="128.6816736"></trkpt>
    <trkpt lat="35.2306197" lon="128.6815236"></trkpt>
    <trkpt lat="35.2309042" lon="128.6812111"></trkpt>
    <trkpt lat="35.2310455" lon="128.6810745"></trkpt>
    <trkpt lat="35.2313313" lon="128.6807799"></trkpt>
    <trkpt lat="35.2314386" lon="128.6806780"></trkpt>
    <trkpt lat="35.2315251" lon="128.6805506"></trkpt>
    <trkpt lat="35.2316971" lon="128.6801966"></trkpt>
    <trkpt lat="35.2317437" lon="128.6801007"></trkpt>
    <trkpt lat="35.2317760" lon="128.6800779"></trkpt>
    <trkpt lat="35.2318100" lon="128.6800832"></trkpt>
    <trkpt lat="35.2319064" lon="128.6801885"></trkpt>
    <trkpt lat="35.2320044" lon="128.6803662"></trkpt>
    <trkpt lat="35.2320493" lon="128.6804849"></trkpt>
    <trkpt lat="35.2321118" lon="128.6805566"></trkpt>
    <trkpt lat="35.2322104" lon="128.6806341"></trkpt>
    <trkpt lat="35.2322320" lon="128.6806462"></trkpt>
    <trkpt lat="35.2322605" lon="128.6806643"></trkpt>
    <trkpt lat="35.2322985" lon="128.6806834"></trkpt>
    <trkpt lat="35.2325812" lon="128.6808382"></trkpt>
    <trkpt lat="35.2326995" lon="128.6808711"></trkpt>
    <trkpt lat="35.2328714" lon="128.6808591"></trkpt>
    <trkpt lat="35.2330139" lon="128.6808403"></trkpt>
    <trkpt lat="35.2331311" lon="128.6808591"></trkpt>
    <trkpt lat="35.2333282" lon="128.6809020"></trkpt>
    <trkpt lat="35.2339702" lon="128.6810743"></trkpt>
    <trkpt lat="35.2339975" lon="128.6810911"></trkpt>
    <trkpt lat="35.2340074" lon="128.6811226"></trkpt>
    <trkpt lat="35.2340003" lon="128.6811501"></trkpt>
    <trkpt lat="35.2335019" lon="128.6820191"></trkpt>
    <trkpt lat="35.2334707" lon="128.6820586"></trkpt>
    <trkpt lat="35.2334329" lon="128.6820634"></trkpt>
    <trkpt lat="35.2331075" lon="128.6820077"></trkpt>
    <trkpt lat="35.2330128" lon="128.6820251"></trkpt>
    <trkpt lat="35.2329070" lon="128.6820982"></trkpt>
    <trkpt lat="35.2328298" lon="128.6821532"></trkpt>
    <trkpt lat="35.2327597" lon="128.6821733"></trkpt>
    <trkpt lat="35.2326102" lon="128.6821955"></trkpt>
    <trkpt lat="35.2325100" lon="128.6822350"></trkpt>
    <trkpt lat="35.2322931" lon="128.6823852"></trkpt>
    <trkpt lat="35.2322032" lon="128.6825073"></trkpt>
    <trkpt lat="35.2321791" lon="128.6826293"></trkpt>
    <trkpt lat="35.2321813" lon="128.6827326"></trkpt>
    <trkpt lat="35.2322186" lon="128.6828989"></trkpt>
    <trkpt lat="35.2324147" lon="128.6833629"></trkpt>
    <trkpt lat="35.2325614" lon="128.6836714"></trkpt>
    <trkpt lat="35.2325669" lon="128.6837116"></trkpt>
    <trkpt lat="35.2324432" lon="128.6839228"></trkpt>
    <trkpt lat="35.2324125" lon="128.6839356"></trkpt>
    <trkpt lat="35.2323665" lon="128.6839154"></trkpt>
    <trkpt lat="35.2315799" lon="128.6832267"></trkpt>
    <trkpt lat="35.2313532" lon="128.6830343"></trkpt>
    <trkpt lat="35.2312995" lon="128.6829740"></trkpt>
    <trkpt lat="35.2312140" lon="128.6827339"></trkpt>
    <trkpt lat="35.2311264" lon="128.6825059"></trkpt>
    <trkpt lat="35.2310727" lon="128.6823839"></trkpt>
    <trkpt lat="35.2310267" lon="128.6822940"></trkpt>
    <trkpt lat="35.2309194" lon="128.6821559"></trkpt>
    <trkpt lat="35.2307978" lon="128.6820070"></trkpt>
    <trkpt lat="35.2307145" lon="128.6819360"></trkpt>
    <trkpt lat="35.2305458" lon="128.6818609"></trkpt>
    <trkpt lat="35.2305547" lon="128.6816736"></trkpt>
    <trkpt lat="35.2306197" lon="128.6815236"></trkpt>
    <trkpt lat="35.2309042" lon="128.6812111"></trkpt>
    <trkpt lat="35.2310455" lon="128.6810745"></trkpt>
    <trkpt lat="35.2313313" lon="128.6807799"></trkpt>
    <trkpt lat="35.2314386" lon="128.6806780"></trkpt>
    <trkpt lat="35.2315251" lon="128.6805506"></trkpt>
    <trkpt lat="35.2316971" lon="128.6801966"></trkpt>
    <trkpt lat="35.2317437" lon="128.6801007"></trkpt>
    <trkpt lat="35.2317760" lon="128.6800779"></trkpt>
    <trkpt lat="35.2318100" lon="128.6800832"></trkpt>
    <trkpt lat="35.2319064" lon="128.6801885"></trkpt>
    <trkpt lat="35.2320044" lon="128.6803662"></trkpt>
    <trkpt lat="35.2320493" lon="128.6804849"></trkpt>
    <trkpt lat="35.2321118" lon="128.6805566"></trkpt>
    <trkpt lat="35.2322104" lon="128.6806341"></trkpt>
    <trkpt lat="35.2322320" lon="128.6806462"></trkpt>
    <trkpt lat="35.2322605" lon="128.6806643"></trkpt>
    <trkpt lat="35.2322985" lon="128.6806834"></trkpt>
    <trkpt lat="35.2325812" lon="128.6808382"></trkpt>
    <trkpt lat="35.2326995" lon="128.6808711"></trkpt>
    <trkpt lat="35.2328714" lon="128.6808591"></trkpt>
    <trkpt lat="35.2330139" lon="128.6808403"></trkpt>
    <trkpt lat="35.2331311" lon="128.6808591"></trkpt>
    <trkpt lat="35.2333282" lon="128.6809020"></trkpt>
    <trkpt lat="35.2339702" lon="128.6810743"></trkpt>
    <trkpt lat="35.2339975" lon="128.6810911"></trkpt>
    <trkpt lat="35.2340074" lon="128.6811226"></trkpt>
    <trkpt lat="35.2340003" lon="128.6811501"></trkpt>
    <trkpt lat="35.2335019" lon="128.6820191"></trkpt>
    <trkpt lat="35.2334707" lon="128.6820586"></trkpt>
    <trkpt lat="35.2334329" lon="128.6820634"></trkpt>
    <trkpt lat="35.2331075" lon="128.6820077"></trkpt>
    <trkpt lat="35.2330128" lon="128.6820251"></trkpt>
    <trkpt lat="35.2329070" lon="128.6820982"></trkpt>
    <trkpt lat="35.2328298" lon="128.6821532"></trkpt>
    <trkpt lat="35.2327597" lon="128.6821733"></trkpt>
    <trkpt lat="35.2326102" lon="128.6821955"></trkpt>
    <trkpt lat="35.2325100" lon="128.6822350"></trkpt>
    <trkpt lat="35.2322931" lon="128.6823852"></trkpt>
    <trkpt lat="35.2322032" lon="128.6825073"></trkpt>
    <trkpt lat="35.2321791" lon="128.6826293"></trkpt>
    <trkpt lat="35.2321813" lon="128.6827326"></trkpt>
    <trkpt lat="35.2322186" lon="128.6828989"></trkpt>
    <trkpt lat="35.2324147" lon="128.6833629"></trkpt>
    <trkpt lat="35.2325614" lon="128.6836714"></trkpt>
    <trkpt lat="35.2325669" lon="128.6837116"></trkpt>
    <trkpt lat="35.2324432" lon="128.6839228"></trkpt>
    <trkpt lat="35.2324125" lon="128.6839356"></trkpt>
    <trkpt lat="35.2323665" lon="128.6839154"></trkpt>
    <trkpt lat="35.2315799" lon="128.6832267"></trkpt>
    <trkpt lat="35.2313532" lon="128.6830343"></trkpt>
    <trkpt lat="35.2312995" lon="128.6829740"></trkpt>
    <trkpt lat="35.2312140" lon="128.6827339"></trkpt>
    <trkpt lat="35.2311264" lon="128.6825059"></trkpt>
    <trkpt lat="35.2310727" lon="128.6823839"></trkpt>
    <trkpt lat="35.2310267" lon="128.6822940"></trkpt>
    <trkpt lat="35.2309194" lon="128.6821559"></trkpt>
    <trkpt lat="35.2307978" lon="128.6820070"></trkpt>
    <trkpt lat="35.2307145" lon="128.6819360"></trkpt>
    <trkpt lat="35.2305458" lon="128.6818609"></trkpt>
    <trkpt lat="35.2305547" lon="128.6816736"></trkpt>
    <trkpt lat="35.2306197" lon="128.6815236"></trkpt>
    <trkpt lat="35.2309042" lon="128.6812111"></trkpt>
    <trkpt lat="35.2310455" lon="128.6810745"></trkpt>
    <trkpt lat="35.2313313" lon="128.6807799"></trkpt>
    <trkpt lat="35.2314386" lon="128.6806780"></trkpt>
    <trkpt lat="35.2315251" lon="128.6805506"></trkpt>
    <trkpt lat="35.2316971" lon="128.6801966"></trkpt>
    <trkpt lat="35.2317437" lon="128.6801007"></trkpt>
    <trkpt lat="35.2317760" lon="128.6800779"></trkpt>
    <trkpt lat="35.2318100" lon="128.6800832"></trkpt>
    <trkpt lat="35.2319064" lon="128.6801885"></trkpt>
    <trkpt lat="35.2320044" lon="128.6803662"></trkpt>
    <trkpt lat="35.2320493" lon="128.6804849"></trkpt>
    <trkpt lat="35.2321118" lon="128.6805566"></trkpt>
    <trkpt lat="35.2322104" lon="128.6806341"></trkpt>
    <trkpt lat="35.2322320" lon="128.6806462"></trkpt>
    <trkpt lat="35.2322605" lon="128.6806643"></trkpt>
    <trkpt lat="35.2322985" lon="128.6806834"></trkpt>
    <trkpt lat="35.2325812" lon="128.6808382"></trkpt>
    <trkpt lat="35.2326995" lon="128.6808711"></trkpt>
    <trkpt lat="35.2328714" lon="128.6808591"></trkpt>
    <trkpt lat="35.2330139" lon="128.6808403"></trkpt>
    <trkpt lat="35.2331311" lon="128.6808591"></trkpt>
    <trkpt lat="35.2333282" lon="128.6809020"></trkpt>
    <trkpt lat="35.2339702" lon="128.6810743"></trkpt>
    <trkpt lat="35.2339975" lon="128.6810911"></trkpt>
    <trkpt lat="35.2340074" lon="128.6811226"></trkpt>
    <trkpt lat="35.2340003" lon="128.6811501"></trkpt>
    <trkpt lat="35.2335019" lon="128.6820191"></trkpt>
    <trkpt lat="35.2334707" lon="128.6820586"></trkpt>
    <trkpt lat="35.2334329" lon="128.6820634"></trkpt>
    <trkpt lat="35.2331075" lon="128.6820077"></trkpt>
    <trkpt lat="35.2330128" lon="128.6820251"></trkpt>
    <trkpt lat="35.2329070" lon="128.6820982"></trkpt>
    <trkpt lat="35.2328298" lon="128.6821532"></trkpt>
    <trkpt lat="35.2327597" lon="128.6821733"></trkpt>
    <trkpt lat="35.2326102" lon="128.6821955"></trkpt>
    <trkpt lat="35.2325100" lon="128.6822350"></trkpt>
    <trkpt lat="35.2322931" lon="128.6823852"></trkpt>
    <trkpt lat="35.2322032" lon="128.6825073"></trkpt>
    <trkpt lat="35.2321791" lon="128.6826293"></trkpt>
    <trkpt lat="35.2321813" lon="128.6827326"></trkpt>
    <trkpt lat="35.2322186" lon="128.6828989"></trkpt>
    <trkpt lat="35.2324147" lon="128.6833629"></trkpt>
    <trkpt lat="35.2325614" lon="128.6836714"></trkpt>
    <trkpt lat="35.2325669" lon="128.6837116"></trkpt>
    <trkpt lat="35.2324432" lon="128.6839228"></trkpt>
    <trkpt lat="35.2324125" lon="128.6839356"></trkpt>
    <trkpt lat="35.2323665" lon="128.6839154"></trkpt>
    <trkpt lat="35.2315799" lon="128.6832267"></trkpt>
    <trkpt lat="35.2313532" lon="128.6830343"></trkpt>
    <trkpt lat="35.2312995" lon="128.6829740"></trkpt>
    <trkpt lat="35.2312140" lon="128.6827339"></trkpt>
    <trkpt lat="35.2311264" lon="128.6825059"></trkpt>
    <trkpt lat="35.2310727" lon="128.6823839"></trkpt>
    <trkpt lat="35.2310267" lon="128.6822940"></trkpt>
    <trkpt lat="35.2309194" lon="128.6821559"></trkpt>
    <trkpt lat="35.2307978" lon="128.6820070"></trkpt>
    <trkpt lat="35.2307145" lon="128.6819360"></trkpt>
    <trkpt lat="35.2305458" lon="128.6818609"></trkpt>
    <trkpt lat="35.2305547" lon="128.6816736"></trkpt>
    <trkpt lat="35.2306197" lon="128.6815236"></trkpt>
    <trkpt lat="35.2309042" lon="128.6812111"></trkpt>
    <trkpt lat="35.2310455" lon="128.6810745"></trkpt>
    <trkpt lat="35.2313313" lon="128.6807799"></trkpt>
    <trkpt lat="35.2314386" lon="128.6806780"></trkpt>
    <trkpt lat="35.2315251" lon="128.6805506"></trkpt>
    <trkpt lat="35.2316971" lon="128.6801966"></trkpt>
    <trkpt lat="35.2317437" lon="128.6801007"></trkpt>
    <trkpt lat="35.2317760" lon="128.6800779"></trkpt>
    <trkpt lat="35.2318100" lon="128.6800832"></trkpt>
    <trkpt lat="35.2319064" lon="128.6801885"></trkpt>
    <trkpt lat="35.2320044" lon="128.6803662"></trkpt>
    <trkpt lat="35.2320493" lon="128.6804849"></trkpt>
    <trkpt lat="35.2321118" lon="128.6805566"></trkpt>
    <trkpt lat="35.2322104" lon="128.6806341"></trkpt>
    <trkpt lat="35.2322320" lon="128.6806462"></trkpt>
    <trkpt lat="35.2322605" lon="128.6806643"></trkpt>
    <trkpt lat="35.2322985" lon="128.6806834"></trkpt>
    <trkpt lat="35.2325812" lon="128.6808382"></trkpt>
    <trkpt lat="35.2326995" lon="128.6808711"></trkpt>
    <trkpt lat="35.2328714" lon="128.6808591"></trkpt>
    <trkpt lat="35.2330139" lon="128.6808403"></trkpt>
    <trkpt lat="35.2331311" lon="128.6808591"></trkpt>
    <trkpt lat="35.2333282" lon="128.6809020"></trkpt>
    <trkpt lat="35.2339702" lon="128.6810743"></trkpt>
    <trkpt lat="35.2339975" lon="128.6810911"></trkpt>
    <trkpt lat="35.2340074" lon="128.6811226"></trkpt>
  </trkseg></trk>
</gpx>