<?xml version="1.0" encoding="UTF-8"?>
<gpx version="1.1" creator="RunNavi nationwide seed" xmlns="http://www.topografix.com/GPX/1/1">
  <metadata>
    <name>수성교 · 신천 왕복 10K</name>
    <copyright author="OpenStreetMap contributors">
      <license>https://opendatacommons.org/licenses/odbl/1-0/</license>
    </copyright>
  </metadata>
  <trk><name>수성교 · 신천 왕복 10K</name><trkseg>
    <trkpt lat="35.8583036" lon="128.6068813"></trkpt>
    <trkpt lat="35.8575268" lon="128.6069526"></trkpt>
    <trkpt lat="35.8568015" lon="128.6070210"></trkpt>
    <trkpt lat="35.8560206" lon="128.6072140"></trkpt>
    <trkpt lat="35.8548158" lon="128.6075190"></trkpt>
    <trkpt lat="35.8540049" lon="128.6076308"></trkpt>
    <trkpt lat="35.8534514" lon="128.6075931"></trkpt>
    <trkpt lat="35.8529969" lon="128.6076174"></trkpt>
    <trkpt lat="35.8523987" lon="128.6075128"></trkpt>
    <trkpt lat="35.8517892" lon="128.6073989"></trkpt>
    <trkpt lat="35.8504986" lon="128.6070059"></trkpt>
    <trkpt lat="35.8486629" lon="128.6062486"></trkpt>
    <trkpt lat="35.8476565" lon="128.6060272"></trkpt>
    <trkpt lat="35.8467996" lon="128.6060922"></trkpt>
    <trkpt lat="35.8462077" lon="128.6061853"></trkpt>
    <trkpt lat="35.8448279" lon="128.6065041"></trkpt>
    <trkpt lat="35.8443934" lon="128.6066045"></trkpt>
    <trkpt lat="35.8425535" lon="128.6067864"></trkpt>
    <trkpt lat="35.8417353" lon="128.6069451"></trkpt>
    <trkpt lat="35.8412476" lon="128.6068486"></trkpt>
    <trkpt lat="35.8407208" lon="128.6065261"></trkpt>
    <trkpt lat="35.8402514" lon="128.6063498"></trkpt>
    <trkpt lat="35.8372771" lon="128.6056499"></trkpt>
    <trkpt lat="35.8348591" lon="128.6056714"></trkpt>
    <trkpt lat="35.8344035" lon="128.6057568"></trkpt>
    <trkpt lat="35.8343800" lon="128.6057548"></trkpt>
    <trkpt lat="35.8343322" lon="128.6062830"></trkpt>
    <trkpt lat="35.8338481" lon="128.6062959"></trkpt>
    <trkpt lat="35.8333392" lon="128.6063040"></trkpt>
    <trkpt lat="35.8326847" lon="128.6063523"></trkpt>
    <trkpt lat="35.8322302" lon="128.6064220"></trkpt>
    <trkpt lat="35.8316975" lon="128.6065615"></trkpt>
    <trkpt lat="35.8311560" lon="128.6067170"></trkpt>
    <trkpt lat="35.8307124" lon="128.6068592"></trkpt>
    <trkpt lat="35.8302514" lon="128.6069987"></trkpt>
    <trkpt lat="35.8295946" lon="128.6072159"></trkpt>
    <trkpt lat="35.8293839" lon="128.6072905"></trkpt>
    <trkpt lat="35.8292054" lon="128.6073715"></trkpt>
    <trkpt lat="35.8290292" lon="128.6074788"></trkpt>
    <trkpt lat="35.8289357" lon="128.6075110"></trkpt>
    <trkpt lat="35.8286921" lon="128.6075995"></trkpt>
    <trkpt lat="35.8286073" lon="128.6075861"></trkpt>
    <trkpt lat="35.8284573" lon="128.6076317"></trkpt>
    <trkpt lat="35.8280702" lon="128.6077765"></trkpt>
    <trkpt lat="35.8276874" lon="128.6079160"></trkpt>
    <trkpt lat="35.8273112" lon="128.6080528"></trkpt>
    <trkpt lat="35.8266327" lon="128.6083264"></trkpt>
    <trkpt lat="35.8261195" lon="128.6085249"></trkpt>
    <trkpt lat="35.8256171" lon="128.6087341"></trkpt>
    <trkpt lat="35.8252866" lon="128.6088709"></trkpt>
    <trkpt lat="35.8249690" lon="128.6091042"></trkpt>
    <trkpt lat="35.8247885" lon="128.6092356"></trkpt>
    <trkpt lat="35.8246146" lon="128.6092839"></trkpt>
    <trkpt lat="35.8244297" lon="128.6093671"></trkpt>
    <trkpt lat="35.8241470" lon="128.6094931"></trkpt>
    <trkpt lat="35.8238360" lon="128.6095951"></trkpt>
    <trkpt lat="35.8234119" lon="128.6096997"></trkpt>
    <trkpt lat="35.8232401" lon="128.6097426"></trkpt>
    <trkpt lat="35.8228160" lon="128.6098955"></trkpt>
    <trkpt lat="35.8224006" lon="128.6100671"></trkpt>
    <trkpt lat="35.8221462" lon="128.6101878"></trkpt>
    <trkpt lat="35.8219113" lon="128.6103461"></trkpt>
    <trkpt lat="35.8215394" lon="128.6105258"></trkpt>
    <trkpt lat="35.8210305" lon="128.6106948"></trkpt>
    <trkpt lat="35.8207803" lon="128.6107725"></trkpt>
    <trkpt lat="35.8202692" lon="128.6110193"></trkpt>
    <trkpt lat="35.8198734" lon="128.6112527"></trkpt>
    <trkpt lat="35.8197560" lon="128.6112875"></trkpt>
    <trkpt lat="35.8194123" lon="128.6114780"></trkpt>
    <trkpt lat="35.8191296" lon="128.6116630"></trkpt>
    <trkpt lat="35.8188425" lon="128.6118320"></trkpt>
    <trkpt lat="35.8185728" lon="128.6120466"></trkpt>
    <trkpt lat="35.8183249" lon="128.6122746"></trkpt>
    <trkpt lat="35.8181509" lon="128.6124006"></trkpt>
    <trkpt lat="35.8179008" lon="128.6125884"></trkpt>
    <trkpt lat="35.8175963" lon="128.6128217"></trkpt>
    <trkpt lat="35.8174180" lon="128.6129345"></trkpt>
    <trkpt lat="35.8171792" lon="128.6130378"></trkpt>
    <trkpt lat="35.8171689" lon="128.6130431"></trkpt>
    <trkpt lat="35.8169090" lon="128.6131624"></trkpt>
    <trkpt lat="35.8165262" lon="128.6133367"></trkpt>
    <trkpt lat="35.8158976" lon="128.6136157"></trkpt>
    <trkpt lat="35.8156997" lon="128.6137310"></trkpt>
    <trkpt lat="35.8155365" lon="128.6138142"></trkpt>
    <trkpt lat="35.8153318" lon="128.6139643"></trkpt>
    <trkpt lat="35.8155365" lon="128.6138142"></trkpt>
    <trkpt lat="35.8156997" lon="128.6137310"></trkpt>
    <trkpt lat="35.8158976" lon="128.6136157"></trkpt>
    <trkpt lat="35.8165262" lon="128.6133367"></trkpt>
    <trkpt lat="35.8169090" lon="128.6131624"></trkpt>
    <trkpt lat="35.8171689" lon="128.6130431"></trkpt>
    <trkpt lat="35.8171792" lon="128.6130378"></trkpt>
    <trkpt lat="35.8174180" lon="128.6129345"></trkpt>
    <trkpt lat="35.8175963" lon="128.6128217"></trkpt>
    <trkpt lat="35.8179008" lon="128.6125884"></trkpt>
    <trkpt lat="35.8181509" lon="128.6124006"></trkpt>
    <trkpt lat="35.8183249" lon="128.6122746"></trkpt>
    <trkpt lat="35.8185728" lon="128.6120466"></trkpt>
    <trkpt lat="35.8188425" lon="128.6118320"></trkpt>
    <trkpt lat="35.8191296" lon="128.6116630"></trkpt>
    <trkpt lat="35.8194123" lon="128.6114780"></trkpt>
    <trkpt lat="35.8197560" lon="128.6112875"></trkpt>
    <trkpt lat="35.8198734" lon="128.6112527"></trkpt>
    <trkpt lat="35.8202692" lon="128.6110193"></trkpt>
    <trkpt lat="35.8207803" lon="128.6107725"></trkpt>
    <trkpt lat="35.8210305" lon="128.6106948"></trkpt>
    <trkpt lat="35.8215394" lon="128.6105258"></trkpt>
    <trkpt lat="35.8219113" lon="128.6103461"></trkpt>
    <trkpt lat="35.8221462" lon="128.6101878"></trkpt>
    <trkpt lat="35.8224006" lon="128.6100671"></trkpt>
    <trkpt lat="35.8228160" lon="128.6098955"></trkpt>
    <trkpt lat="35.8232401" lon="128.6097426"></trkpt>
    <trkpt lat="35.8234119" lon="128.6096997"></trkpt>
    <trkpt lat="35.8238360" lon="128.6095951"></trkpt>
    <trkpt lat="35.8241470" lon="128.6094931"></trkpt>
    <trkpt lat="35.8244297" lon="128.6093671"></trkpt>
    <trkpt lat="35.8246146" lon="128.6092839"></trkpt>
    <trkpt lat="35.8247885" lon="128.6092356"></trkpt>
    <trkpt lat="35.8249690" lon="128.6091042"></trkpt>
    <trkpt lat="35.8252866" lon="128.6088709"></trkpt>
    <trkpt lat="35.8256171" lon="128.6087341"></trkpt>
    <trkpt lat="35.8261195" lon="128.6085249"></trkpt>
    <trkpt lat="35.8266327" lon="128.6083264"></trkpt>
    <trkpt lat="35.8273112" lon="128.6080528"></trkpt>
    <trkpt lat="35.8276874" lon="128.6079160"></trkpt>
    <trkpt lat="35.8280702" lon="128.6077765"></trkpt>
    <trkpt lat="35.8284573" lon="128.6076317"></trkpt>
    <trkpt lat="35.8286073" lon="128.6075861"></trkpt>
    <trkpt lat="35.8286921" lon="128.6075995"></trkpt>
    <trkpt lat="35.8289357" lon="128.6075110"></trkpt>
    <trkpt lat="35.8290292" lon="128.6074788"></trkpt>
    <trkpt lat="35.8292054" lon="128.6073715"></trkpt>
    <trkpt lat="35.8293839" lon="128.6072905"></trkpt>
    <trkpt lat="35.8295946" lon="128.6072159"></trkpt>
    <trkpt lat="35.8302514" lon="128.6069987"></trkpt>
    <trkpt lat="35.8307124" lon="128.6068592"></trkpt>
    <trkpt lat="35.8311560" lon="128.6067170"></trkpt>
    <trkpt lat="35.8316975" lon="128.6065615"></trkpt>
    <trkpt lat="35.8322302" lon="128.6064220"></trkpt>
    <trkpt lat="35.8326847" lon="128.6063523"></trkpt>
    <trkpt lat="35.8333392" lon="128.6063040"></trkpt>
    <trkpt lat="35.8338481" lon="128.6062959"></trkpt>
    <trkpt lat="35.8343322" lon="128.6062830"></trkpt>
    <trkpt lat="35.8343800" lon="128.6057548"></trkpt>
    <trkpt lat="35.8344035" lon="128.6057568"></trkpt>
    <trkpt lat="35.8348591" lon="128.6056714"></trkpt>
    <trkpt lat="35.8372771" lon="128.6056499"></trkpt>
    <trkpt lat="35.8402514" lon="128.6063498"></trkpt>
    <trkpt lat="35.8407208" lon="128.6065261"></trkpt>
    <trkpt lat="35.8412476" lon="128.6068486"></trkpt>
    <trkpt lat="35.8417353" lon="128.6069451"></trkpt>
    <trkpt lat="35.8425535" lon="128.6067864"></trkpt>
    <trkpt lat="35.8443934" lon="128.6066045"></trkpt>
    <trkpt lat="35.8448279" lon="128.6065041"></trkpt>
    <trkpt lat="35.8462077" lon="128.6061853"></trkpt>
    <trkpt lat="35.8467996" lon="128.6060922"></trkpt>
    <trkpt lat="35.8476565" lon="128.6060272"></trkpt>
    <trkpt lat="35.8486629" lon="128.6062486"></trkpt>
    <trkpt lat="35.8504986" lon="128.6070059"></trkpt>
    <trkpt lat="35.8517892" lon="128.6073989"></trkpt>
    <trkpt lat="35.8523987" lon="128.6075128"></trkpt>
    <trkpt lat="35.8529969" lon="128.6076174"></trkpt>
    <trkpt lat="35.8534514" lon="128.6075931"></trkpt>
    <trkpt lat="35.8540049" lon="128.6076308"></trkpt>
    <trkpt lat="35.8548158" lon="128.6075190"></trkpt>
    <trkpt lat="35.8560206" lon="128.6072140"></trkpt>
    <trkpt lat="35.8568015" lon="128.6070210"></trkpt>
    <trkpt lat="35.8575268" lon="128.6069526"></trkpt>
    <trkpt lat="35.8583036" lon="128.6068813"></trkpt>
  </trkseg></trk>
</gpx>