<?xml version="1.0" encoding="UTF-8"?>
<gpx version="1.1" creator="RunNavi nationwide seed" xmlns="http://www.topografix.com/GPX/1/1">
  <metadata>
    <name>엑스포다리 · 갑천 왕복 10K</name>
    <copyright author="OpenStreetMap contributors">
      <license>https://opendatacommons.org/licenses/odbl/1-0/</license>
    </copyright>
  </metadata>
  <trk><name>엑스포다리 · 갑천 왕복 10K</name><trkseg>
    <trkpt lat="36.3744240" lon="127.3882238"></trkpt>
    <trkpt lat="36.3744245" lon="127.3880541"></trkpt>
    <trkpt lat="36.3744077" lon="127.3880543"></trkpt>
    <trkpt lat="36.3742807" lon="127.3880515"></trkpt>
    <trkpt lat="36.3741745" lon="127.3880492"></trkpt>
    <trkpt lat="36.3741753" lon="127.3881214"></trkpt>
    <trkpt lat="36.3741789" lon="127.3884483"></trkpt>
    <trkpt lat="36.3741837" lon="127.3895423"></trkpt>
    <trkpt lat="36.3741839" lon="127.3895778"></trkpt>
    <trkpt lat="36.3741961" lon="127.3901376"></trkpt>
    <trkpt lat="36.3742013" lon="127.3903757"></trkpt>
    <trkpt lat="36.3742036" lon="127.3904837"></trkpt>
    <trkpt lat="36.3742054" lon="127.3905666"></trkpt>
    <trkpt lat="36.3742124" lon="127.3909289"></trkpt>
    <trkpt lat="36.3742201" lon="127.3913287"></trkpt>
    <trkpt lat="36.3742293" lon="127.3918115"></trkpt>
    <trkpt lat="36.3742361" lon="127.3921629"></trkpt>
    <trkpt lat="36.3741884" lon="127.3921826"></trkpt>
    <trkpt lat="36.3741687" lon="127.3922116"></trkpt>
    <trkpt lat="36.3741577" lon="127.3922926"></trkpt>
    <trkpt lat="36.3741449" lon="127.3924376"></trkpt>
    <trkpt lat="36.3741418" lon="127.3926964"></trkpt>
    <trkpt lat="36.3741249" lon="127.3928563"></trkpt>
    <trkpt lat="36.3740942" lon="127.3929332"></trkpt>
    <trkpt lat="36.3740926" lon="127.3930761"></trkpt>
    <trkpt lat="36.3740911" lon="127.3932024"></trkpt>
    <trkpt lat="36.3740706" lon="127.3936132"></trkpt>
    <trkpt lat="36.3740815" lon="127.3937004"></trkpt>
    <trkpt lat="36.3740936" lon="127.3937408"></trkpt>
    <trkpt lat="36.3741257" lon="127.3938255"></trkpt>
    <trkpt lat="36.3742135" lon="127.3940197"></trkpt>
    <trkpt lat="36.3742888" lon="127.3941891"></trkpt>
    <trkpt lat="36.3743787" lon="127.3943598"></trkpt>
    <trkpt lat="36.3744674" lon="127.3945958"></trkpt>
    <trkpt lat="36.3746177" lon="127.3951462"></trkpt>
    <trkpt lat="36.3750234" lon="127.3967194"></trkpt>
    <trkpt lat="36.3754535" lon="127.3983350"></trkpt>
    <trkpt lat="36.3756064" lon="127.3989665"></trkpt>
    <trkpt lat="36.3756696" lon="127.3992529"></trkpt>
    <trkpt lat="36.3757411" lon="127.3997032"></trkpt>
    <trkpt lat="36.3758163" lon="127.4005816"></trkpt>
    <trkpt lat="36.3758311" lon="127.4007550"></trkpt>
    <trkpt lat="36.3758695" lon="127.4011232"></trkpt>
    <trkpt lat="36.3759211" lon="127.4014068"></trkpt>
    <trkpt lat="36.3760397" lon="127.4019409"></trkpt>
    <trkpt lat="36.3764196" lon="127.4034436"></trkpt>
    <trkpt lat="36.3766182" lon="127.4042038"></trkpt>
    <trkpt lat="36.3767050" lon="127.4045292"></trkpt>
    <trkpt lat="36.3768072" lon="127.4048696"></trkpt>
    <trkpt lat="36.3769493" lon="127.4052928"></trkpt>
    <trkpt lat="36.3770905" lon="127.4056986"></trkpt>
    <trkpt lat="36.3772112" lon="127.4059819"></trkpt>
    <trkpt lat="36.3773344" lon="127.4062534"></trkpt>
    <trkpt lat="36.3775828" lon="127.4067138"></trkpt>
    <trkpt lat="36.3779533" lon="127.4073335"></trkpt>
    <trkpt lat="36.3783238" lon="127.4078879"></trkpt>
    <trkpt lat="36.3786171" lon="127.4083451"></trkpt>
    <trkpt lat="36.3789343" lon="127.4088502"></trkpt>
    <trkpt lat="36.3791405" lon="127.4090951"></trkpt>
    <trkpt lat="36.3791955" lon="127.4091608"></trkpt>
    <trkpt lat="36.3792517" lon="127.4092110"></trkpt>
    <trkpt lat="36.3792718" lon="127.4092381"></trkpt>
    <trkpt lat="36.3793000" lon="127.4093340"></trkpt>
    <trkpt lat="36.3793587" lon="127.4094070"></trkpt>
    <trkpt lat="36.3796026" lon="127.4095205"></trkpt>
    <trkpt lat="36.3799710" lon="127.4096635"></trkpt>
    <trkpt lat="36.3803425" lon="127.4097850"></trkpt>
    <trkpt lat="36.3811146" lon="127.4099918"></trkpt>
    <trkpt lat="36.3815242" lon="127.4100966"></trkpt>
    <trkpt lat="36.3818527" lon="127.4101549"></trkpt>
    <trkpt lat="36.3822609" lon="127.4102346"></trkpt>
    <trkpt lat="36.3824967" lon="127.4102779"></trkpt>
    <trkpt lat="36.3828943" lon="127.4103035"></trkpt>
    <trkpt lat="36.3838382" lon="127.4102882"></trkpt>
    <trkpt lat="36.3846520" lon="127.4102715"></trkpt>
    <trkpt lat="36.3863627" lon="127.4102099"></trkpt>
    <trkpt lat="36.3877247" lon="127.4101881"></trkpt>
    <trkpt lat="36.3884280" lon="127.4101890"></trkpt>
    <trkpt lat="36.3898925" lon="127.4101454"></trkpt>
    <trkpt lat="36.3910185" lon="127.4101304"></trkpt>
    <trkpt lat="36.3921697" lon="127.4101549"></trkpt>
    <trkpt lat="36.3926704" lon="127.4101703"></trkpt>
    <trkpt lat="36.3935009" lon="127.4102308"></trkpt>
    <trkpt lat="36.3937147" lon="127.4102509"></trkpt>
    <trkpt lat="36.3944041" lon="127.4102997"></trkpt>
    <trkpt lat="36.3952937" lon="127.4103948"></trkpt>
    <trkpt lat="36.3958689" lon="127.4104867"></trkpt>
    <trkpt lat="36.3964539" lon="127.4105966"></trkpt>
    <trkpt lat="36.3969150" lon="127.4107030"></trkpt>
    <trkpt lat="36.3971510" lon="127.4107580"></trkpt>
    <trkpt lat="36.3972306" lon="127.4107713"></trkpt>
    <trkpt lat="36.3975676" lon="127.4108443"></trkpt>
    <trkpt lat="36.3983170" lon="127.4110171"></trkpt>
    <trkpt lat="36.3993325" lon="127.4112612"></trkpt>
    <trkpt lat="36.3993593" lon="127.4112674"></trkpt>
    <trkpt lat="36.3995192" lon="127.4113044"></trkpt>
    <trkpt lat="36.3996250" lon="127.4113289"></trkpt>
    <trkpt lat="36.4001552" lon="127.4114517"></trkpt>
    <trkpt lat="36.4010910" lon="127.4117019"></trkpt>
    <trkpt lat="36.4014355" lon="127.4117773"></trkpt>
    <trkpt lat="36.4014745" lon="127.4117887"></trkpt>
    <trkpt lat="36.4018260" lon="127.4118746"></trkpt>
    <trkpt lat="36.4021475" lon="127.4119501"></trkpt>
    <trkpt lat="36.4022035" lon="127.4119602"></trkpt>
    <trkpt lat="36.4023161" lon="127.4119857"></trkpt>
    <trkpt lat="36.4035652" lon="127.4122628"></trkpt>
    <trkpt lat="36.4042196" lon="127.4124241"></trkpt>
    <trkpt lat="36.4048190" lon="127.4125888"></trkpt>
    <trkpt lat="36.4048600" lon="127.4126002"></trkpt>
    <trkpt lat="36.4048842" lon="127.4126069"></trkpt>
    <trkpt lat="36.4051372" lon="127.4126773"></trkpt>
    <trkpt lat="36.4048842" lon="127.4126069"></trkpt>
    <trkpt lat="36.4048600" lon="127.4126002"></trkpt>
    <trkpt lat="36.4048190" lon="127.4125888"></trkpt>
    <trkpt lat="36.4042196" lon="127.4124241"></trkpt>
    <trkpt lat="36.4035652" lon="127.4122628"></trkpt>
    <trkpt lat="36.4023161" lon="127.4119857"></trkpt>
    <trkpt lat="36.4022035" lon="127.4119602"></trkpt>
    <trkpt lat="36.4021475" lon="127.4119501"></trkpt>
    <trkpt lat="36.4018260" lon="127.4118746"></trkpt>
    <trkpt lat="36.4014745" lon="127.4117887"></trkpt>
    <trkpt lat="36.4014355" lon="127.4117773"></trkpt>
    <trkpt lat="36.4010910" lon="127.4117019"></trkpt>
    <trkpt lat="36.4001552" lon="127.4114517"></trkpt>
    <trkpt lat="36.3996250" lon="127.4113289"></trkpt>
    <trkpt lat="36.3995192" lon="127.4113044"></trkpt>
    <trkpt lat="36.3993593" lon="127.4112674"></trkpt>
    <trkpt lat="36.3993325" lon="127.4112612"></trkpt>
    <trkpt lat="36.3983170" lon="127.4110171"></trkpt>
    <trkpt lat="36.3975676" lon="127.4108443"></trkpt>
    <trkpt lat="36.3972306" lon="127.4107713"></trkpt>
    <trkpt lat="36.3971510" lon="127.4107580"></trkpt>
    <trkpt lat="36.3969150" lon="127.4107030"></trkpt>
    <trkpt lat="36.3964539" lon="127.4105966"></trkpt>
    <trkpt lat="36.3958689" lon="127.4104867"></trkpt>
    <trkpt lat="36.3952937" lon="127.4103948"></trkpt>
    <trkpt lat="36.3944041" lon="127.4102997"></trkpt>
    <trkpt lat="36.3937147" lon="127.4102509"></trkpt>
    <trkpt lat="36.3935009" lon="127.4102308"></trkpt>
    <trkpt lat="36.3926704" lon="127.4101703"></trkpt>
    <trkpt lat="36.3921697" lon="127.4101549"></trkpt>
    <trkpt lat="36.3910185" lon="127.4101304"></trkpt>
    <trkpt lat="36.3898925" lon="127.4101454"></trkpt>
    <trkpt lat="36.3884280" lon="127.4101890"></trkpt>
    <trkpt lat="36.3877247" lon="127.4101881"></trkpt>
    <trkpt lat="36.3863627" lon="127.4102099"></trkpt>
    <trkpt lat="36.3846520" lon="127.4102715"></trkpt>
    <trkpt lat="36.3838382" lon="127.4102882"></trkpt>
    <trkpt lat="36.3828943" lon="127.4103035"></trkpt>
    <trkpt lat="36.3824967" lon="127.4102779"></trkpt>
    <trkpt lat="36.3822609" lon="127.4102346"></trkpt>
    <trkpt lat="36.3818527" lon="127.4101549"></trkpt>
    <trkpt lat="36.3815242" lon="127.4100966"></trkpt>
    <trkpt lat="36.3811146" lon="127.4099918"></trkpt>
    <trkpt lat="36.3803425" lon="127.4097850"></trkpt>
    <trkpt lat="36.3799710" lon="127.4096635"></trkpt>
    <trkpt lat="36.3796026" lon="127.4095205"></trkpt>
    <trkpt lat="36.3793587" lon="127.4094070"></trkpt>
    <trkpt lat="36.3793000" lon="127.4093340"></trkpt>
    <trkpt lat="36.3792718" lon="127.4092381"></trkpt>
    <trkpt lat="36.3792517" lon="127.4092110"></trkpt>
    <trkpt lat="36.3791955" lon="127.4091608"></trkpt>
    <trkpt lat="36.3791405" lon="127.4090951"></trkpt>
    <trkpt lat="36.3789343" lon="127.4088502"></trkpt>
    <trkpt lat="36.3786171" lon="127.4083451"></trkpt>
    <trkpt lat="36.3783238" lon="127.4078879"></trkpt>
    <trkpt lat="36.3779533" lon="127.4073335"></trkpt>
    <trkpt lat="36.3775828" lon="127.4067138"></trkpt>
    <trkpt lat="36.3773344" lon="127.4062534"></trkpt>
    <trkpt lat="36.3772112" lon="127.4059819"></trkpt>
    <trkpt lat="36.3770905" lon="127.4056986"></trkpt>
    <trkpt lat="36.3769493" lon="127.4052928"></trkpt>
    <trkpt lat="36.3768072" lon="127.4048696"></trkpt>
    <trkpt lat="36.3767050" lon="127.4045292"></trkpt>
    <trkpt lat="36.3766182" lon="127.4042038"></trkpt>
    <trkpt lat="36.3764196" lon="127.4034436"></trkpt>
    <trkpt lat="36.3760397" lon="127.4019409"></trkpt>
    <trkpt lat="36.3759211" lon="127.4014068"></trkpt>
    <trkpt lat="36.3758695" lon="127.4011232"></trkpt>
    <trkpt lat="36.3758311" lon="127.4007550"></trkpt>
    <trkpt lat="36.3758163" lon="127.4005816"></trkpt>
    <trkpt lat="36.3757411" lon="127.3997032"></trkpt>
    <trkpt lat="36.3756696" lon="127.3992529"></trkpt>
    <trkpt lat="36.3756064" lon="127.3989665"></trkpt>
    <trkpt lat="36.3754535" lon="127.3983350"></trkpt>
    <trkpt lat="36.3750234" lon="127.3967194"></trkpt>
    <trkpt lat="36.3746177" lon="127.3951462"></trkpt>
    <trkpt lat="36.3744674" lon="127.3945958"></trkpt>
    <trkpt lat="36.3743787" lon="127.3943598"></trkpt>
    <trkpt lat="36.3742888" lon="127.3941891"></trkpt>
    <trkpt lat="36.3742135" lon="127.3940197"></trkpt>
    <trkpt lat="36.3741257" lon="127.3938255"></trkpt>
    <trkpt lat="36.3740936" lon="127.3937408"></trkpt>
    <trkpt lat="36.3740815" lon="127.3937004"></trkpt>
    <trkpt lat="36.3740706" lon="127.3936132"></trkpt>
    <trkpt lat="36.3740911" lon="127.3932024"></trkpt>
    <trkpt lat="36.3740926" lon="127.3930761"></trkpt>
    <trkpt lat="36.3740942" lon="127.3929332"></trkpt>
    <trkpt lat="36.3741249" lon="127.3928563"></trkpt>
    <trkpt lat="36.3741418" lon="127.3926964"></trkpt>
    <trkpt lat="36.3741449" lon="127.3924376"></trkpt>
    <trkpt lat="36.3741577" lon="127.3922926"></trkpt>
    <trkpt lat="36.3741687" lon="127.3922116"></trkpt>
    <trkpt lat="36.3741884" lon="127.3921826"></trkpt>
    <trkpt lat="36.3742361" lon="127.3921629"></trkpt>
    <trkpt lat="36.3742293" lon="127.3918115"></trkpt>
    <trkpt lat="36.3742201" lon="127.3913287"></trkpt>
    <trkpt lat="36.3742124" lon="127.3909289"></trkpt>
    <trkpt lat="36.3742054" lon="127.3905666"></trkpt>
    <trkpt lat="36.3742036" lon="127.3904837"></trkpt>
    <trkpt lat="36.3742013" lon="127.3903757"></trkpt>
    <trkpt lat="36.3741961" lon="127.3901376"></trkpt>
    <trkpt lat="36.3741839" lon="127.3895778"></trkpt>
    <trkpt lat="36.3741837" lon="127.3895423"></trkpt>
    <trkpt lat="36.3741789" lon="127.3884483"></trkpt>
    <trkpt lat="36.3741753" lon="127.3881214"></trkpt>
    <trkpt lat="36.3741745" lon="127.3880492"></trkpt>
    <trkpt lat="36.3742807" lon="127.3880515"></trkpt>
    <trkpt lat="36.3744077" lon="127.3880543"></trkpt>
    <trkpt lat="36.3744245" lon="127.3880541"></trkpt>
    <trkpt lat="36.3744240" lon="127.3882238"></trkpt>
  </trkseg></trk>
</gpx>