<?xml version="1.0" encoding="UTF-8"?>
<gpx version="1.1" creator="RunNavi nationwide seed" xmlns="http://www.topografix.com/GPX/1/1">
  <metadata>
    <name>수성못 순환 5.8K</name>
    <copyright author="OpenStreetMap contributors">
      <license>https://opendatacommons.org/licenses/odbl/1-0/</license>
    </copyright>
  </metadata>
  <trk><name>수성못 순환 5.8K</name><trkseg>
    <trkpt lat="35.8284139" lon="128.6214648"></trkpt>
    <trkpt lat="35.8284626" lon="128.6204520"></trkpt>
    <trkpt lat="35.8285201" lon="128.6192553"></trkpt>
    <trkpt lat="35.8286383" lon="128.6167979"></trkpt>
    <trkpt lat="35.8287413" lon="128.6146420"></trkpt>
    <trkpt lat="35.8287096" lon="128.6144759"></trkpt>
    <trkpt lat="35.8286040" lon="128.6143131"></trkpt>
    <trkpt lat="35.8284614" lon="128.6142479"></trkpt>
    <trkpt lat="35.8282317" lon="128.6141860"></trkpt>
    <trkpt lat="35.8265686" lon="128.6138060"></trkpt>
    <trkpt lat="35.8265497" lon="128.6138017"></trkpt>
    <trkpt lat="35.8263147" lon="128.6137855"></trkpt>
    <trkpt lat="35.8263594" lon="128.6142488"></trkpt>
    <trkpt lat="35.8263821" lon="128.6148652"></trkpt>
    <trkpt lat="35.8264351" lon="128.6157151"></trkpt>
    <trkpt lat="35.8264957" lon="128.6166118"></trkpt>
    <trkpt lat="35.8264806" lon="128.6170975"></trkpt>
    <trkpt lat="35.8264200" lon="128.6176672"></trkpt>
    <trkpt lat="35.8263746" lon="128.6181435"></trkpt>
    <trkpt lat="35.8263064" lon="128.6185078"></trkpt>
    <trkpt lat="35.8262231" lon="128.6189468"></trkpt>
    <trkpt lat="35.8261474" lon="128.6193017"></trkpt>
    <trkpt lat="35.8260717" lon="128.6195539"></trkpt>
    <trkpt lat="35.8259883" lon="128.6198995"></trkpt>
    <trkpt lat="35.8258445" lon="128.6203104"></trkpt>
    <trkpt lat="35.8257460" lon="128.6207027"></trkpt>
    <trkpt lat="35.8257082" lon="128.6209082"></trkpt>
    <trkpt lat="35.8257082" lon="128.6210856"></trkpt>
    <trkpt lat="35.8257687" lon="128.6213472"></trkpt>
    <trkpt lat="35.8259050" lon="128.6215620"></trkpt>
    <trkpt lat="35.8262004" lon="128.6217208"></trkpt>
    <trkpt lat="35.8264730" lon="128.6218795"></trkpt>
    <trkpt lat="35.8266699" lon="128.6219169"></trkpt>
    <trkpt lat="35.8269047" lon="128.6218982"></trkpt>
    <trkpt lat="35.8272757" lon="128.6218702"></trkpt>
    <trkpt lat="35.8274973" lon="128.6217913"></trkpt>
    <trkpt lat="35.8276607" lon="128.6217177"></trkpt>
    <trkpt lat="35.8277053" lon="128.6216426"></trkpt>
    <trkpt lat="35.8278315" lon="128.6215769"></trkpt>
    <trkpt lat="35.8279244" lon="128.6215804"></trkpt>
    <trkpt lat="35.8282049" lon="128.6214529"></trkpt>
    <trkpt lat="35.8284139" lon="128.6214648"></trkpt>
    <trkpt lat="35.8284626" lon="128.6204520"></trkpt>
    <trkpt lat="35.8285201" lon="128.6192553"></trkpt>
    <trkpt lat="35.8286383" lon="128.6167979"></trkpt>
    <trkpt lat="35.8287413" lon="128.6146420"></trkpt>
    <trkpt lat="35.8287096" lon="128.6144759"></trkpt>
    <trkpt lat="35.8286040" lon="128.6143131"></trkpt>
    <trkpt lat="35.8284614" lon="128.6142479"></trkpt>
    <trkpt lat="35.8282317" lon="128.6141860"></trkpt>
    <trkpt lat="35.8265686" lon="128.6138060"></trkpt>
    <trkpt lat="35.8265497" lon="128.6138017"></trkpt>
    <trkpt lat="35.8263147" lon="128.6137855"></trkpt>
    <trkpt lat="35.8263594" lon="128.6142488"></trkpt>
    <trkpt lat="35.8263821" lon="128.6148652"></trkpt>
    <trkpt lat="35.8264351" lon="128.6157151"></trkpt>
    <trkpt lat="35.8264957" lon="128.6166118"></trkpt>
    <trkpt lat="35.8264806" lon="128.6170975"></trkpt>
    <trkpt lat="35.8264200" lon="128.6176672"></trkpt>
    <trkpt lat="35.8263746" lon="128.6181435"></trkpt>
    <trkpt lat="35.8263064" lon="128.6185078"></trkpt>
    <trkpt lat="35.8262231" lon="128.6189468"></trkpt>
    <trkpt lat="35.8261474" lon="128.6193017"></trkpt>
    <trkpt lat="35.8260717" lon="128.6195539"></trkpt>
    <trkpt lat="35.8259883" lon="128.6198995"></trkpt>
    <trkpt lat="35.8258445" lon="128.6203104"></trkpt>
    <trkpt lat="35.8257460" lon="128.6207027"></trkpt>
    <trkpt lat="35.8257082" lon="128.6209082"></trkpt>
    <trkpt lat="35.8257082" lon="128.6210856"></trkpt>
    <trkpt lat="35.8257687" lon="128.6213472"></trkpt>
    <trkpt lat="35.8259050" lon="128.6215620"></trkpt>
    <trkpt lat="35.8262004" lon="128.6217208"></trkpt>
    <trkpt lat="35.8264730" lon="128.6218795"></trkpt>
    <trkpt lat="35.8266699" lon="128.6219169"></trkpt>
    <trkpt lat="35.8269047" lon="128.6218982"></trkpt>
    <trkpt lat="35.8272757" lon="128.6218702"></trkpt>
    <trkpt lat="35.8274973" lon="128.6217913"></trkpt>
    <trkpt lat="35.8276607" lon="128.6217177"></trkpt>
    <trkpt lat="35.8277053" lon="128.6216426"></trkpt>
    <trkpt lat="35.8278315" lon="128.6215769"></trkpt>
    <trkpt lat="35.8279244" lon="128.6215804"></trkpt>
    <trkpt lat="35.8282049" lon="128.6214529"></trkpt>
    <trkpt lat="35.8284139" lon="128.6214648"></trkpt>
    <trkpt lat="35.8284626" lon="128.6204520"></trkpt>
    <trkpt lat="35.8285201" lon="128.6192553"></trkpt>
    <trkpt lat="35.8286383" lon="128.6167979"></trkpt>
    <trkpt lat="35.8287413" lon="128.6146420"></trkpt>
    <trkpt lat="35.8287096" lon="128.6144759"></trkpt>
    <trkpt lat="35.8286040" lon="128.6143131"></trkpt>
    <trkpt lat="35.8284614" lon="128.6142479"></trkpt>
    <trkpt lat="35.8282317" lon="128.6141860"></trkpt>
    <trkpt lat="35.8265686" lon="128.6138060"></trkpt>
    <trkpt lat="35.8265497" lon="128.6138017"></trkpt>
    <trkpt lat="35.8263147" lon="128.6137855"></trkpt>
    <trkpt lat="35.8263594" lon="128.6142488"></trkpt>
    <trkpt lat="35.8263821" lon="128.6148652"></trkpt>
    <trkpt lat="35.8264351" lon="128.6157151"></trkpt>
    <trkpt lat="35.8264957" lon="128.6166118"></trkpt>
    <trkpt lat="35.8264806" lon="128.6170975"></trkpt>
    <trkpt lat="35.8264200" lon="128.6176672"></trkpt>
    <trkpt lat="35.8263746" lon="128.6181435"></trkpt>
    <trkpt lat="35.8263064" lon="128.6185078"></trkpt>
    <trkpt lat="35.8262231" lon="128.6189468"></trkpt>
    <trkpt lat="35.8261474" lon="128.6193017"></trkpt>
    <trkpt lat="35.8260717" lon="128.6195539"></trkpt>
    <trkpt lat="35.8259883" lon="128.6198995"></trkpt>
    <trkpt lat="35.8258445" lon="128.6203104"></trkpt>
    <trkpt lat="35.8257460" lon="128.6207027"></trkpt>
    <trkpt lat="35.8257082" lon="128.6209082"></trkpt>
    <trkpt lat="35.8257082" lon="128.6210856"></trkpt>
    <trkpt lat="35.8257687" lon="128.6213472"></trkpt>
    <trkpt lat="35.8259050" lon="128.6215620"></trkpt>
    <trkpt lat="35.8262004" lon="128.6217208"></trkpt>
    <trkpt lat="35.8264730" lon="128.6218795"></trkpt>
    <trkpt lat="35.8266699" lon="128.6219169"></trkpt>
    <trkpt lat="35.8269047" lon="128.6218982"></trkpt>
    <trkpt lat="35.8272757" lon="128.6218702"></trkpt>
    <trkpt lat="35.8274973" lon="128.6217913"></trkpt>
    <trkpt lat="35.8276607" lon="128.6217177"></trkpt>
    <trkpt lat="35.8277053" lon="128.6216426"></trkpt>
    <trkpt lat="35.8278315" lon="128.6215769"></trkpt>
    <trkpt lat="35.8279244" lon="128.6215804"></trkpt>
    <trkpt lat="35.8282049" lon="128.6214529"></trkpt>
    <trkpt lat="35.8284139" lon="128.6214648"></trkpt>
  </trkseg></trk>
</gpx>