<?xml version="1.0" encoding="UTF-8"?>
<gpx version="1.1" creator="RunNavi nationwide seed" xmlns="http://www.topografix.com/GPX/1/1">
  <metadata>
    <name>은파호수공원 순환 4.5K</name>
    <copyright author="OpenStreetMap contributors">
      <license>https://opendatacommons.org/licenses/odbl/1-0/</license>
    </copyright>
  </metadata>
  <trk><name>은파호수공원 순환 4.5K</name><trkseg>
    <trkpt lat="35.9622675" lon="126.6966852"></trkpt>
    <trkpt lat="35.9622584" lon="126.6968033"></trkpt>
    <trkpt lat="35.9621948" lon="126.6976269"></trkpt>
    <trkpt lat="35.9621813" lon="126.6978075"></trkpt>
    <trkpt lat="35.9621727" lon="126.6979220"></trkpt>
    <trkpt lat="35.9621681" lon="126.6979841"></trkpt>
    <trkpt lat="35.9621143" lon="126.6985568"></trkpt>
    <trkpt lat="35.9621113" lon="126.6985882"></trkpt>
    <trkpt lat="35.9620859" lon="126.6988284"></trkpt>
    <trkpt lat="35.9620701" lon="126.6989780"></trkpt>
    <trkpt lat="35.9620090" lon="126.6993354"></trkpt>
    <trkpt lat="35.9618956" lon="126.6998699"></trkpt>
    <trkpt lat="35.9618677" lon="126.6999866"></trkpt>
    <trkpt lat="35.9618546" lon="126.7000141"></trkpt>
    <trkpt lat="35.9618330" lon="126.7000416"></trkpt>
    <trkpt lat="35.9618093" lon="126.7000612"></trkpt>
    <trkpt lat="35.9617805" lon="126.7000772"></trkpt>
    <trkpt lat="35.9617639" lon="126.7000781"></trkpt>
    <trkpt lat="35.9617309" lon="126.7000692"></trkpt>
    <trkpt lat="35.9616589" lon="126.7000203"></trkpt>
    <trkpt lat="35.9614002" lon="126.6998101"></trkpt>
    <trkpt lat="35.9612453" lon="126.6996821"></trkpt>
    <trkpt lat="35.9610490" lon="126.6995231"></trkpt>
    <trkpt lat="35.9609716" lon="126.6994615"></trkpt>
    <trkpt lat="35.9607425" lon="126.6992793"></trkpt>
    <trkpt lat="35.9605944" lon="126.6991681"></trkpt>
    <trkpt lat="35.9605037" lon="126.6991001"></trkpt>
    <trkpt lat="35.9604286" lon="126.6990419"></trkpt>
    <trkpt lat="35.9602496" lon="126.6989033"></trkpt>
    <trkpt lat="35.9599538" lon="126.6986706"></trkpt>
    <trkpt lat="35.9598600" lon="126.6986025"></trkpt>
    <trkpt lat="35.9596530" lon="126.6984521"></trkpt>
    <trkpt lat="35.9595273" lon="126.6983459"></trkpt>
    <trkpt lat="35.9594846" lon="126.6982990"></trkpt>
    <trkpt lat="35.9594752" lon="126.6982781"></trkpt>
    <trkpt lat="35.9594703" lon="126.6982673"></trkpt>
    <trkpt lat="35.9594683" lon="126.6982547"></trkpt>
    <trkpt lat="35.9594646" lon="126.6982321"></trkpt>
    <trkpt lat="35.9594684" lon="126.6982016"></trkpt>
    <trkpt lat="35.9594740" lon="126.6981801"></trkpt>
    <trkpt lat="35.9594836" lon="126.6981430"></trkpt>
    <trkpt lat="35.9595430" lon="126.6980142"></trkpt>
    <trkpt lat="35.9596042" lon="126.6978814"></trkpt>
    <trkpt lat="35.9598368" lon="126.6974404"></trkpt>
    <trkpt lat="35.9599693" lon="126.6971801"></trkpt>
    <trkpt lat="35.9599979" lon="126.6971241"></trkpt>
    <trkpt lat="35.9604271" lon="126.6962810"></trkpt>
    <trkpt lat="35.9604670" lon="126.6961995"></trkpt>
    <trkpt lat="35.9606800" lon="126.6957643"></trkpt>
    <trkpt lat="35.9607255" lon="126.6956725"></trkpt>
    <trkpt lat="35.9608056" lon="126.6955110"></trkpt>
    <trkpt lat="35.9608255" lon="126.6954763"></trkpt>
    <trkpt lat="35.9608699" lon="126.6954010"></trkpt>
    <trkpt lat="35.9608774" lon="126.6953881"></trkpt>
    <trkpt lat="35.9608970" lon="126.6953881"></trkpt>
    <trkpt lat="35.9609159" lon="126.6954062"></trkpt>
    <trkpt lat="35.9615396" lon="126.6959644"></trkpt>
    <trkpt lat="35.9615849" lon="126.6960024"></trkpt>
    <trkpt lat="35.9616447" lon="126.6960526"></trkpt>
    <trkpt lat="35.9621727" lon="126.6964954"></trkpt>
    <trkpt lat="35.9622240" lon="126.6965587"></trkpt>
    <trkpt lat="35.9622521" lon="126.6966036"></trkpt>
    <trkpt lat="35.9622581" lon="126.6966354"></trkpt>
    <trkpt lat="35.9622675" lon="126.6966852"></trkpt>
    <trkpt lat="35.9622584" lon="126.6968033"></trkpt>
    <trkpt lat="35.9621948" lon="126.6976269"></trkpt>
    <trkpt lat="35.9621813" lon="126.6978075"></trkpt>
    <trkpt lat="35.9621727" lon="126.6979220"></trkpt>
    <trkpt lat="35.9621681" lon="126.6979841"></trkpt>
    <trkpt lat="35.9621143" lon="126.6985568"></trkpt>
    <trkpt lat="35.9621113" lon="126.6985882"></trkpt>
    <trkpt lat="35.9620859" lon="126.6988284"></trkpt>
    <trkpt lat="35.9620701" lon="126.6989780"></trkpt>
    <trkpt lat="35.9620090" lon="126.6993354"></trkpt>
    <trkpt lat="35.9618956" lon="126.6998699"></trkpt>
    <trkpt lat="35.9618677" lon="126.6999866"></trkpt>
    <trkpt lat="35.9618546" lon="126.7000141"></trkpt>
    <trkpt lat="35.9618330" lon="126.7000416"></trkpt>
    <trkpt lat="35.9618093" lon="126.7000612"></trkpt>
    <trkpt lat="35.9617805" lon="126.7000772"></trkpt>
    <trkpt lat="35.9617639" lon="126.7000781"></trkpt>
    <trkpt lat="35.9617309" lon="126.7000692"></trkpt>
    <trkpt lat="35.9616589" lon="126.7000203"></trkpt>
    <trkpt lat="35.9614002" lon="126.6998101"></trkpt>
    <trkpt lat="35.9612453" lon="126.6996821"></trkpt>
    <trkpt lat="35.9610490" lon="126.6995231"></trkpt>
    <trkpt lat="35.9609716" lon="126.6994615"></trkpt>
    <trkpt lat="35.9607425" lon="126.6992793"></trkpt>
    <trkpt lat="35.9605944" lon="126.6991681"></trkpt>
    <trkpt lat="35.9605037" lon="126.6991001"></trkpt>
    <trkpt lat="35.9604286" lon="126.6990419"></trkpt>
    <trkpt lat="35.9602496" lon="126.6989033"></trkpt>
    <trkpt lat="35.9599538" lon="126.6986706"></trkpt>
    <trkpt lat="35.9598600" lon="126.6986025"></trkpt>
    <trkpt lat="35.9596530" lon="126.6984521"></trkpt>
    <trkpt lat="35.9595273" lon="126.6983459"></trkpt>
    <trkpt lat="35.9594846" lon="126.6982990"></trkpt>
    <trkpt lat="35.9594752" lon="126.6982781"></trkpt>
    <trkpt lat="35.9594703" lon="126.6982673"></trkpt>
    <trkpt lat="35.9594683" lon="126.6982547"></trkpt>
    <trkpt lat="35.9594646" lon="126.6982321"></trkpt>
    <trkpt lat="35.9594684" lon="126.6982016"></trkpt>
    <trkpt lat="35.9594740" lon="126.6981801"></trkpt>
    <trkpt lat="35.9594836" lon="126.6981430"></trkpt>
    <trkpt lat="35.9595430" lon="126.6980142"></trkpt>
    <trkpt lat="35.9596042" lon="126.6978814"></trkpt>
    <trkpt lat="35.9598368" lon="126.6974404"></trkpt>
    <trkpt lat="35.9599693" lon="126.6971801"></trkpt>
    <trkpt lat="35.9599979" lon="126.6971241"></trkpt>
    <trkpt lat="35.9604271" lon="126.6962810"></trkpt>
    <trkpt lat="35.9604670" lon="126.6961995"></trkpt>
    <trkpt lat="35.9606800" lon="126.6957643"></trkpt>
    <trkpt lat="35.9607255" lon="126.6956725"></trkpt>
    <trkpt lat="35.9608056" lon="126.6955110"></trkpt>
    <trkpt lat="35.9608255" lon="126.6954763"></trkpt>
    <trkpt lat="35.9608699" lon="126.6954010"></trkpt>
    <trkpt lat="35.9608774" lon="126.6953881"></trkpt>
    <trkpt lat="35.9608970" lon="126.6953881"></trkpt>
    <trkpt lat="35.9609159" lon="126.6954062"></trkpt>
    <trkpt lat="35.9615396" lon="126.6959644"></trkpt>
    <trkpt lat="35.9615849" lon="126.6960024"></trkpt>
    <trkpt lat="35.9616447" lon="126.6960526"></trkpt>
    <trkpt lat="35.9621727" lon="126.6964954"></trkpt>
    <trkpt lat="35.9622240" lon="126.6965587"></trkpt>
    <trkpt lat="35.9622521" lon="126.6966036"></trkpt>
    <trkpt lat="35.9622581" lon="126.6966354"></trkpt>
    <trkpt lat="35.9622675" lon="126.6966852"></trkpt>
    <trkpt lat="35.9622584" lon="126.6968033"></trkpt>
    <trkpt lat="35.9621948" lon="126.6976269"></trkpt>
    <trkpt lat="35.9621813" lon="126.6978075"></trkpt>
    <trkpt lat="35.9621727" lon="126.6979220"></trkpt>
    <trkpt lat="35.9621681" lon="126.6979841"></trkpt>
    <trkpt lat="35.9621143" lon="126.6985568"></trkpt>
    <trkpt lat="35.9621113" lon="126.6985882"></trkpt>
    <trkpt lat="35.9620859" lon="126.6988284"></trkpt>
    <trkpt lat="35.9620701" lon="126.6989780"></trkpt>
    <trkpt lat="35.9620090" lon="126.6993354"></trkpt>
    <trkpt lat="35.9618956" lon="126.6998699"></trkpt>
    <trkpt lat="35.9618677" lon="126.6999866"></trkpt>
    <trkpt lat="35.9618546" lon="126.7000141"></trkpt>
    <trkpt lat="35.9618330" lon="126.7000416"></trkpt>
    <trkpt lat="35.9618093" lon="126.7000612"></trkpt>
    <trkpt lat="35.9617805" lon="126.7000772"></trkpt>
    <trkpt lat="35.9617639" lon="126.7000781"></trkpt>
    <trkpt lat="35.9617309" lon="126.7000692"></trkpt>
    <trkpt lat="35.9616589" lon="126.7000203"></trkpt>
    <trkpt lat="35.9614002" lon="126.6998101"></trkpt>
    <trkpt lat="35.9612453" lon="126.6996821"></trkpt>
    <trkpt lat="35.9610490" lon="126.6995231"></trkpt>
    <trkpt lat="35.9609716" lon="126.6994615"></trkpt>
    <trkpt lat="35.9607425" lon="126.6992793"></trkpt>
    <trkpt lat="35.9605944" lon="126.6991681"></trkpt>
    <trkpt lat="35.9605037" lon="126.6991001"></trkpt>
    <trkpt lat="35.9604286" lon="126.6990419"></trkpt>
    <trkpt lat="35.9602496" lon="126.6989033"></trkpt>
    <trkpt lat="35.9599538" lon="126.6986706"></trkpt>
    <trkpt lat="35.9598600" lon="126.6986025"></trkpt>
    <trkpt lat="35.9596530" lon="126.6984521"></trkpt>
    <trkpt lat="35.9595273" lon="126.6983459"></trkpt>
    <trkpt lat="35.9594846" lon="126.6982990"></trkpt>
    <trkpt lat="35.9594752" lon="126.6982781"></trkpt>
    <trkpt lat="35.9594703" lon="126.6982673"></trkpt>
    <trkpt lat="35.9594683" lon="126.6982547"></trkpt>
    <trkpt lat="35.9594646" lon="126.6982321"></trkpt>
    <trkpt lat="35.9594684" lon="126.6982016"></trkpt>
    <trkpt lat="35.9594740" lon="126.6981801"></trkpt>
    <trkpt lat="35.9594836" lon="126.6981430"></trkpt>
    <trkpt lat="35.9595430" lon="126.6980142"></trkpt>
    <trkpt lat="35.9596042" lon="126.6978814"></trkpt>
    <trkpt lat="35.9598368" lon="126.6974404"></trkpt>
    <trkpt lat="35.9599693" lon="126.6971801"></trkpt>
    <trkpt lat="35.9599979" lon="126.6971241"></trkpt>
    <trkpt lat="35.9604271" lon="126.6962810"></trkpt>
    <trkpt lat="35.9604670" lon="126.6961995"></trkpt>
    <trkpt lat="35.9606800" lon="126.6957643"></trkpt>
    <trkpt lat="35.9607255" lon="126.6956725"></trkpt>
    <trkpt lat="35.9608056" lon="126.6955110"></trkpt>
    <trkpt lat="35.9608255" lon="126.6954763"></trkpt>
    <trkpt lat="35.9608699" lon="126.6954010"></trkpt>
    <trkpt lat="35.9608774" lon="126.6953881"></trkpt>
    <trkpt lat="35.9608970" lon="126.6953881"></trkpt>
    <trkpt lat="35.9609159" lon="126.6954062"></trkpt>
    <trkpt lat="35.9615396" lon="126.6959644"></trkpt>
    <trkpt lat="35.9615849" lon="126.6960024"></trkpt>
    <trkpt lat="35.9616447" lon="126.6960526"></trkpt>
    <trkpt lat="35.9621727" lon="126.6964954"></trkpt>
    <trkpt lat="35.9622240" lon="126.6965587"></trkpt>
    <trkpt lat="35.9622521" lon="126.6966036"></trkpt>
    <trkpt lat="35.9622581" lon="126.6966354"></trkpt>
    <trkpt lat="35.9622675" lon="126.6966852"></trkpt>
    <trkpt lat="35.9622584" lon="126.6968033"></trkpt>
    <trkpt lat="35.9621948" lon="126.6976269"></trkpt>
    <trkpt lat="35.9621813" lon="126.6978075"></trkpt>
    <trkpt lat="35.9621727" lon="126.6979220"></trkpt>
    <trkpt lat="35.9621681" lon="126.6979841"></trkpt>
    <trkpt lat="35.9621143" lon="126.6985568"></trkpt>
    <trkpt lat="35.9621113" lon="126.6985882"></trkpt>
    <trkpt lat="35.9620859" lon="126.6988284"></trkpt>
    <trkpt lat="35.9620701" lon="126.6989780"></trkpt>
    <trkpt lat="35.9620090" lon="126.6993354"></trkpt>
    <trkpt lat="35.9618956" lon="126.6998699"></trkpt>
    <trkpt lat="35.9618677" lon="126.6999866"></trkpt>
    <trkpt lat="35.9618546" lon="126.7000141"></trkpt>
    <trkpt lat="35.9618330" lon="126.7000416"></trkpt>
    <trkpt lat="35.9618093" lon="126.7000612"></trkpt>
    <trkpt lat="35.9617805" lon="126.7000772"></trkpt>
    <trkpt lat="35.9617639" lon="126.7000781"></trkpt>
    <trkpt lat="35.9617309" lon="126.7000692"></trkpt>
    <trkpt lat="35.9616589" lon="126.7000203"></trkpt>
    <trkpt lat="35.9614002" lon="126.6998101"></trkpt>
    <trkpt lat="35.9612453" lon="126.6996821"></trkpt>
    <trkpt lat="35.9610490" lon="126.6995231"></trkpt>
    <trkpt lat="35.9609716" lon="126.6994615"></trkpt>
    <trkpt lat="35.9607425" lon="126.6992793"></trkpt>
    <trkpt lat="35.9605944" lon="126.6991681"></trkpt>
    <trkpt lat="35.9605037" lon="126.6991001"></trkpt>
    <trkpt lat="35.9604286" lon="126.6990419"></trkpt>
    <trkpt lat="35.9602496" lon="126.6989033"></trkpt>
    <trkpt lat="35.9599538" lon="126.6986706"></trkpt>
    <trkpt lat="35.9598600" lon="126.6986025"></trkpt>
    <trkpt lat="35.9596530" lon="126.6984521"></trkpt>
    <trkpt lat="35.9595273" lon="126.6983459"></trkpt>
    <trkpt lat="35.9594846" lon="126.6982990"></trkpt>
    <trkpt lat="35.9594752" lon="126.6982781"></trkpt>
    <trkpt lat="35.9594703" lon="126.6982673"></trkpt>
    <trkpt lat="35.9594683" lon="126.6982547"></trkpt>
    <trkpt lat="35.9594646" lon="126.6982321"></trkpt>
    <trkpt lat="35.9594684" lon="126.6982016"></trkpt>
    <trkpt lat="35.9594740" lon="126.6981801"></trkpt>
    <trkpt lat="35.9594836" lon="126.6981430"></trkpt>
    <trkpt lat="35.9595430" lon="126.6980142"></trkpt>
    <trkpt lat="35.9596042" lon="126.6978814"></trkpt>
    <trkpt lat="35.9598368" lon="126.6974404"></trkpt>
    <trkpt lat="35.9599693" lon="126.6971801"></trkpt>
    <trkpt lat="35.9599979" lon="126.6971241"></trkpt>
    <trkpt lat="35.9604271" lon="126.6962810"></trkpt>
    <trkpt lat="35.9604670" lon="126.6961995"></trkpt>
    <trkpt lat="35.9606800" lon="126.6957643"></trkpt>
    <trkpt lat="35.9607255" lon="126.6956725"></trkpt>
    <trkpt lat="35.9608056" lon="126.6955110"></trkpt>
    <trkpt lat="35.9608255" lon="126.6954763"></trkpt>
    <trkpt lat="35.9608699" lon="126.6954010"></trkpt>
    <trkpt lat="35.9608774" lon="126.6953881"></trkpt>
    <trkpt lat="35.9608970" lon="126.6953881"></trkpt>
    <trkpt lat="35.9609159" lon="126.6954062"></trkpt>
    <trkpt lat="35.9615396" lon="126.6959644"></trkpt>
    <trkpt lat="35.9615849" lon="126.6960024"></trkpt>
    <trkpt lat="35.9616447" lon="126.6960526"></trkpt>
    <trkpt lat="35.9621727" lon="126.6964954"></trkpt>
    <trkpt lat="35.9622240" lon="126.6965587"></trkpt>
    <trkpt lat="35.9622521" lon="126.6966036"></trkpt>
    <trkpt lat="35.9622581" lon="126.6966354"></trkpt>
    <trkpt lat="35.9622675" lon="126.6966852"></trkpt>
  </trkseg></trk>
</gpx>