<?xml version="1.0" encoding="UTF-8"?>
<gpx version="1.1" creator="RunNavi nationwide seed" xmlns="http://www.topografix.com/GPX/1/1">
  <metadata>
    <name>일산호수공원 순환 5K</name>
    <copyright author="OpenStreetMap contributors">
      <license>https://opendatacommons.org/licenses/odbl/1-0/</license>
    </copyright>
  </metadata>
  <trk><name>일산호수공원 순환 5K</name><trkseg>
    <trkpt lat="37.6525089" lon="126.7716562"></trkpt>
    <trkpt lat="37.6530061" lon="126.7730669"></trkpt>
    <trkpt lat="37.6530217" lon="126.7731426"></trkpt>
    <trkpt lat="37.6514233" lon="126.7740738"></trkpt>
    <trkpt lat="37.6514059" lon="126.7740797"></trkpt>
    <trkpt lat="37.6513889" lon="126.7740753"></trkpt>
    <trkpt lat="37.6513746" lon="126.7740646"></trkpt>
    <trkpt lat="37.6513625" lon="126.7740468"></trkpt>
    <trkpt lat="37.6508108" lon="126.7725657"></trkpt>
    <trkpt lat="37.6508249" lon="126.7725020"></trkpt>
    <trkpt lat="37.6516257" lon="126.7720497"></trkpt>
    <trkpt lat="37.6516487" lon="126.7720349"></trkpt>
    <trkpt lat="37.6516759" lon="126.7720288"></trkpt>
    <trkpt lat="37.6517047" lon="126.7720313"></trkpt>
    <trkpt lat="37.6517252" lon="126.7720462"></trkpt>
    <trkpt lat="37.6517696" lon="126.7720906"></trkpt>
    <trkpt lat="37.6517969" lon="126.7721059"></trkpt>
    <trkpt lat="37.6518261" lon="126.7721146"></trkpt>
    <trkpt lat="37.6518580" lon="126.7721110"></trkpt>
    <trkpt lat="37.6518917" lon="126.7721049"></trkpt>
    <trkpt lat="37.6519485" lon="126.7720809"></trkpt>
    <trkpt lat="37.6520494" lon="126.7720136"></trkpt>
    <trkpt lat="37.6521064" lon="126.7719537"></trkpt>
    <trkpt lat="37.6521266" lon="126.7719135"></trkpt>
    <trkpt lat="37.6521334" lon="126.7718756"></trkpt>
    <trkpt lat="37.6521309" lon="126.7718437"></trkpt>
    <trkpt lat="37.6521197" lon="126.7718186"></trkpt>
    <trkpt lat="37.6521160" lon="126.7718008"></trkpt>
    <trkpt lat="37.6521173" lon="126.7717804"></trkpt>
    <trkpt lat="37.6521250" lon="126.7717659"></trkpt>
    <trkpt lat="37.6521829" lon="126.7717300"></trkpt>
    <trkpt lat="37.6522960" lon="126.7716597"></trkpt>
    <trkpt lat="37.6524221" lon="126.7715854"></trkpt>
    <trkpt lat="37.6525005" lon="126.7716208"></trkpt>
    <trkpt lat="37.6525089" lon="126.7716562"></trkpt>
    <trkpt lat="37.6530061" lon="126.7730669"></trkpt>
    <trkpt lat="37.6530217" lon="126.7731426"></trkpt>
    <trkpt lat="37.6514233" lon="126.7740738"></trkpt>
    <trkpt lat="37.6514059" lon="126.7740797"></trkpt>
    <trkpt lat="37.6513889" lon="126.7740753"></trkpt>
    <trkpt lat="37.6513746" lon="126.7740646"></trkpt>
    <trkpt lat="37.6513625" lon="126.7740468"></trkpt>
    <trkpt lat="37.6508108" lon="126.7725657"></trkpt>
    <trkpt lat="37.6508249" lon="126.7725020"></trkpt>
    <trkpt lat="37.6516257" lon="126.7720497"></trkpt>
    <trkpt lat="37.6516487" lon="126.7720349"></trkpt>
    <trkpt lat="37.6516759" lon="126.7720288"></trkpt>
    <trkpt lat="37.6517047" lon="126.7720313"></trkpt>
    <trkpt lat="37.6517252" lon="126.7720462"></trkpt>
    <trkpt lat="37.6517696" lon="126.7720906"></trkpt>
    <trkpt lat="37.6517969" lon="126.7721059"></trkpt>
    <trkpt lat="37.6518261" lon="126.7721146"></trkpt>
    <trkpt lat="37.6518580" lon="126.7721110"></trkpt>
    <trkpt lat="37.6518917" lon="126.7721049"></trkpt>
    <trkpt lat="37.6519485" lon="126.7720809"></trkpt>
    <trkpt lat="37.6520494" lon="126.7720136"></trkpt>
    <trkpt lat="37.6521064" lon="126.7719537"></trkpt>
    <trkpt lat="37.6521266" lon="126.7719135"></trkpt>
    <trkpt lat="37.6521334" lon="126.7718756"></trkpt>
    <trkpt lat="37.6521309" lon="126.7718437"></trkpt>
    <trkpt lat="37.6521197" lon="126.7718186"></trkpt>
    <trkpt lat="37.6521160" lon="126.7718008"></trkpt>
    <trkpt lat="37.6521173" lon="126.7717804"></trkpt>
    <trkpt lat="37.6521250" lon="126.7717659"></trkpt>
    <trkpt lat="37.6521829" lon="126.7717300"></trkpt>
    <trkpt lat="37.6522960" lon="126.7716597"></trkpt>
    <trkpt lat="37.6524221" lon="126.7715854"></trkpt>
    <trkpt lat="37.6525005" lon="126.7716208"></trkpt>
    <trkpt lat="37.6525089" lon="126.7716562"></trkpt>
    <trkpt lat="37.6530061" lon="126.7730669"></trkpt>
    <trkpt lat="37.6530217" lon="126.7731426"></trkpt>
    <trkpt lat="37.6514233" lon="126.7740738"></trkpt>
    <trkpt lat="37.6514059" lon="126.7740797"></trkpt>
    <trkpt lat="37.6513889" lon="126.7740753"></trkpt>
    <trkpt lat="37.6513746" lon="126.7740646"></trkpt>
    <trkpt lat="37.6513625" lon="126.7740468"></trkpt>
    <trkpt lat="37.6508108" lon="126.7725657"></trkpt>
    <trkpt lat="37.6508249" lon="126.7725020"></trkpt>
    <trkpt lat="37.6516257" lon="126.7720497"></trkpt>
    <trkpt lat="37.6516487" lon="126.7720349"></trkpt>
    <trkpt lat="37.6516759" lon="126.7720288"></trkpt>
    <trkpt lat="37.6517047" lon="126.7720313"></trkpt>
    <trkpt lat="37.6517252" lon="126.7720462"></trkpt>
    <trkpt lat="37.6517696" lon="126.7720906"></trkpt>
    <trkpt lat="37.6517969" lon="126.7721059"></trkpt>
    <trkpt lat="37.6518261" lon="126.7721146"></trkpt>
    <trkpt lat="37.6518580" lon="126.7721110"></trkpt>
    <trkpt lat="37.6518917" lon="126.7721049"></trkpt>
    <trkpt lat="37.6519485" lon="126.7720809"></trkpt>
    <trkpt lat="37.6520494" lon="126.7720136"></trkpt>
    <trkpt lat="37.6521064" lon="126.7719537"></trkpt>
    <trkpt lat="37.6521266" lon="126.7719135"></trkpt>
    <trkpt lat="37.6521334" lon="126.7718756"></trkpt>
    <trkpt lat="37.6521309" lon="126.7718437"></trkpt>
    <trkpt lat="37.6521197" lon="126.7718186"></trkpt>
    <trkpt lat="37.6521160" lon="126.7718008"></trkpt>
    <trkpt lat="37.6521173" lon="126.7717804"></trkpt>
    <trkpt lat="37.6521250" lon="126.7717659"></trkpt>
    <trkpt lat="37.6521829" lon="126.7717300"></trkpt>
    <trkpt lat="37.6522960" lon="126.7716597"></trkpt>
    <trkpt lat="37.6524221" lon="126.7715854"></trkpt>
    <trkpt lat="37.6525005" lon="126.7716208"></trkpt>
    <trkpt lat="37.6525089" lon="126.7716562"></trkpt>
    <trkpt lat="37.6530061" lon="126.7730669"></trkpt>
    <trkpt lat="37.6530217" lon="126.7731426"></trkpt>
    <trkpt lat="37.6514233" lon="126.7740738"></trkpt>
    <trkpt lat="37.6514059" lon="126.7740797"></trkpt>
    <trkpt lat="37.6513889" lon="126.7740753"></trkpt>
    <trkpt lat="37.6513746" lon="126.7740646"></trkpt>
    <trkpt lat="37.6513625" lon="126.7740468"></trkpt>
    <trkpt lat="37.6508108" lon="126.7725657"></trkpt>
    <trkpt lat="37.6508249" lon="126.7725020"></trkpt>
    <trkpt lat="37.6516257" lon="126.7720497"></trkpt>
    <trkpt lat="37.6516487" lon="126.7720349"></trkpt>
    <trkpt lat="37.6516759" lon="126.7720288"></trkpt>
    <trkpt lat="37.6517047" lon="126.7720313"></trkpt>
    <trkpt lat="37.6517252" lon="126.7720462"></trkpt>
    <trkpt lat="37.6517696" lon="126.7720906"></trkpt>
    <trkpt lat="37.6517969" lon="126.7721059"></trkpt>
    <trkpt lat="37.6518261" lon="126.7721146"></trkpt>
    <trkpt lat="37.6518580" lon="126.7721110"></trkpt>
    <trkpt lat="37.6518917" lon="126.7721049"></trkpt>
    <trkpt lat="37.6519485" lon="126.7720809"></trkpt>
    <trkpt lat="37.6520494" lon="126.7720136"></trkpt>
    <trkpt lat="37.6521064" lon="126.7719537"></trkpt>
    <trkpt lat="37.6521266" lon="126.7719135"></trkpt>
    <trkpt lat="37.6521334" lon="126.7718756"></trkpt>
    <trkpt lat="37.6521309" lon="126.7718437"></trkpt>
    <trkpt lat="37.6521197" lon="126.7718186"></trkpt>
    <trkpt lat="37.6521160" lon="126.7718008"></trkpt>
    <trkpt lat="37.6521173" lon="126.7717804"></trkpt>
    <trkpt lat="37.6521250" lon="126.7717659"></trkpt>
    <trkpt lat="37.6521829" lon="126.7717300"></trkpt>
    <trkpt lat="37.6522960" lon="126.7716597"></trkpt>
    <trkpt lat="37.6524221" lon="126.7715854"></trkpt>
    <trkpt lat="37.6525005" lon="126.7716208"></trkpt>
    <trkpt lat="37.6525089" lon="126.7716562"></trkpt>
    <trkpt lat="37.6530061" lon="126.7730669"></trkpt>
    <trkpt lat="37.6530217" lon="126.7731426"></trkpt>
    <trkpt lat="37.6514233" lon="126.7740738"></trkpt>
    <trkpt lat="37.6514059" lon="126.7740797"></trkpt>
    <trkpt lat="37.6513889" lon="126.7740753"></trkpt>
    <trkpt lat="37.6513746" lon="126.7740646"></trkpt>
    <trkpt lat="37.6513625" lon="126.7740468"></trkpt>
    <trkpt lat="37.6508108" lon="126.7725657"></trkpt>
    <trkpt lat="37.6508249" lon="126.7725020"></trkpt>
    <trkpt lat="37.6516257" lon="126.7720497"></trkpt>
    <trkpt lat="37.6516487" lon="126.7720349"></trkpt>
    <trkpt lat="37.6516759" lon="126.7720288"></trkpt>
    <trkpt lat="37.6517047" lon="126.7720313"></trkpt>
    <trkpt lat="37.6517252" lon="126.7720462"></trkpt>
    <trkpt lat="37.6517696" lon="126.7720906"></trkpt>
    <trkpt lat="37.6517969" lon="126.7721059"></trkpt>
    <trkpt lat="37.6518261" lon="126.7721146"></trkpt>
    <trkpt lat="37.6518580" lon="126.7721110"></trkpt>
    <trkpt lat="37.6518917" lon="126.7721049"></trkpt>
    <trkpt lat="37.6519485" lon="126.7720809"></trkpt>
    <trkpt lat="37.6520494" lon="126.7720136"></trkpt>
    <trkpt lat="37.6521064" lon="126.7719537"></trkpt>
    <trkpt lat="37.6521266" lon="126.7719135"></trkpt>
    <trkpt lat="37.6521334" lon="126.7718756"></trkpt>
    <trkpt lat="37.6521309" lon="126.7718437"></trkpt>
    <trkpt lat="37.6521197" lon="126.7718186"></trkpt>
    <trkpt lat="37.6521160" lon="126.7718008"></trkpt>
    <trkpt lat="37.6521173" lon="126.7717804"></trkpt>
    <trkpt lat="37.6521250" lon="126.7717659"></trkpt>
    <trkpt lat="37.6521829" lon="126.7717300"></trkpt>
    <trkpt lat="37.6522960" lon="126.7716597"></trkpt>
    <trkpt lat="37.6524221" lon="126.7715854"></trkpt>
    <trkpt lat="37.6525005" lon="126.7716208"></trkpt>
    <trkpt lat="37.6525089" lon="126.7716562"></trkpt>
    <trkpt lat="37.6530061" lon="126.7730669"></trkpt>
    <trkpt lat="37.6530217" lon="126.7731426"></trkpt>
    <trkpt lat="37.6514233" lon="126.7740738"></trkpt>
    <trkpt lat="37.6514059" lon="126.7740797"></trkpt>
    <trkpt lat="37.6513889" lon="126.7740753"></trkpt>
    <trkpt lat="37.6513746" lon="126.7740646"></trkpt>
    <trkpt lat="37.6513625" lon="126.7740468"></trkpt>
    <trkpt lat="37.6508108" lon="126.7725657"></trkpt>
    <trkpt lat="37.6508249" lon="126.7725020"></trkpt>
    <trkpt lat="37.6516257" lon="126.7720497"></trkpt>
    <trkpt lat="37.6516487" lon="126.7720349"></trkpt>
    <trkpt lat="37.6516759" lon="126.7720288"></trkpt>
    <trkpt lat="37.6517047" lon="126.7720313"></trkpt>
    <trkpt lat="37.6517252" lon="126.7720462"></trkpt>
    <trkpt lat="37.6517696" lon="126.7720906"></trkpt>
    <trkpt lat="37.6517969" lon="126.7721059"></trkpt>
    <trkpt lat="37.6518261" lon="126.7721146"></trkpt>
    <trkpt lat="37.6518580" lon="126.7721110"></trkpt>
    <trkpt lat="37.6518917" lon="126.7721049"></trkpt>
    <trkpt lat="37.6519485" lon="126.7720809"></trkpt>
    <trkpt lat="37.6520494" lon="126.7720136"></trkpt>
    <trkpt lat="37.6521064" lon="126.7719537"></trkpt>
    <trkpt lat="37.6521266" lon="126.7719135"></trkpt>
    <trkpt lat="37.6521334" lon="126.7718756"></trkpt>
    <trkpt lat="37.6521309" lon="126.7718437"></trkpt>
    <trkpt lat="37.6521197" lon="126.7718186"></trkpt>
    <trkpt lat="37.6521160" lon="126.7718008"></trkpt>
    <trkpt lat="37.6521173" lon="126.7717804"></trkpt>
    <trkpt lat="37.6521250" lon="126.7717659"></trkpt>
    <trkpt lat="37.6521829" lon="126.7717300"></trkpt>
    <trkpt lat="37.6522960" lon="126.7716597"></trkpt>
    <trkpt lat="37.6524221" lon="126.7715854"></trkpt>
    <trkpt lat="37.6525005" lon="126.7716208"></trkpt>
    <trkpt lat="37.6525089" lon="126.7716562"></trkpt>
    <trkpt lat="37.6530061" lon="126.7730669"></trkpt>
    <trkpt lat="37.6530217" lon="126.7731426"></trkpt>
    <trkpt lat="37.6514233" lon="126.7740738"></trkpt>
    <trkpt lat="37.6514059" lon="126.7740797"></trkpt>
    <trkpt lat="37.6513889" lon="126.7740753"></trkpt>
    <trkpt lat="37.6513746" lon="126.7740646"></trkpt>
    <trkpt lat="37.6513625" lon="126.7740468"></trkpt>
    <trkpt lat="37.6508108" lon="126.7725657"></trkpt>
    <trkpt lat="37.6508249" lon="126.7725020"></trkpt>
    <trkpt lat="37.6516257" lon="126.7720497"></trkpt>
    <trkpt lat="37.6516487" lon="126.7720349"></trkpt>
    <trkpt lat="37.6516759" lon="126.7720288"></trkpt>
    <trkpt lat="37.6517047" lon="126.7720313"></trkpt>
    <trkpt lat="37.6517252" lon="126.7720462"></trkpt>
    <trkpt lat="37.6517696" lon="126.7720906"></trkpt>
    <trkpt lat="37.6517969" lon="126.7721059"></trkpt>
    <trkpt lat="37.6518261" lon="126.7721146"></trkpt>
    <trkpt lat="37.6518580" lon="126.7721110"></trkpt>
    <trkpt lat="37.6518917" lon="126.7721049"></trkpt>
    <trkpt lat="37.6519485" lon="126.7720809"></trkpt>
    <trkpt lat="37.6520494" lon="126.7720136"></trkpt>
    <trkpt lat="37.6521064" lon="126.7719537"></trkpt>
    <trkpt lat="37.6521266" lon="126.7719135"></trkpt>
    <trkpt lat="37.6521334" lon="126.7718756"></trkpt>
    <trkpt lat="37.6521309" lon="126.7718437"></trkpt>
    <trkpt lat="37.6521197" lon="126.7718186"></trkpt>
    <trkpt lat="37.6521160" lon="126.7718008"></trkpt>
    <trkpt lat="37.6521173" lon="126.7717804"></trkpt>
    <trkpt lat="37.6521250" lon="126.7717659"></trkpt>
    <trkpt lat="37.6521829" lon="126.7717300"></trkpt>
    <trkpt lat="37.6522960" lon="126.7716597"></trkpt>
    <trkpt lat="37.6524221" lon="126.7715854"></trkpt>
    <trkpt lat="37.6525005" lon="126.7716208"></trkpt>
    <trkpt lat="37.6525089" lon="126.7716562"></trkpt>
  </trkseg></trk>
</gpx>