<?xml version="1.0" encoding="UTF-8"?>
<gpx version="1.1" creator="RunNavi nationwide seed" xmlns="http://www.topografix.com/GPX/1/1">
  <metadata>
    <name>광주교 · 광주천 왕복 5K</name>
    <copyright author="OpenStreetMap contributors">
      <license>https://opendatacommons.org/licenses/odbl/1-0/</license>
    </copyright>
  </metadata>
  <trk><name>광주교 · 광주천 왕복 5K</name><trkseg>
    <trkpt lat="35.1510500" lon="126.9080672"></trkpt>
    <trkpt lat="35.1509744" lon="126.9081359"></trkpt>
    <trkpt lat="35.1509031" lon="126.9082118"></trkpt>
    <trkpt lat="35.1507845" lon="126.9083545"></trkpt>
    <trkpt lat="35.1506992" lon="126.9084707"></trkpt>
    <trkpt lat="35.1506457" lon="126.9085626"></trkpt>
    <trkpt lat="35.1505836" lon="126.9086594"></trkpt>
    <trkpt lat="35.1505208" lon="126.9087476"></trkpt>
    <trkpt lat="35.1504503" lon="126.9088244"></trkpt>
    <trkpt lat="35.1504016" lon="126.9088755"></trkpt>
    <trkpt lat="35.1503091" lon="126.9089515"></trkpt>
    <trkpt lat="35.1502363" lon="126.9090169"></trkpt>
    <trkpt lat="35.1501293" lon="126.9090975"></trkpt>
    <trkpt lat="35.1500618" lon="126.9091620"></trkpt>
    <trkpt lat="35.1500323" lon="126.9092047"></trkpt>
    <trkpt lat="35.1500041" lon="126.9092369"></trkpt>
    <trkpt lat="35.1499253" lon="126.9093204"></trkpt>
    <trkpt lat="35.1497828" lon="126.9094798"></trkpt>
    <trkpt lat="35.1496857" lon="126.9095831"></trkpt>
    <trkpt lat="35.1495825" lon="126.9096841"></trkpt>
    <trkpt lat="35.1494648" lon="126.9098125"></trkpt>
    <trkpt lat="35.1493247" lon="126.9099545"></trkpt>
    <trkpt lat="35.1489379" lon="126.9102894"></trkpt>
    <trkpt lat="35.1486445" lon="126.9105516"></trkpt>
    <trkpt lat="35.1484792" lon="126.9106907"></trkpt>
    <trkpt lat="35.1483298" lon="126.9108186"></trkpt>
    <trkpt lat="35.1481388" lon="126.9109790"></trkpt>
    <trkpt lat="35.1480334" lon="126.9110682"></trkpt>
    <trkpt lat="35.1478690" lon="126.9112170"></trkpt>
    <trkpt lat="35.1477147" lon="126.9113490"></trkpt>
    <trkpt lat="35.1474533" lon="126.9115803"></trkpt>
    <trkpt lat="35.1474325" lon="126.9115436"></trkpt>
    <trkpt lat="35.1476309" lon="126.9113754"></trkpt>
    <trkpt lat="35.1476108" lon="126.9113336"></trkpt>
    <trkpt lat="35.1475829" lon="126.9113535"></trkpt>
    <trkpt lat="35.1474828" lon="126.9114228"></trkpt>
    <trkpt lat="35.1474309" lon="126.9114772"></trkpt>
    <trkpt lat="35.1472551" lon="126.9116395"></trkpt>
    <trkpt lat="35.1470657" lon="126.9118030"></trkpt>
    <trkpt lat="35.1469477" lon="126.9119129"></trkpt>
    <trkpt lat="35.1468283" lon="126.9120377"></trkpt>
    <trkpt lat="35.1467153" lon="126.9121719"></trkpt>
    <trkpt lat="35.1465987" lon="126.9122811"></trkpt>
    <trkpt lat="35.1464345" lon="126.9123843"></trkpt>
    <trkpt lat="35.1463101" lon="126.9124889"></trkpt>
    <trkpt lat="35.1461535" lon="126.9126394"></trkpt>
    <trkpt lat="35.1459141" lon="126.9128386"></trkpt>
    <trkpt lat="35.1456781" lon="126.9130744"></trkpt>
    <trkpt lat="35.1456342" lon="126.9130974"></trkpt>
    <trkpt lat="35.1455722" lon="126.9131297"></trkpt>
    <trkpt lat="35.1454490" lon="126.9132011"></trkpt>
    <trkpt lat="35.1450348" lon="126.9136116"></trkpt>
    <trkpt lat="35.1447954" lon="126.9139105"></trkpt>
    <trkpt lat="35.1445057" lon="126.9142278"></trkpt>
    <trkpt lat="35.1443067" lon="126.9145051"></trkpt>
    <trkpt lat="35.1437272" lon="126.9152446"></trkpt>
    <trkpt lat="35.1435786" lon="126.9154263"></trkpt>
    <trkpt lat="35.1433745" lon="126.9156667"></trkpt>
    <trkpt lat="35.1431175" lon="126.9159686"></trkpt>
    <trkpt lat="35.1429059" lon="126.9162151"></trkpt>
    <trkpt lat="35.1427119" lon="126.9164369"></trkpt>
    <trkpt lat="35.1424196" lon="126.9167574"></trkpt>
    <trkpt lat="35.1421916" lon="126.9169559"></trkpt>
    <trkpt lat="35.1421047" lon="126.9170316"></trkpt>
    <trkpt lat="35.1418076" lon="126.9172893"></trkpt>
    <trkpt lat="35.1414849" lon="126.9175677"></trkpt>
    <trkpt lat="35.1411246" lon="126.9178573"></trkpt>
    <trkpt lat="35.1408777" lon="126.9180699"></trkpt>
    <trkpt lat="35.1406132" lon="126.9183040"></trkpt>
    <trkpt lat="35.1403973" lon="126.9184645"></trkpt>
    <trkpt lat="35.1401522" lon="126.9186781"></trkpt>
    <trkpt lat="35.1399079" lon="126.9188724"></trkpt>
    <trkpt lat="35.1397841" lon="126.9189723"></trkpt>
    <trkpt lat="35.1397293" lon="126.9190112"></trkpt>
    <trkpt lat="35.1396363" lon="126.9191137"></trkpt>
    <trkpt lat="35.1395323" lon="126.9192160"></trkpt>
    <trkpt lat="35.1393660" lon="126.9193578"></trkpt>
    <trkpt lat="35.1390889" lon="126.9195457"></trkpt>
    <trkpt lat="35.1389173" lon="126.9196891"></trkpt>
    <trkpt lat="35.1388777" lon="126.9197375"></trkpt>
    <trkpt lat="35.1388211" lon="126.9197925"></trkpt>
    <trkpt lat="35.1387794" lon="126.9198393"></trkpt>
    <trkpt lat="35.1387335" lon="126.9198797"></trkpt>
    <trkpt lat="35.1386940" lon="126.9199044"></trkpt>
    <trkpt lat="35.1386598" lon="126.9199177"></trkpt>
    <trkpt lat="35.1386311" lon="126.9199395"></trkpt>
    <trkpt lat="35.1385702" lon="126.9199913"></trkpt>
    <trkpt lat="35.1383679" lon="126.9201548"></trkpt>
    <trkpt lat="35.1381082" lon="126.9203837"></trkpt>
    <trkpt lat="35.1380131" lon="126.9204819"></trkpt>
    <trkpt lat="35.1379828" lon="126.9205407"></trkpt>
    <trkpt lat="35.1379774" lon="126.9205900"></trkpt>
    <trkpt lat="35.1379262" lon="126.9206754"></trkpt>
    <trkpt lat="35.1375595" lon="126.9210215"></trkpt>
    <trkpt lat="35.1373636" lon="126.9211014"></trkpt>
    <trkpt lat="35.1371962" lon="126.9212038"></trkpt>
    <trkpt lat="35.1369536" lon="126.9213761"></trkpt>
    <trkpt lat="35.1369095" lon="126.9214094"></trkpt>
    <trkpt lat="35.1368622" lon="126.9214539"></trkpt>
    <trkpt lat="35.1368103" lon="126.9215080"></trkpt>
    <trkpt lat="35.1367684" lon="126.9215469"></trkpt>
    <trkpt lat="35.1367066" lon="126.9215966"></trkpt>
    <trkpt lat="35.1366637" lon="126.9216284"></trkpt>
    <trkpt lat="35.1366304" lon="126.9216483"></trkpt>
    <trkpt lat="35.1365831" lon="126.9216645"></trkpt>
    <trkpt lat="35.1365353" lon="126.9216781"></trkpt>
    <trkpt lat="35.1364530" lon="126.9216830"></trkpt>
    <trkpt lat="35.1364039" lon="126.9216882"></trkpt>
    <trkpt lat="35.1363520" lon="126.9217033"></trkpt>
    <trkpt lat="35.1363000" lon="126.9217223"></trkpt>
    <trkpt lat="35.1362617" lon="126.9217453"></trkpt>
    <trkpt lat="35.1360726" lon="126.9218844"></trkpt>
    <trkpt lat="35.1358915" lon="126.9220338"></trkpt>
    <trkpt lat="35.1358324" lon="126.9220770"></trkpt>
    <trkpt lat="35.1357796" lon="126.9221092"></trkpt>
    <trkpt lat="35.1357033" lon="126.9221490"></trkpt>
    <trkpt lat="35.1354652" lon="126.9223120"></trkpt>
    <trkpt lat="35.1353957" lon="126.9223634"></trkpt>
    <trkpt lat="35.1353166" lon="126.9224373"></trkpt>
    <trkpt lat="35.1352313" lon="126.9225151"></trkpt>
    <trkpt lat="35.1351563" lon="126.9225832"></trkpt>
    <trkpt lat="35.1349782" lon="126.9227177"></trkpt>
    <trkpt lat="35.1348506" lon="126.9228242"></trkpt>
    <trkpt lat="35.1347131" lon="126.9229616"></trkpt>
    <trkpt lat="35.1346412" lon="126.9230310"></trkpt>
    <trkpt lat="35.1345892" lon="126.9230907"></trkpt>
    <trkpt lat="35.1345200" lon="126.9231828"></trkpt>
    <trkpt lat="35.1344620" lon="126.9232548"></trkpt>
    <trkpt lat="35.1343659" lon="126.9233619"></trkpt>
    <trkpt lat="35.1342680" lon="126.9234600"></trkpt>
    <trkpt lat="35.1341534" lon="126.9235649"></trkpt>
    <trkpt lat="35.1339952" lon="126.9237269"></trkpt>
    <trkpt lat="35.1339129" lon="126.9238029"></trkpt>
    <trkpt lat="35.1338307" lon="126.9238901"></trkpt>
    <trkpt lat="35.1337436" lon="126.9240019"></trkpt>
    <trkpt lat="35.1336811" lon="126.9240737"></trkpt>
    <trkpt lat="35.1337436" lon="126.9240019"></trkpt>
    <trkpt lat="35.1338307" lon="126.9238901"></trkpt>
    <trkpt lat="35.1339129" lon="126.9238029"></trkpt>
    <trkpt lat="35.1339952" lon="126.9237269"></trkpt>
    <trkpt lat="35.1341534" lon="126.9235649"></trkpt>
    <trkpt lat="35.1342680" lon="126.9234600"></trkpt>
    <trkpt lat="35.1343659" lon="126.9233619"></trkpt>
    <trkpt lat="35.1344620" lon="126.9232548"></trkpt>
    <trkpt lat="35.1345200" lon="126.9231828"></trkpt>
    <trkpt lat="35.1345892" lon="126.9230907"></trkpt>
    <trkpt lat="35.1346412" lon="126.9230310"></trkpt>
    <trkpt lat="35.1347131" lon="126.9229616"></trkpt>
    <trkpt lat="35.1348506" lon="126.9228242"></trkpt>
    <trkpt lat="35.1349782" lon="126.9227177"></trkpt>
    <trkpt lat="35.1351563" lon="126.9225832"></trkpt>
    <trkpt lat="35.1352313" lon="126.9225151"></trkpt>
    <trkpt lat="35.1353166" lon="126.9224373"></trkpt>
    <trkpt lat="35.1353957" lon="126.9223634"></trkpt>
    <trkpt lat="35.1354652" lon="126.9223120"></trkpt>
    <trkpt lat="35.1357033" lon="126.9221490"></trkpt>
    <trkpt lat="35.1357796" lon="126.9221092"></trkpt>
    <trkpt lat="35.1358324" lon="126.9220770"></trkpt>
    <trkpt lat="35.1358915" lon="126.9220338"></trkpt>
    <trkpt lat="35.1360726" lon="126.9218844"></trkpt>
    <trkpt lat="35.1362617" lon="126.9217453"></trkpt>
    <trkpt lat="35.1363000" lon="126.9217223"></trkpt>
    <trkpt lat="35.1363520" lon="126.9217033"></trkpt>
    <trkpt lat="35.1364039" lon="126.9216882"></trkpt>
    <trkpt lat="35.1364530" lon="126.9216830"></trkpt>
    <trkpt lat="35.1365353" lon="126.9216781"></trkpt>
    <trkpt lat="35.1365831" lon="126.9216645"></trkpt>
    <trkpt lat="35.1366304" lon="126.9216483"></trkpt>
    <trkpt lat="35.1366637" lon="126.9216284"></trkpt>
    <trkpt lat="35.1367066" lon="126.9215966"></trkpt>
    <trkpt lat="35.1367684" lon="126.9215469"></trkpt>
    <trkpt lat="35.1368103" lon="126.9215080"></trkpt>
    <trkpt lat="35.1368622" lon="126.9214539"></trkpt>
    <trkpt lat="35.1369095" lon="126.9214094"></trkpt>
    <trkpt lat="35.1369536" lon="126.9213761"></trkpt>
    <trkpt lat="35.1371962" lon="126.9212038"></trkpt>
    <trkpt lat="35.1373636" lon="126.9211014"></trkpt>
    <trkpt lat="35.1375595" lon="126.9210215"></trkpt>
    <trkpt lat="35.1379262" lon="126.9206754"></trkpt>
    <trkpt lat="35.1379774" lon="126.9205900"></trkpt>
    <trkpt lat="35.1379828" lon="126.9205407"></trkpt>
    <trkpt lat="35.1380131" lon="126.9204819"></trkpt>
    <trkpt lat="35.1381082" lon="126.9203837"></trkpt>
    <trkpt lat="35.1383679" lon="126.9201548"></trkpt>
    <trkpt lat="35.1385702" lon="126.9199913"></trkpt>
    <trkpt lat="35.1386311" lon="126.9199395"></trkpt>
    <trkpt lat="35.1386598" lon="126.9199177"></trkpt>
    <trkpt lat="35.1386940" lon="126.9199044"></trkpt>
    <trkpt lat="35.1387335" lon="126.9198797"></trkpt>
    <trkpt lat="35.1387794" lon="126.9198393"></trkpt>
    <trkpt lat="35.1388211" lon="126.9197925"></trkpt>
    <trkpt lat="35.1388777" lon="126.9197375"></trkpt>
    <trkpt lat="35.1389173" lon="126.9196891"></trkpt>
    <trkpt lat="35.1390889" lon="126.9195457"></trkpt>
    <trkpt lat="35.1393660" lon="126.9193578"></trkpt>
    <trkpt lat="35.1395323" lon="126.9192160"></trkpt>
    <trkpt lat="35.1396363" lon="126.9191137"></trkpt>
    <trkpt lat="35.1397293" lon="126.9190112"></trkpt>
    <trkpt lat="35.1397841" lon="126.9189723"></trkpt>
    <trkpt lat="35.1399079" lon="126.9188724"></trkpt>
    <trkpt lat="35.1401522" lon="126.9186781"></trkpt>
    <trkpt lat="35.1403973" lon="126.9184645"></trkpt>
    <trkpt lat="35.1406132" lon="126.9183040"></trkpt>
    <trkpt lat="35.1408777" lon="126.9180699"></trkpt>
    <trkpt lat="35.1411246" lon="126.9178573"></trkpt>
    <trkpt lat="35.1414849" lon="126.9175677"></trkpt>
    <trkpt lat="35.1418076" lon="126.9172893"></trkpt>
    <trkpt lat="35.1421047" lon="126.9170316"></trkpt>
    <trkpt lat="35.1421916" lon="126.9169559"></trkpt>
    <trkpt lat="35.1424196" lon="126.9167574"></trkpt>
    <trkpt lat="35.1427119" lon="126.9164369"></trkpt>
    <trkpt lat="35.1429059" lon="126.9162151"></trkpt>
    <trkpt lat="35.1431175" lon="126.9159686"></trkpt>
    <trkpt lat="35.1433745" lon="126.9156667"></trkpt>
    <trkpt lat="35.1435786" lon="126.9154263"></trkpt>
    <trkpt lat="35.1437272" lon="126.9152446"></trkpt>
    <trkpt lat="35.1443067" lon="126.9145051"></trkpt>
    <trkpt lat="35.1445057" lon="126.9142278"></trkpt>
    <trkpt lat="35.1447954" lon="126.9139105"></trkpt>
    <trkpt lat="35.1450348" lon="126.9136116"></trkpt>
    <trkpt lat="35.1454490" lon="126.9132011"></trkpt>
    <trkpt lat="35.1455722" lon="126.9131297"></trkpt>
    <trkpt lat="35.1456342" lon="126.9130974"></trkpt>
    <trkpt lat="35.1456781" lon="126.9130744"></trkpt>
    <trkpt lat="35.1459141" lon="126.9128386"></trkpt>
    <trkpt lat="35.1461535" lon="126.9126394"></trkpt>
    <trkpt lat="35.1463101" lon="126.9124889"></trkpt>
    <trkpt lat="35.1464345" lon="126.9123843"></trkpt>
    <trkpt lat="35.1465987" lon="126.9122811"></trkpt>
    <trkpt lat="35.1467153" lon="126.9121719"></trkpt>
    <trkpt lat="35.1468283" lon="126.9120377"></trkpt>
    <trkpt lat="35.1469477" lon="126.9119129"></trkpt>
    <trkpt lat="35.1470657" lon="126.9118030"></trkpt>
    <trkpt lat="35.1472551" lon="126.9116395"></trkpt>
    <trkpt lat="35.1474309" lon="126.9114772"></trkpt>
    <trkpt lat="35.1474828" lon="126.9114228"></trkpt>
    <trkpt lat="35.1475829" lon="126.9113535"></trkpt>
    <trkpt lat="35.1476108" lon="126.9113336"></trkpt>
    <trkpt lat="35.1476309" lon="126.9113754"></trkpt>
    <trkpt lat="35.1474325" lon="126.9115436"></trkpt>
    <trkpt lat="35.1474533" lon="126.9115803"></trkpt>
    <trkpt lat="35.1477147" lon="126.9113490"></trkpt>
    <trkpt lat="35.1478690" lon="126.9112170"></trkpt>
    <trkpt lat="35.1480334" lon="126.9110682"></trkpt>
    <trkpt lat="35.1481388" lon="126.9109790"></trkpt>
    <trkpt lat="35.1483298" lon="126.9108186"></trkpt>
    <trkpt lat="35.1484792" lon="126.9106907"></trkpt>
    <trkpt lat="35.1486445" lon="126.9105516"></trkpt>
    <trkpt lat="35.1489379" lon="126.9102894"></trkpt>
    <trkpt lat="35.1493247" lon="126.9099545"></trkpt>
    <trkpt lat="35.1494648" lon="126.9098125"></trkpt>
    <trkpt lat="35.1495825" lon="126.9096841"></trkpt>
    <trkpt lat="35.1496857" lon="126.9095831"></trkpt>
    <trkpt lat="35.1497828" lon="126.9094798"></trkpt>
    <trkpt lat="35.1499253" lon="126.9093204"></trkpt>
    <trkpt lat="35.1500041" lon="126.9092369"></trkpt>
    <trkpt lat="35.1500323" lon="126.9092047"></trkpt>
    <trkpt lat="35.1500618" lon="126.9091620"></trkpt>
    <trkpt lat="35.1501293" lon="126.9090975"></trkpt>
    <trkpt lat="35.1502363" lon="126.9090169"></trkpt>
    <trkpt lat="35.1503091" lon="126.9089515"></trkpt>
    <trkpt lat="35.1504016" lon="126.9088755"></trkpt>
    <trkpt lat="35.1504503" lon="126.9088244"></trkpt>
    <trkpt lat="35.1505208" lon="126.9087476"></trkpt>
    <trkpt lat="35.1505836" lon="126.9086594"></trkpt>
    <trkpt lat="35.1506457" lon="126.9085626"></trkpt>
    <trkpt lat="35.1506992" lon="126.9084707"></trkpt>
    <trkpt lat="35.1507845" lon="126.9083545"></trkpt>
    <trkpt lat="35.1509031" lon="126.9082118"></trkpt>
    <trkpt lat="35.1509744" lon="126.9081359"></trkpt>
    <trkpt lat="35.1510500" lon="126.9080672"></trkpt>
  </trkseg></trk>
</gpx>