<?xml version="1.0" encoding="UTF-8"?>
<gpx version="1.1" creator="RunNavi nationwide seed" xmlns="http://www.topografix.com/GPX/1/1">
  <metadata>
    <name>연지공원 순환 4.9K</name>
    <copyright author="OpenStreetMap contributors">
      <license>https://opendatacommons.org/licenses/odbl/1-0/</license>
    </copyright>
  </metadata>
  <trk><name>연지공원 순환 4.9K</name><trkseg>
    <trkpt lat="35.2451976" lon="128.8706903"></trkpt>
    <trkpt lat="35.2449685" lon="128.8699016"></trkpt>
    <trkpt lat="35.2449320" lon="128.8695235"></trkpt>
    <trkpt lat="35.2449685" lon="128.8692999"></trkpt>
    <trkpt lat="35.2451009" lon="128.8688078"></trkpt>
    <trkpt lat="35.2455130" lon="128.8672753"></trkpt>
    <trkpt lat="35.2458617" lon="128.8675965"></trkpt>
    <trkpt lat="35.2460123" lon="128.8676422"></trkpt>
    <trkpt lat="35.2462236" lon="128.8677062"></trkpt>
    <trkpt lat="35.2463829" lon="128.8676656"></trkpt>
    <trkpt lat="35.2465888" lon="128.8677591"></trkpt>
    <trkpt lat="35.2470171" lon="128.8680396"></trkpt>
    <trkpt lat="35.2472827" lon="128.8680721"></trkpt>
    <trkpt lat="35.2475948" lon="128.8682876"></trkpt>
    <trkpt lat="35.2477840" lon="128.8686006"></trkpt>
    <trkpt lat="35.2477010" lon="128.8689747"></trkpt>
    <trkpt lat="35.2474255" lon="128.8692267"></trkpt>
    <trkpt lat="35.2471366" lon="128.8694259"></trkpt>
    <trkpt lat="35.2469806" lon="128.8696536"></trkpt>
    <trkpt lat="35.2468046" lon="128.8699178"></trkpt>
    <trkpt lat="35.2465323" lon="128.8701862"></trkpt>
    <trkpt lat="35.2458484" lon="128.8704626"></trkpt>
    <trkpt lat="35.2451976" lon="128.8706903"></trkpt>
    <trkpt lat="35.2449685" lon="128.8699016"></trkpt>
    <trkpt lat="35.2449320" lon="128.8695235"></trkpt>
    <trkpt lat="35.2449685" lon="128.8692999"></trkpt>
    <trkpt lat="35.2451009" lon="128.8688078"></trkpt>
    <trkpt lat="35.2455130" lon="128.8672753"></trkpt>
    <trkpt lat="35.2458617" lon="128.8675965"></trkpt>
    <trkpt lat="35.2460123" lon="128.8676422"></trkpt>
    <trkpt lat="35.2462236" lon="128.8677062"></trkpt>
    <trkpt lat="35.2463829" lon="128.8676656"></trkpt>
    <trkpt lat="35.2465888" lon="128.8677591"></trkpt>
    <trkpt lat="35.2470171" lon="128.8680396"></trkpt>
    <trkpt lat="35.2472827" lon="128.8680721"></trkpt>
    <trkpt lat="35.2475948" lon="128.8682876"></trkpt>
    <trkpt lat="35.2477840" lon="128.8686006"></trkpt>
    <trkpt lat="35.2477010" lon="128.8689747"></trkpt>
    <trkpt lat="35.2474255" lon="128.8692267"></trkpt>
    <trkpt lat="35.2471366" lon="128.8694259"></trkpt>
    <trkpt lat="35.2469806" lon="128.8696536"></trkpt>
    <trkpt lat="35.2468046" lon="128.8699178"></trkpt>
    <trkpt lat="35.2465323" lon="128.8701862"></trkpt>
    <trkpt lat="35.2458484" lon="128.8704626"></trkpt>
    <trkpt lat="35.2451976" lon="128.8706903"></trkpt>
    <trkpt lat="35.2449685" lon="128.8699016"></trkpt>
    <trkpt lat="35.2449320" lon="128.8695235"></trkpt>
    <trkpt lat="35.2449685" lon="128.8692999"></trkpt>
    <trkpt lat="35.2451009" lon="128.8688078"></trkpt>
    <trkpt lat="35.2455130" lon="128.8672753"></trkpt>
    <trkpt lat="35.2458617" lon="128.8675965"></trkpt>
    <trkpt lat="35.2460123" lon="128.8676422"></trkpt>
    <trkpt lat="35.2462236" lon="128.8677062"></trkpt>
    <trkpt lat="35.2463829" lon="128.8676656"></trkpt>
    <trkpt lat="35.2465888" lon="128.8677591"></trkpt>
    <trkpt lat="35.2470171" lon="128.8680396"></trkpt>
    <trkpt lat="35.2472827" lon="128.8680721"></trkpt>
    <trkpt lat="35.2475948" lon="128.8682876"></trkpt>
    <trkpt lat="35.2477840" lon="128.8686006"></trkpt>
    <trkpt lat="35.2477010" lon="128.8689747"></trkpt>
    <trkpt lat="35.2474255" lon="128.8692267"></trkpt>
    <trkpt lat="35.2471366" lon="128.8694259"></trkpt>
    <trkpt lat="35.2469806" lon="128.8696536"></trkpt>
    <trkpt lat="35.2468046" lon="128.8699178"></trkpt>
    <trkpt lat="35.2465323" lon="128.8701862"></trkpt>
    <trkpt lat="35.2458484" lon="128.8704626"></trkpt>
    <trkpt lat="35.2451976" lon="128.8706903"></trkpt>
    <trkpt lat="35.2449685" lon="128.8699016"></trkpt>
    <trkpt lat="35.2449320" lon="128.8695235"></trkpt>
    <trkpt lat="35.2449685" lon="128.8692999"></trkpt>
    <trkpt lat="35.2451009" lon="128.8688078"></trkpt>
    <trkpt lat="35.2455130" lon="128.8672753"></trkpt>
    <trkpt lat="35.2458617" lon="128.8675965"></trkpt>
    <trkpt lat="35.2460123" lon="128.8676422"></trkpt>
    <trkpt lat="35.2462236" lon="128.8677062"></trkpt>
    <trkpt lat="35.2463829" lon="128.8676656"></trkpt>
    <trkpt lat="35.2465888" lon="128.8677591"></trkpt>
    <trkpt lat="35.2470171" lon="128.8680396"></trkpt>
    <trkpt lat="35.2472827" lon="128.8680721"></trkpt>
    <trkpt lat="35.2475948" lon="128.8682876"></trkpt>
    <trkpt lat="35.2477840" lon="128.8686006"></trkpt>
    <trkpt lat="35.2477010" lon="128.8689747"></trkpt>
    <trkpt lat="35.2474255" lon="128.8692267"></trkpt>
    <trkpt lat="35.2471366" lon="128.8694259"></trkpt>
    <trkpt lat="35.2469806" lon="128.8696536"></trkpt>
    <trkpt lat="35.2468046" lon="128.8699178"></trkpt>
    <trkpt lat="35.2465323" lon="128.8701862"></trkpt>
    <trkpt lat="35.2458484" lon="128.8704626"></trkpt>
    <trkpt lat="35.2451976" lon="128.8706903"></trkpt>
    <trkpt lat="35.2449685" lon="128.8699016"></trkpt>
    <trkpt lat="35.2449320" lon="128.8695235"></trkpt>
    <trkpt lat="35.2449685" lon="128.8692999"></trkpt>
    <trkpt lat="35.2451009" lon="128.8688078"></trkpt>
    <trkpt lat="35.2455130" lon="128.8672753"></trkpt>
    <trkpt lat="35.2458617" lon="128.8675965"></trkpt>
    <trkpt lat="35.2460123" lon="128.8676422"></trkpt>
    <trkpt lat="35.2462236" lon="128.8677062"></trkpt>
    <trkpt lat="35.2463829" lon="128.8676656"></trkpt>
    <trkpt lat="35.2465888" lon="128.8677591"></trkpt>
    <trkpt lat="35.2470171" lon="128.8680396"></trkpt>
    <trkpt lat="35.2472827" lon="128.8680721"></trkpt>
    <trkpt lat="35.2475948" lon="128.8682876"></trkpt>
    <trkpt lat="35.2477840" lon="128.8686006"></trkpt>
    <trkpt lat="35.2477010" lon="128.8689747"></trkpt>
    <trkpt lat="35.2474255" lon="128.8692267"></trkpt>
    <trkpt lat="35.2471366" lon="128.8694259"></trkpt>
    <trkpt lat="35.2469806" lon="128.8696536"></trkpt>
    <trkpt lat="35.2468046" lon="128.8699178"></trkpt>
    <trkpt lat="35.2465323" lon="128.8701862"></trkpt>
    <trkpt lat="35.2458484" lon="128.8704626"></trkpt>
    <trkpt lat="35.2451976" lon="128.8706903"></trkpt>
  </trkseg></trk>
</gpx>