<?xml version="1.0" encoding="UTF-8"?>
<gpx version="1.1" creator="RunNavi nationwide seed" xmlns="http://www.topografix.com/GPX/1/1">
  <metadata>
    <name>철산교 · 안양천 왕복 3.6K</name>
    <copyright author="OpenStreetMap contributors">
      <license>https://opendatacommons.org/licenses/odbl/1-0/</license>
    </copyright>
  </metadata>
  <trk><name>철산교 · 안양천 왕복 3.6K</name><trkseg>
    <trkpt lat="37.4823137" lon="126.8743392"></trkpt>
    <trkpt lat="37.4812312" lon="126.8748374"></trkpt>
    <trkpt lat="37.4803870" lon="126.8752329"></trkpt>
    <trkpt lat="37.4785105" lon="126.8761424"></trkpt>
    <trkpt lat="37.4782392" lon="126.8762594"></trkpt>
    <trkpt lat="37.4781416" lon="126.8759928"></trkpt>
    <trkpt lat="37.4781339" lon="126.8757390"></trkpt>
    <trkpt lat="37.4779009" lon="126.8750424"></trkpt>
    <trkpt lat="37.4778646" lon="126.8746819"></trkpt>
    <trkpt lat="37.4777083" lon="126.8747551"></trkpt>
    <trkpt lat="37.4769718" lon="126.8752003"></trkpt>
    <trkpt lat="37.4763034" lon="126.8756080"></trkpt>
    <trkpt lat="37.4756372" lon="126.8760077"></trkpt>
    <trkpt lat="37.4750071" lon="126.8764422"></trkpt>
    <trkpt lat="37.4742919" lon="126.8769143"></trkpt>
    <trkpt lat="37.4737661" lon="126.8772898"></trkpt>
    <trkpt lat="37.4736256" lon="126.8774105"></trkpt>
    <trkpt lat="37.4731828" lon="126.8777028"></trkpt>
    <trkpt lat="37.4728529" lon="126.8779442"></trkpt>
    <trkpt lat="37.4723228" lon="126.8783358"></trkpt>
    <trkpt lat="37.4719609" lon="126.8786336"></trkpt>
    <trkpt lat="37.4715671" lon="126.8789447"></trkpt>
    <trkpt lat="37.4712670" lon="126.8792505"></trkpt>
    <trkpt lat="37.4712180" lon="126.8792988"></trkpt>
    <trkpt lat="37.4711584" lon="126.8793605"></trkpt>
    <trkpt lat="37.4709200" lon="126.8795080"></trkpt>
    <trkpt lat="37.4703921" lon="126.8799505"></trkpt>
    <trkpt lat="37.4697449" lon="126.8805138"></trkpt>
    <trkpt lat="37.4694000" lon="126.8808142"></trkpt>
    <trkpt lat="37.4691105" lon="126.8810985"></trkpt>
    <trkpt lat="37.4690105" lon="126.8812165"></trkpt>
    <trkpt lat="37.4691105" lon="126.8810985"></trkpt>
    <trkpt lat="37.4694000" lon="126.8808142"></trkpt>
    <trkpt lat="37.4697449" lon="126.8805138"></trkpt>
    <trkpt lat="37.4703921" lon="126.8799505"></trkpt>
    <trkpt lat="37.4709200" lon="126.8795080"></trkpt>
    <trkpt lat="37.4711584" lon="126.8793605"></trkpt>
    <trkpt lat="37.4712180" lon="126.8792988"></trkpt>
    <trkpt lat="37.4712670" lon="126.8792505"></trkpt>
    <trkpt lat="37.4715671" lon="126.8789447"></trkpt>
    <trkpt lat="37.4719609" lon="126.8786336"></trkpt>
    <trkpt lat="37.4723228" lon="126.8783358"></trkpt>
    <trkpt lat="37.4728529" lon="126.8779442"></trkpt>
    <trkpt lat="37.4731828" lon="126.8777028"></trkpt>
    <trkpt lat="37.4736256" lon="126.8774105"></trkpt>
    <trkpt lat="37.4737661" lon="126.8772898"></trkpt>
    <trkpt lat="37.4742919" lon="126.8769143"></trkpt>
    <trkpt lat="37.4750071" lon="126.8764422"></trkpt>
    <trkpt lat="37.4756372" lon="126.8760077"></trkpt>
    <trkpt lat="37.4763034" lon="126.8756080"></trkpt>
    <trkpt lat="37.4769718" lon="126.8752003"></trkpt>
    <trkpt lat="37.4777083" lon="126.8747551"></trkpt>
    <trkpt lat="37.4778646" lon="126.8746819"></trkpt>
    <trkpt lat="37.4779009" lon="126.8750424"></trkpt>
    <trkpt lat="37.4781339" lon="126.8757390"></trkpt>
    <trkpt lat="37.4781416" lon="126.8759928"></trkpt>
    <trkpt lat="37.4782392" lon="126.8762594"></trkpt>
    <trkpt lat="37.4785105" lon="126.8761424"></trkpt>
    <trkpt lat="37.4803870" lon="126.8752329"></trkpt>
    <trkpt lat="37.4812312" lon="126.8748374"></trkpt>
    <trkpt lat="37.4823137" lon="126.8743392"></trkpt>
  </trkseg></trk>
</gpx>