<?xml version="1.0" encoding="UTF-8"?>
<gpx version="1.1" creator="RunNavi nationwide seed" xmlns="http://www.topografix.com/GPX/1/1">
  <metadata>
    <name>송도 센트럴파크 순환 5K</name>
    <copyright author="OpenStreetMap contributors">
      <license>https://opendatacommons.org/licenses/odbl/1-0/</license>
    </copyright>
  </metadata>
  <trk><name>송도 센트럴파크 순환 5K</name><trkseg>
    <trkpt lat="37.3962168" lon="126.6322929"></trkpt>
    <trkpt lat="37.3961534" lon="126.6323121"></trkpt>
    <trkpt lat="37.3960948" lon="126.6323027"></trkpt>
    <trkpt lat="37.3960272" lon="126.6322460"></trkpt>
    <trkpt lat="37.3958676" lon="126.6315803"></trkpt>
    <trkpt lat="37.3974565" lon="126.6305732"></trkpt>
    <trkpt lat="37.3975062" lon="126.6305967"></trkpt>
    <trkpt lat="37.3975470" lon="126.6306416"></trkpt>
    <trkpt lat="37.3977737" lon="126.6312121"></trkpt>
    <trkpt lat="37.3977819" lon="126.6313206"></trkpt>
    <trkpt lat="37.3962168" lon="126.6322929"></trkpt>
    <trkpt lat="37.3961534" lon="126.6323121"></trkpt>
    <trkpt lat="37.3960948" lon="126.6323027"></trkpt>
    <trkpt lat="37.3960272" lon="126.6322460"></trkpt>
    <trkpt lat="37.3958676" lon="126.6315803"></trkpt>
    <trkpt lat="37.3974565" lon="126.6305732"></trkpt>
    <trkpt lat="37.3975062" lon="126.6305967"></trkpt>
    <trkpt lat="37.3975470" lon="126.6306416"></trkpt>
    <trkpt lat="37.3977737" lon="126.6312121"></trkpt>
    <trkpt lat="37.3977819" lon="126.6313206"></trkpt>
    <trkpt lat="37.3962168" lon="126.6322929"></trkpt>
    <trkpt lat="37.3961534" lon="126.6323121"></trkpt>
    <trkpt lat="37.3960948" lon="126.6323027"></trkpt>
    <trkpt lat="37.3960272" lon="126.6322460"></trkpt>
    <trkpt lat="37.3958676" lon="126.6315803"></trkpt>
    <trkpt lat="37.3974565" lon="126.6305732"></trkpt>
    <trkpt lat="37.3975062" lon="126.6305967"></trkpt>
    <trkpt lat="37.3975470" lon="126.6306416"></trkpt>
    <trkpt lat="37.3977737" lon="126.6312121"></trkpt>
    <trkpt lat="37.3977819" lon="126.6313206"></trkpt>
    <trkpt lat="37.3962168" lon="126.6322929"></trkpt>
    <trkpt lat="37.3961534" lon="126.6323121"></trkpt>
    <trkpt lat="37.3960948" lon="126.6323027"></trkpt>
    <trkpt lat="37.3960272" lon="126.6322460"></trkpt>
    <trkpt lat="37.3958676" lon="126.6315803"></trkpt>
    <trkpt lat="37.3974565" lon="126.6305732"></trkpt>
    <trkpt lat="37.3975062" lon="126.6305967"></trkpt>
    <trkpt lat="37.3975470" lon="126.6306416"></trkpt>
    <trkpt lat="37.3977737" lon="126.6312121"></trkpt>
    <trkpt lat="37.3977819" lon="126.6313206"></trkpt>
    <trkpt lat="37.3962168" lon="126.6322929"></trkpt>
    <trkpt lat="37.3961534" lon="126.6323121"></trkpt>
    <trkpt lat="37.3960948" lon="126.6323027"></trkpt>
    <trkpt lat="37.3960272" lon="126.6322460"></trkpt>
    <trkpt lat="37.3958676" lon="126.6315803"></trkpt>
    <trkpt lat="37.3974565" lon="126.6305732"></trkpt>
    <trkpt lat="37.3975062" lon="126.6305967"></trkpt>
    <trkpt lat="37.3975470" lon="126.6306416"></trkpt>
    <trkpt lat="37.3977737" lon="126.6312121"></trkpt>
    <trkpt lat="37.3977819" lon="126.6313206"></trkpt>
    <trkpt lat="37.3962168" lon="126.6322929"></trkpt>
    <trkpt lat="37.3961534" lon="126.6323121"></trkpt>
    <trkpt lat="37.3960948" lon="126.6323027"></trkpt>
    <trkpt lat="37.3960272" lon="126.6322460"></trkpt>
    <trkpt lat="37.3958676" lon="126.6315803"></trkpt>
    <trkpt lat="37.3974565" lon="126.6305732"></trkpt>
    <trkpt lat="37.3975062" lon="126.6305967"></trkpt>
    <trkpt lat="37.3975470" lon="126.6306416"></trkpt>
    <trkpt lat="37.3977737" lon="126.6312121"></trkpt>
    <trkpt lat="37.3977819" lon="126.6313206"></trkpt>
    <trkpt lat="37.3962168" lon="126.6322929"></trkpt>
    <trkpt lat="37.3961534" lon="126.6323121"></trkpt>
    <trkpt lat="37.3960948" lon="126.6323027"></trkpt>
    <trkpt lat="37.3960272" lon="126.6322460"></trkpt>
    <trkpt lat="37.3958676" lon="126.6315803"></trkpt>
    <trkpt lat="37.3974565" lon="126.6305732"></trkpt>
    <trkpt lat="37.3975062" lon="126.6305967"></trkpt>
    <trkpt lat="37.3975470" lon="126.6306416"></trkpt>
    <trkpt lat="37.3977737" lon="126.6312121"></trkpt>
    <trkpt lat="37.3977819" lon="126.6313206"></trkpt>
    <trkpt lat="37.3962168" lon="126.6322929"></trkpt>
    <trkpt lat="37.3961534" lon="126.6323121"></trkpt>
    <trkpt lat="37.3960948" lon="126.6323027"></trkpt>
    <trkpt lat="37.3960272" lon="126.6322460"></trkpt>
    <trkpt lat="37.3958676" lon="126.6315803"></trkpt>
    <trkpt lat="37.3974565" lon="126.6305732"></trkpt>
    <trkpt lat="37.3975062" lon="126.6305967"></trkpt>
    <trkpt lat="37.3975470" lon="126.6306416"></trkpt>
    <trkpt lat="37.3977737" lon="126.6312121"></trkpt>
    <trkpt lat="37.3977819" lon="126.6313206"></trkpt>
    <trkpt lat="37.3962168" lon="126.6322929"></trkpt>
    <trkpt lat="37.3961534" lon="126.6323121"></trkpt>
    <trkpt lat="37.3960948" lon="126.6323027"></trkpt>
    <trkpt lat="37.3960272" lon="126.6322460"></trkpt>
    <trkpt lat="37.3958676" lon="126.6315803"></trkpt>
    <trkpt lat="37.3974565" lon="126.6305732"></trkpt>
    <trkpt lat="37.3975062" lon="126.6305967"></trkpt>
    <trkpt lat="37.3975470" lon="126.6306416"></trkpt>
    <trkpt lat="37.3977737" lon="126.6312121"></trkpt>
    <trkpt lat="37.3977819" lon="126.6313206"></trkpt>
    <trkpt lat="37.3962168" lon="126.6322929"></trkpt>
  </trkseg></trk>
</gpx>