<?xml version="1.0" encoding="UTF-8"?>
<gpx version="1.1" creator="RunNavi nationwide seed" xmlns="http://www.topografix.com/GPX/1/1">
  <metadata>
    <name>인천대공원 순환 5.5K</name>
    <copyright author="OpenStreetMap contributors">
      <license>https://opendatacommons.org/licenses/odbl/1-0/</license>
    </copyright>
  </metadata>
  <trk><name>인천대공원 순환 5.5K</name><trkseg>
    <trkpt lat="37.4578375" lon="126.7581979"></trkpt>
    <trkpt lat="37.4579696" lon="126.7584740"></trkpt>
    <trkpt lat="37.4580595" lon="126.7588491"></trkpt>
    <trkpt lat="37.4581915" lon="126.7598189"></trkpt>
    <trkpt lat="37.4582942" lon="126.7605817"></trkpt>
    <trkpt lat="37.4584388" lon="126.7616557"></trkpt>
    <trkpt lat="37.4584769" lon="126.7617853"></trkpt>
    <trkpt lat="37.4585209" lon="126.7619039"></trkpt>
    <trkpt lat="37.4585906" lon="126.7619902"></trkpt>
    <trkpt lat="37.4586600" lon="126.7620573"></trkpt>
    <trkpt lat="37.4587261" lon="126.7621121"></trkpt>
    <trkpt lat="37.4588004" lon="126.7621609"></trkpt>
    <trkpt lat="37.4588528" lon="126.7621874"></trkpt>
    <trkpt lat="37.4589900" lon="126.7622446"></trkpt>
    <trkpt lat="37.4591401" lon="126.7622469"></trkpt>
    <trkpt lat="37.4593459" lon="126.7622026"></trkpt>
    <trkpt lat="37.4594775" lon="126.7621349"></trkpt>
    <trkpt lat="37.4595868" lon="126.7620345"></trkpt>
    <trkpt lat="37.4596832" lon="126.7618944"></trkpt>
    <trkpt lat="37.4597425" lon="126.7617776"></trkpt>
    <trkpt lat="37.4598018" lon="126.7615721"></trkpt>
    <trkpt lat="37.4598185" lon="126.7613900"></trkpt>
    <trkpt lat="37.4598278" lon="126.7609860"></trkpt>
    <trkpt lat="37.4598337" lon="126.7604995"></trkpt>
    <trkpt lat="37.4598352" lon="126.7603766"></trkpt>
    <trkpt lat="37.4598037" lon="126.7574602"></trkpt>
    <trkpt lat="37.4597147" lon="126.7569745"></trkpt>
    <trkpt lat="37.4596128" lon="126.7567574"></trkpt>
    <trkpt lat="37.4594941" lon="126.7564842"></trkpt>
    <trkpt lat="37.4593940" lon="126.7561643"></trkpt>
    <trkpt lat="37.4593310" lon="126.7558420"></trkpt>
    <trkpt lat="37.4593106" lon="126.7556739"></trkpt>
    <trkpt lat="37.4592606" lon="126.7556296"></trkpt>
    <trkpt lat="37.4592488" lon="126.7556296"></trkpt>
    <trkpt lat="37.4591939" lon="126.7556296"></trkpt>
    <trkpt lat="37.4575529" lon="126.7578413"></trkpt>
    <trkpt lat="37.4575678" lon="126.7579110"></trkpt>
    <trkpt lat="37.4576966" lon="126.7580397"></trkpt>
    <trkpt lat="37.4578190" lon="126.7581792"></trkpt>
    <trkpt lat="37.4578375" lon="126.7581979"></trkpt>
    <trkpt lat="37.4579696" lon="126.7584740"></trkpt>
    <trkpt lat="37.4580595" lon="126.7588491"></trkpt>
    <trkpt lat="37.4581915" lon="126.7598189"></trkpt>
    <trkpt lat="37.4582942" lon="126.7605817"></trkpt>
    <trkpt lat="37.4584388" lon="126.7616557"></trkpt>
    <trkpt lat="37.4584769" lon="126.7617853"></trkpt>
    <trkpt lat="37.4585209" lon="126.7619039"></trkpt>
    <trkpt lat="37.4585906" lon="126.7619902"></trkpt>
    <trkpt lat="37.4586600" lon="126.7620573"></trkpt>
    <trkpt lat="37.4587261" lon="126.7621121"></trkpt>
    <trkpt lat="37.4588004" lon="126.7621609"></trkpt>
    <trkpt lat="37.4588528" lon="126.7621874"></trkpt>
    <trkpt lat="37.4589900" lon="126.7622446"></trkpt>
    <trkpt lat="37.4591401" lon="126.7622469"></trkpt>
    <trkpt lat="37.4593459" lon="126.7622026"></trkpt>
    <trkpt lat="37.4594775" lon="126.7621349"></trkpt>
    <trkpt lat="37.4595868" lon="126.7620345"></trkpt>
    <trkpt lat="37.4596832" lon="126.7618944"></trkpt>
    <trkpt lat="37.4597425" lon="126.7617776"></trkpt>
    <trkpt lat="37.4598018" lon="126.7615721"></trkpt>
    <trkpt lat="37.4598185" lon="126.7613900"></trkpt>
    <trkpt lat="37.4598278" lon="126.7609860"></trkpt>
    <trkpt lat="37.4598337" lon="126.7604995"></trkpt>
    <trkpt lat="37.4598352" lon="126.7603766"></trkpt>
    <trkpt lat="37.4598037" lon="126.7574602"></trkpt>
    <trkpt lat="37.4597147" lon="126.7569745"></trkpt>
    <trkpt lat="37.4596128" lon="126.7567574"></trkpt>
    <trkpt lat="37.4594941" lon="126.7564842"></trkpt>
    <trkpt lat="37.4593940" lon="126.7561643"></trkpt>
    <trkpt lat="37.4593310" lon="126.7558420"></trkpt>
    <trkpt lat="37.4593106" lon="126.7556739"></trkpt>
    <trkpt lat="37.4592606" lon="126.7556296"></trkpt>
    <trkpt lat="37.4592488" lon="126.7556296"></trkpt>
    <trkpt lat="37.4591939" lon="126.7556296"></trkpt>
    <trkpt lat="37.4575529" lon="126.7578413"></trkpt>
    <trkpt lat="37.4575678" lon="126.7579110"></trkpt>
    <trkpt lat="37.4576966" lon="126.7580397"></trkpt>
    <trkpt lat="37.4578190" lon="126.7581792"></trkpt>
    <trkpt lat="37.4578375" lon="126.7581979"></trkpt>
    <trkpt lat="37.4579696" lon="126.7584740"></trkpt>
    <trkpt lat="37.4580595" lon="126.7588491"></trkpt>
    <trkpt lat="37.4581915" lon="126.7598189"></trkpt>
    <trkpt lat="37.4582942" lon="126.7605817"></trkpt>
    <trkpt lat="37.4584388" lon="126.7616557"></trkpt>
    <trkpt lat="37.4584769" lon="126.7617853"></trkpt>
    <trkpt lat="37.4585209" lon="126.7619039"></trkpt>
    <trkpt lat="37.4585906" lon="126.7619902"></trkpt>
    <trkpt lat="37.4586600" lon="126.7620573"></trkpt>
    <trkpt lat="37.4587261" lon="126.7621121"></trkpt>
    <trkpt lat="37.4588004" lon="126.7621609"></trkpt>
    <trkpt lat="37.4588528" lon="126.7621874"></trkpt>
    <trkpt lat="37.4589900" lon="126.7622446"></trkpt>
    <trkpt lat="37.4591401" lon="126.7622469"></trkpt>
    <trkpt lat="37.4593459" lon="126.7622026"></trkpt>
    <trkpt lat="37.4594775" lon="126.7621349"></trkpt>
    <trkpt lat="37.4595868" lon="126.7620345"></trkpt>
    <trkpt lat="37.4596832" lon="126.7618944"></trkpt>
    <trkpt lat="37.4597425" lon="126.7617776"></trkpt>
    <trkpt lat="37.4598018" lon="126.7615721"></trkpt>
    <trkpt lat="37.4598185" lon="126.7613900"></trkpt>
    <trkpt lat="37.4598278" lon="126.7609860"></trkpt>
    <trkpt lat="37.4598337" lon="126.7604995"></trkpt>
    <trkpt lat="37.4598352" lon="126.7603766"></trkpt>
    <trkpt lat="37.4598037" lon="126.7574602"></trkpt>
    <trkpt lat="37.4597147" lon="126.7569745"></trkpt>
    <trkpt lat="37.4596128" lon="126.7567574"></trkpt>
    <trkpt lat="37.4594941" lon="126.7564842"></trkpt>
    <trkpt lat="37.4593940" lon="126.7561643"></trkpt>
    <trkpt lat="37.4593310" lon="126.7558420"></trkpt>
    <trkpt lat="37.4593106" lon="126.7556739"></trkpt>
    <trkpt lat="37.4592606" lon="126.7556296"></trkpt>
    <trkpt lat="37.4592488" lon="126.7556296"></trkpt>
    <trkpt lat="37.4591939" lon="126.7556296"></trkpt>
    <trkpt lat="37.4575529" lon="126.7578413"></trkpt>
    <trkpt lat="37.4575678" lon="126.7579110"></trkpt>
    <trkpt lat="37.4576966" lon="126.7580397"></trkpt>
    <trkpt lat="37.4578190" lon="126.7581792"></trkpt>
    <trkpt lat="37.4578375" lon="126.7581979"></trkpt>
    <trkpt lat="37.4579696" lon="126.7584740"></trkpt>
    <trkpt lat="37.4580595" lon="126.7588491"></trkpt>
    <trkpt lat="37.4581915" lon="126.7598189"></trkpt>
    <trkpt lat="37.4582942" lon="126.7605817"></trkpt>
    <trkpt lat="37.4584388" lon="126.7616557"></trkpt>
    <trkpt lat="37.4584769" lon="126.7617853"></trkpt>
    <trkpt lat="37.4585209" lon="126.7619039"></trkpt>
    <trkpt lat="37.4585906" lon="126.7619902"></trkpt>
    <trkpt lat="37.4586600" lon="126.7620573"></trkpt>
    <trkpt lat="37.4587261" lon="126.7621121"></trkpt>
    <trkpt lat="37.4588004" lon="126.7621609"></trkpt>
    <trkpt lat="37.4588528" lon="126.7621874"></trkpt>
    <trkpt lat="37.4589900" lon="126.7622446"></trkpt>
    <trkpt lat="37.4591401" lon="126.7622469"></trkpt>
    <trkpt lat="37.4593459" lon="126.7622026"></trkpt>
    <trkpt lat="37.4594775" lon="126.7621349"></trkpt>
    <trkpt lat="37.4595868" lon="126.7620345"></trkpt>
    <trkpt lat="37.4596832" lon="126.7618944"></trkpt>
    <trkpt lat="37.4597425" lon="126.7617776"></trkpt>
    <trkpt lat="37.4598018" lon="126.7615721"></trkpt>
    <trkpt lat="37.4598185" lon="126.7613900"></trkpt>
    <trkpt lat="37.4598278" lon="126.7609860"></trkpt>
    <trkpt lat="37.4598337" lon="126.7604995"></trkpt>
    <trkpt lat="37.4598352" lon="126.7603766"></trkpt>
    <trkpt lat="37.4598037" lon="126.7574602"></trkpt>
    <trkpt lat="37.4597147" lon="126.7569745"></trkpt>
    <trkpt lat="37.4596128" lon="126.7567574"></trkpt>
    <trkpt lat="37.4594941" lon="126.7564842"></trkpt>
    <trkpt lat="37.4593940" lon="126.7561643"></trkpt>
    <trkpt lat="37.4593310" lon="126.7558420"></trkpt>
    <trkpt lat="37.4593106" lon="126.7556739"></trkpt>
    <trkpt lat="37.4592606" lon="126.7556296"></trkpt>
    <trkpt lat="37.4592488" lon="126.7556296"></trkpt>
    <trkpt lat="37.4591939" lon="126.7556296"></trkpt>
    <trkpt lat="37.4575529" lon="126.7578413"></trkpt>
    <trkpt lat="37.4575678" lon="126.7579110"></trkpt>
    <trkpt lat="37.4576966" lon="126.7580397"></trkpt>
    <trkpt lat="37.4578190" lon="126.7581792"></trkpt>
    <trkpt lat="37.4578375" lon="126.7581979"></trkpt>
  </trkseg></trk>
</gpx>