<?xml version="1.0" encoding="UTF-8"?>
<gpx version="1.1" creator="RunNavi nationwide seed" xmlns="http://www.topografix.com/GPX/1/1">
  <metadata>
    <name>전주교 · 전주천 왕복 10K</name>
    <copyright author="OpenStreetMap contributors">
      <license>https://opendatacommons.org/licenses/odbl/1-0/</license>
    </copyright>
  </metadata>
  <trk><name>전주교 · 전주천 왕복 10K</name><trkseg>
    <trkpt lat="35.8168009" lon="127.1405446"></trkpt>
    <trkpt lat="35.8166975" lon="127.1401633"></trkpt>
    <trkpt lat="35.8166829" lon="127.1401199"></trkpt>
    <trkpt lat="35.8166735" lon="127.1400922"></trkpt>
    <trkpt lat="35.8165973" lon="127.1397942"></trkpt>
    <trkpt lat="35.8166399" lon="127.1396501"></trkpt>
    <trkpt lat="35.8166529" lon="127.1396063"></trkpt>
    <trkpt lat="35.8169397" lon="127.1395017"></trkpt>
    <trkpt lat="35.8169725" lon="127.1394905"></trkpt>
    <trkpt lat="35.8170023" lon="127.1394804"></trkpt>
    <trkpt lat="35.8173813" lon="127.1393004"></trkpt>
    <trkpt lat="35.8181109" lon="127.1389148"></trkpt>
    <trkpt lat="35.8180886" lon="127.1388595"></trkpt>
    <trkpt lat="35.8180588" lon="127.1387740"></trkpt>
    <trkpt lat="35.8180344" lon="127.1387042"></trkpt>
    <trkpt lat="35.8182429" lon="127.1385835"></trkpt>
    <trkpt lat="35.8185557" lon="127.1383988"></trkpt>
    <trkpt lat="35.8188130" lon="127.1382463"></trkpt>
    <trkpt lat="35.8190229" lon="127.1380553"></trkpt>
    <trkpt lat="35.8193188" lon="127.1377015"></trkpt>
    <trkpt lat="35.8193807" lon="127.1376274"></trkpt>
    <trkpt lat="35.8196743" lon="127.1372787"></trkpt>
    <trkpt lat="35.8202210" lon="127.1366522"></trkpt>
    <trkpt lat="35.8203746" lon="127.1364888"></trkpt>
    <trkpt lat="35.8206120" lon="127.1362208"></trkpt>
    <trkpt lat="35.8206225" lon="127.1361714"></trkpt>
    <trkpt lat="35.8206307" lon="127.1361366"></trkpt>
    <trkpt lat="35.8206910" lon="127.1360649"></trkpt>
    <trkpt lat="35.8207220" lon="127.1360304"></trkpt>
    <trkpt lat="35.8208034" lon="127.1359311"></trkpt>
    <trkpt lat="35.8208200" lon="127.1359294"></trkpt>
    <trkpt lat="35.8208432" lon="127.1359237"></trkpt>
    <trkpt lat="35.8208815" lon="127.1359179"></trkpt>
    <trkpt lat="35.8211380" lon="127.1356225"></trkpt>
    <trkpt lat="35.8215178" lon="127.1351948"></trkpt>
    <trkpt lat="35.8216819" lon="127.1350116"></trkpt>
    <trkpt lat="35.8218205" lon="127.1348823"></trkpt>
    <trkpt lat="35.8224108" lon="127.1342110"></trkpt>
    <trkpt lat="35.8225392" lon="127.1340652"></trkpt>
    <trkpt lat="35.8230915" lon="127.1334387"></trkpt>
    <trkpt lat="35.8232179" lon="127.1333041"></trkpt>
    <trkpt lat="35.8234822" lon="127.1330136"></trkpt>
    <trkpt lat="35.8236602" lon="127.1328648"></trkpt>
    <trkpt lat="35.8237372" lon="127.1328097"></trkpt>
    <trkpt lat="35.8239043" lon="127.1326724"></trkpt>
    <trkpt lat="35.8239997" lon="127.1325822"></trkpt>
    <trkpt lat="35.8241185" lon="127.1324897"></trkpt>
    <trkpt lat="35.8242648" lon="127.1323759"></trkpt>
    <trkpt lat="35.8245425" lon="127.1321611"></trkpt>
    <trkpt lat="35.8248605" lon="127.1319162"></trkpt>
    <trkpt lat="35.8248761" lon="127.1319041"></trkpt>
    <trkpt lat="35.8248961" lon="127.1318633"></trkpt>
    <trkpt lat="35.8249588" lon="127.1318186"></trkpt>
    <trkpt lat="35.8250335" lon="127.1317655"></trkpt>
    <trkpt lat="35.8250646" lon="127.1317622"></trkpt>
    <trkpt lat="35.8251147" lon="127.1317226"></trkpt>
    <trkpt lat="35.8254079" lon="127.1314912"></trkpt>
    <trkpt lat="35.8265341" lon="127.1305889"></trkpt>
    <trkpt lat="35.8269296" lon="127.1303001"></trkpt>
    <trkpt lat="35.8269610" lon="127.1302772"></trkpt>
    <trkpt lat="35.8269731" lon="127.1302522"></trkpt>
    <trkpt lat="35.8269990" lon="127.1301653"></trkpt>
    <trkpt lat="35.8270380" lon="127.1301713"></trkpt>
    <trkpt lat="35.8270585" lon="127.1301744"></trkpt>
    <trkpt lat="35.8270841" lon="127.1301511"></trkpt>
    <trkpt lat="35.8271061" lon="127.1301386"></trkpt>
    <trkpt lat="35.8271698" lon="127.1301024"></trkpt>
    <trkpt lat="35.8272034" lon="127.1300834"></trkpt>
    <trkpt lat="35.8272232" lon="127.1300787"></trkpt>
    <trkpt lat="35.8272261" lon="127.1300659"></trkpt>
    <trkpt lat="35.8272370" lon="127.1300542"></trkpt>
    <trkpt lat="35.8272685" lon="127.1300206"></trkpt>
    <trkpt lat="35.8273346" lon="127.1300401"></trkpt>
    <trkpt lat="35.8273766" lon="127.1300332"></trkpt>
    <trkpt lat="35.8280988" lon="127.1297109"></trkpt>
    <trkpt lat="35.8281577" lon="127.1296874"></trkpt>
    <trkpt lat="35.8285255" lon="127.1295210"></trkpt>
    <trkpt lat="35.8296356" lon="127.1290458"></trkpt>
    <trkpt lat="35.8296387" lon="127.1290438"></trkpt>
    <trkpt lat="35.8296683" lon="127.1290243"></trkpt>
    <trkpt lat="35.8296803" lon="127.1290026"></trkpt>
    <trkpt lat="35.8296857" lon="127.1289894"></trkpt>
    <trkpt lat="35.8297283" lon="127.1289686"></trkpt>
    <trkpt lat="35.8297710" lon="127.1289479"></trkpt>
    <trkpt lat="35.8298555" lon="127.1289143"></trkpt>
    <trkpt lat="35.8298723" lon="127.1289191"></trkpt>
    <trkpt lat="35.8298868" lon="127.1289241"></trkpt>
    <trkpt lat="35.8299319" lon="127.1289001"></trkpt>
    <trkpt lat="35.8300103" lon="127.1288585"></trkpt>
    <trkpt lat="35.8302251" lon="127.1287253"></trkpt>
    <trkpt lat="35.8306363" lon="127.1284729"></trkpt>
    <trkpt lat="35.8310408" lon="127.1281890"></trkpt>
    <trkpt lat="35.8313620" lon="127.1279634"></trkpt>
    <trkpt lat="35.8321901" lon="127.1273745"></trkpt>
    <trkpt lat="35.8327869" lon="127.1269631"></trkpt>
    <trkpt lat="35.8328958" lon="127.1268770"></trkpt>
    <trkpt lat="35.8329084" lon="127.1269064"></trkpt>
    <trkpt lat="35.8329285" lon="127.1268245"></trkpt>
    <trkpt lat="35.8330491" lon="127.1266763"></trkpt>
    <trkpt lat="35.8331541" lon="127.1265885"></trkpt>
    <trkpt lat="35.8332016" lon="127.1265561"></trkpt>
    <trkpt lat="35.8334697" lon="127.1262894"></trkpt>
    <trkpt lat="35.8336416" lon="127.1260583"></trkpt>
    <trkpt lat="35.8338653" lon="127.1257156"></trkpt>
    <trkpt lat="35.8339903" lon="127.1255217"></trkpt>
    <trkpt lat="35.8340180" lon="127.1254788"></trkpt>
    <trkpt lat="35.8340379" lon="127.1254406"></trkpt>
    <trkpt lat="35.8341178" lon="127.1252872"></trkpt>
    <trkpt lat="35.8342698" lon="127.1251806"></trkpt>
    <trkpt lat="35.8344294" lon="127.1251941"></trkpt>
    <trkpt lat="35.8344754" lon="127.1252146"></trkpt>
    <trkpt lat="35.8346004" lon="127.1252547"></trkpt>
    <trkpt lat="35.8346724" lon="127.1252821"></trkpt>
    <trkpt lat="35.8347761" lon="127.1249966"></trkpt>
    <trkpt lat="35.8348204" lon="127.1248324"></trkpt>
    <trkpt lat="35.8348152" lon="127.1246878"></trkpt>
    <trkpt lat="35.8347842" lon="127.1245278"></trkpt>
    <trkpt lat="35.8348049" lon="127.1243987"></trkpt>
    <trkpt lat="35.8349082" lon="127.1242076"></trkpt>
    <trkpt lat="35.8349546" lon="127.1240579"></trkpt>
    <trkpt lat="35.8349959" lon="127.1238772"></trkpt>
    <trkpt lat="35.8352386" lon="127.1232524"></trkpt>
    <trkpt lat="35.8353316" lon="127.1230924"></trkpt>
    <trkpt lat="35.8353739" lon="127.1230259"></trkpt>
    <trkpt lat="35.8354400" lon="127.1229220"></trkpt>
    <trkpt lat="35.8355071" lon="127.1228084"></trkpt>
    <trkpt lat="35.8356104" lon="127.1225864"></trkpt>
    <trkpt lat="35.8358272" lon="127.1222663"></trkpt>
    <trkpt lat="35.8359511" lon="127.1218377"></trkpt>
    <trkpt lat="35.8361577" lon="127.1215021"></trkpt>
    <trkpt lat="35.8362060" lon="127.1214467"></trkpt>
    <trkpt lat="35.8363384" lon="127.1212801"></trkpt>
    <trkpt lat="35.8364378" lon="127.1211696"></trkpt>
    <trkpt lat="35.8365243" lon="127.1210735"></trkpt>
    <trkpt lat="35.8367010" lon="127.1208365"></trkpt>
    <trkpt lat="35.8368152" lon="127.1206098"></trkpt>
    <trkpt lat="35.8368984" lon="127.1203654"></trkpt>
    <trkpt lat="35.8370775" lon="127.1200555"></trkpt>
    <trkpt lat="35.8373226" lon="127.1197183"></trkpt>
    <trkpt lat="35.8374707" lon="127.1195675"></trkpt>
    <trkpt lat="35.8375602" lon="127.1194576"></trkpt>
    <trkpt lat="35.8376684" lon="127.1192821"></trkpt>
    <trkpt lat="35.8377738" lon="127.1191476"></trkpt>
    <trkpt lat="35.8379985" lon="127.1189207"></trkpt>
    <trkpt lat="35.8381877" lon="127.1186400"></trkpt>
    <trkpt lat="35.8383028" lon="127.1183020"></trkpt>
    <trkpt lat="35.8384180" lon="127.1179780"></trkpt>
    <trkpt lat="35.8385296" lon="127.1176969"></trkpt>
    <trkpt lat="35.8385667" lon="127.1175427"></trkpt>
    <trkpt lat="35.8385692" lon="127.1174483"></trkpt>
    <trkpt lat="35.8385469" lon="127.1172662"></trkpt>
    <trkpt lat="35.8385403" lon="127.1171224"></trkpt>
    <trkpt lat="35.8385524" lon="127.1167035"></trkpt>
    <trkpt lat="35.8385418" lon="127.1164541"></trkpt>
    <trkpt lat="35.8384903" lon="127.1160293"></trkpt>
    <trkpt lat="35.8384921" lon="127.1157192"></trkpt>
    <trkpt lat="35.8384906" lon="127.1155807"></trkpt>
    <trkpt lat="35.8384513" lon="127.1153712"></trkpt>
    <trkpt lat="35.8383847" lon="127.1151052"></trkpt>
    <trkpt lat="35.8383875" lon="127.1149611"></trkpt>
    <trkpt lat="35.8384103" lon="127.1146698"></trkpt>
    <trkpt lat="35.8384110" lon="127.1144738"></trkpt>
    <trkpt lat="35.8384060" lon="127.1143716"></trkpt>
    <trkpt lat="35.8383884" lon="127.1141579"></trkpt>
    <trkpt lat="35.8383917" lon="127.1139345"></trkpt>
    <trkpt lat="35.8384018" lon="127.1136810"></trkpt>
    <trkpt lat="35.8384175" lon="127.1135088"></trkpt>
    <trkpt lat="35.8384445" lon="127.1132347"></trkpt>
    <trkpt lat="35.8384810" lon="127.1130600"></trkpt>
    <trkpt lat="35.8385116" lon="127.1127898"></trkpt>
    <trkpt lat="35.8386115" lon="127.1124633"></trkpt>
    <trkpt lat="35.8387245" lon="127.1120667"></trkpt>
    <trkpt lat="35.8387912" lon="127.1118913"></trkpt>
    <trkpt lat="35.8388922" lon="127.1117002"></trkpt>
    <trkpt lat="35.8389289" lon="127.1116308"></trkpt>
    <trkpt lat="35.8390560" lon="127.1113158"></trkpt>
    <trkpt lat="35.8391452" lon="127.1111666"></trkpt>
    <trkpt lat="35.8392816" lon="127.1109914"></trkpt>
    <trkpt lat="35.8393652" lon="127.1108553"></trkpt>
    <trkpt lat="35.8394599" lon="127.1106347"></trkpt>
    <trkpt lat="35.8395480" lon="127.1104767"></trkpt>
    <trkpt lat="35.8396987" lon="127.1102703"></trkpt>
    <trkpt lat="35.8397940" lon="127.1100644"></trkpt>
    <trkpt lat="35.8398592" lon="127.1097897"></trkpt>
    <trkpt lat="35.8399746" lon="127.1095826"></trkpt>
    <trkpt lat="35.8401828" lon="127.1092307"></trkpt>
    <trkpt lat="35.8403064" lon="127.1090970"></trkpt>
    <trkpt lat="35.8404448" lon="127.1089591"></trkpt>
    <trkpt lat="35.8406088" lon="127.1087157"></trkpt>
    <trkpt lat="35.8407380" lon="127.1084957"></trkpt>
    <trkpt lat="35.8408852" lon="127.1082360"></trkpt>
    <trkpt lat="35.8411026" lon="127.1078698"></trkpt>
    <trkpt lat="35.8414491" lon="127.1073005"></trkpt>
    <trkpt lat="35.8415159" lon="127.1071974"></trkpt>
    <trkpt lat="35.8417959" lon="127.1067961"></trkpt>
    <trkpt lat="35.8421264" lon="127.1064587"></trkpt>
    <trkpt lat="35.8423794" lon="127.1062726"></trkpt>
    <trkpt lat="35.8428080" lon="127.1060991"></trkpt>
    <trkpt lat="35.8432004" lon="127.1059658"></trkpt>
    <trkpt lat="35.8435071" lon="127.1058773"></trkpt>
    <trkpt lat="35.8436725" lon="127.1058942"></trkpt>
    <trkpt lat="35.8442104" lon="127.1060216"></trkpt>
    <trkpt lat="35.8444749" lon="127.1061113"></trkpt>
    <trkpt lat="35.8446667" lon="127.1061869"></trkpt>
    <trkpt lat="35.8447958" lon="127.1062146"></trkpt>
    <trkpt lat="35.8450009" lon="127.1062074"></trkpt>
    <trkpt lat="35.8451265" lon="127.1061836"></trkpt>
    <trkpt lat="35.8453425" lon="127.1061851"></trkpt>
    <trkpt lat="35.8455658" lon="127.1062085"></trkpt>
    <trkpt lat="35.8458181" lon="127.1062756"></trkpt>
    <trkpt lat="35.8461589" lon="127.1064150"></trkpt>
    <trkpt lat="35.8461895" lon="127.1064426"></trkpt>
    <trkpt lat="35.8461589" lon="127.1064150"></trkpt>
    <trkpt lat="35.8458181" lon="127.1062756"></trkpt>
    <trkpt lat="35.8455658" lon="127.1062085"></trkpt>
    <trkpt lat="35.8453425" lon="127.1061851"></trkpt>
    <trkpt lat="35.8451265" lon="127.1061836"></trkpt>
    <trkpt lat="35.8450009" lon="127.1062074"></trkpt>
    <trkpt lat="35.8447958" lon="127.1062146"></trkpt>
    <trkpt lat="35.8446667" lon="127.1061869"></trkpt>
    <trkpt lat="35.8444749" lon="127.1061113"></trkpt>
    <trkpt lat="35.8442104" lon="127.1060216"></trkpt>
    <trkpt lat="35.8436725" lon="127.1058942"></trkpt>
    <trkpt lat="35.8435071" lon="127.1058773"></trkpt>
    <trkpt lat="35.8432004" lon="127.1059658"></trkpt>
    <trkpt lat="35.8428080" lon="127.1060991"></trkpt>
    <trkpt lat="35.8423794" lon="127.1062726"></trkpt>
    <trkpt lat="35.8421264" lon="127.1064587"></trkpt>
    <trkpt lat="35.8417959" lon="127.1067961"></trkpt>
    <trkpt lat="35.8415159" lon="127.1071974"></trkpt>
    <trkpt lat="35.8414491" lon="127.1073005"></trkpt>
    <trkpt lat="35.8411026" lon="127.1078698"></trkpt>
    <trkpt lat="35.8408852" lon="127.1082360"></trkpt>
    <trkpt lat="35.8407380" lon="127.1084957"></trkpt>
    <trkpt lat="35.8406088" lon="127.1087157"></trkpt>
    <trkpt lat="35.8404448" lon="127.1089591"></trkpt>
    <trkpt lat="35.8403064" lon="127.1090970"></trkpt>
    <trkpt lat="35.8401828" lon="127.1092307"></trkpt>
    <trkpt lat="35.8399746" lon="127.1095826"></trkpt>
    <trkpt lat="35.8398592" lon="127.1097897"></trkpt>
    <trkpt lat="35.8397940" lon="127.1100644"></trkpt>
    <trkpt lat="35.8396987" lon="127.1102703"></trkpt>
    <trkpt lat="35.8395480" lon="127.1104767"></trkpt>
    <trkpt lat="35.8394599" lon="127.1106347"></trkpt>
    <trkpt lat="35.8393652" lon="127.1108553"></trkpt>
    <trkpt lat="35.8392816" lon="127.1109914"></trkpt>
    <trkpt lat="35.8391452" lon="127.1111666"></trkpt>
    <trkpt lat="35.8390560" lon="127.1113158"></trkpt>
    <trkpt lat="35.8389289" lon="127.1116308"></trkpt>
    <trkpt lat="35.8388922" lon="127.1117002"></trkpt>
    <trkpt lat="35.8387912" lon="127.1118913"></trkpt>
    <trkpt lat="35.8387245" lon="127.1120667"></trkpt>
    <trkpt lat="35.8386115" lon="127.1124633"></trkpt>
    <trkpt lat="35.8385116" lon="127.1127898"></trkpt>
    <trkpt lat="35.8384810" lon="127.1130600"></trkpt>
    <trkpt lat="35.8384445" lon="127.1132347"></trkpt>
    <trkpt lat="35.8384175" lon="127.1135088"></trkpt>
    <trkpt lat="35.8384018" lon="127.1136810"></trkpt>
    <trkpt lat="35.8383917" lon="127.1139345"></trkpt>
    <trkpt lat="35.8383884" lon="127.1141579"></trkpt>
    <trkpt lat="35.8384060" lon="127.1143716"></trkpt>
    <trkpt lat="35.8384110" lon="127.1144738"></trkpt>
    <trkpt lat="35.8384103" lon="127.1146698"></trkpt>
    <trkpt lat="35.8383875" lon="127.1149611"></trkpt>
    <trkpt lat="35.8383847" lon="127.1151052"></trkpt>
    <trkpt lat="35.8384513" lon="127.1153712"></trkpt>
    <trkpt lat="35.8384906" lon="127.1155807"></trkpt>
    <trkpt lat="35.8384921" lon="127.1157192"></trkpt>
    <trkpt lat="35.8384903" lon="127.1160293"></trkpt>
    <trkpt lat="35.8385418" lon="127.1164541"></trkpt>
    <trkpt lat="35.8385524" lon="127.1167035"></trkpt>
    <trkpt lat="35.8385403" lon="127.1171224"></trkpt>
    <trkpt lat="35.8385469" lon="127.1172662"></trkpt>
    <trkpt lat="35.8385692" lon="127.1174483"></trkpt>
    <trkpt lat="35.8385667" lon="127.1175427"></trkpt>
    <trkpt lat="35.8385296" lon="127.1176969"></trkpt>
    <trkpt lat="35.8384180" lon="127.1179780"></trkpt>
    <trkpt lat="35.8383028" lon="127.1183020"></trkpt>
    <trkpt lat="35.8381877" lon="127.1186400"></trkpt>
    <trkpt lat="35.8379985" lon="127.1189207"></trkpt>
    <trkpt lat="35.8377738" lon="127.1191476"></trkpt>
    <trkpt lat="35.8376684" lon="127.1192821"></trkpt>
    <trkpt lat="35.8375602" lon="127.1194576"></trkpt>
    <trkpt lat="35.8374707" lon="127.1195675"></trkpt>
    <trkpt lat="35.8373226" lon="127.1197183"></trkpt>
    <trkpt lat="35.8370775" lon="127.1200555"></trkpt>
    <trkpt lat="35.8368984" lon="127.1203654"></trkpt>
    <trkpt lat="35.8368152" lon="127.1206098"></trkpt>
    <trkpt lat="35.8367010" lon="127.1208365"></trkpt>
    <trkpt lat="35.8365243" lon="127.1210735"></trkpt>
    <trkpt lat="35.8364378" lon="127.1211696"></trkpt>
    <trkpt lat="35.8363384" lon="127.1212801"></trkpt>
    <trkpt lat="35.8362060" lon="127.1214467"></trkpt>
    <trkpt lat="35.8361577" lon="127.1215021"></trkpt>
    <trkpt lat="35.8359511" lon="127.1218377"></trkpt>
    <trkpt lat="35.8358272" lon="127.1222663"></trkpt>
    <trkpt lat="35.8356104" lon="127.1225864"></trkpt>
    <trkpt lat="35.8355071" lon="127.1228084"></trkpt>
    <trkpt lat="35.8354400" lon="127.1229220"></trkpt>
    <trkpt lat="35.8353739" lon="127.1230259"></trkpt>
    <trkpt lat="35.8353316" lon="127.1230924"></trkpt>
    <trkpt lat="35.8352386" lon="127.1232524"></trkpt>
    <trkpt lat="35.8349959" lon="127.1238772"></trkpt>
    <trkpt lat="35.8349546" lon="127.1240579"></trkpt>
    <trkpt lat="35.8349082" lon="127.1242076"></trkpt>
    <trkpt lat="35.8348049" lon="127.1243987"></trkpt>
    <trkpt lat="35.8347842" lon="127.1245278"></trkpt>
    <trkpt lat="35.8348152" lon="127.1246878"></trkpt>
    <trkpt lat="35.8348204" lon="127.1248324"></trkpt>
    <trkpt lat="35.8347761" lon="127.1249966"></trkpt>
    <trkpt lat="35.8346724" lon="127.1252821"></trkpt>
    <trkpt lat="35.8346004" lon="127.1252547"></trkpt>
    <trkpt lat="35.8344754" lon="127.1252146"></trkpt>
    <trkpt lat="35.8344294" lon="127.1251941"></trkpt>
    <trkpt lat="35.8342698" lon="127.1251806"></trkpt>
    <trkpt lat="35.8341178" lon="127.1252872"></trkpt>
    <trkpt lat="35.8340379" lon="127.1254406"></trkpt>
    <trkpt lat="35.8340180" lon="127.1254788"></trkpt>
    <trkpt lat="35.8339903" lon="127.1255217"></trkpt>
    <trkpt lat="35.8338653" lon="127.1257156"></trkpt>
    <trkpt lat="35.8336416" lon="127.1260583"></trkpt>
    <trkpt lat="35.8334697" lon="127.1262894"></trkpt>
    <trkpt lat="35.8332016" lon="127.1265561"></trkpt>
    <trkpt lat="35.8331541" lon="127.1265885"></trkpt>
    <trkpt lat="35.8330491" lon="127.1266763"></trkpt>
    <trkpt lat="35.8329285" lon="127.1268245"></trkpt>
    <trkpt lat="35.8329084" lon="127.1269064"></trkpt>
    <trkpt lat="35.8328958" lon="127.1268770"></trkpt>
    <trkpt lat="35.8327869" lon="127.1269631"></trkpt>
    <trkpt lat="35.8321901" lon="127.1273745"></trkpt>
    <trkpt lat="35.8313620" lon="127.1279634"></trkpt>
    <trkpt lat="35.8310408" lon="127.1281890"></trkpt>
    <trkpt lat="35.8306363" lon="127.1284729"></trkpt>
    <trkpt lat="35.8302251" lon="127.1287253"></trkpt>
    <trkpt lat="35.8300103" lon="127.1288585"></trkpt>
    <trkpt lat="35.8299319" lon="127.1289001"></trkpt>
    <trkpt lat="35.8298868" lon="127.1289241"></trkpt>
    <trkpt lat="35.8298723" lon="127.1289191"></trkpt>
    <trkpt lat="35.8298555" lon="127.1289143"></trkpt>
    <trkpt lat="35.8297710" lon="127.1289479"></trkpt>
    <trkpt lat="35.8297283" lon="127.1289686"></trkpt>
    <trkpt lat="35.8296857" lon="127.1289894"></trkpt>
    <trkpt lat="35.8296803" lon="127.1290026"></trkpt>
    <trkpt lat="35.8296683" lon="127.1290243"></trkpt>
    <trkpt lat="35.8296387" lon="127.1290438"></trkpt>
    <trkpt lat="35.8296356" lon="127.1290458"></trkpt>
    <trkpt lat="35.8285255" lon="127.1295210"></trkpt>
    <trkpt lat="35.8281577" lon="127.1296874"></trkpt>
    <trkpt lat="35.8280988" lon="127.1297109"></trkpt>
    <trkpt lat="35.8273766" lon="127.1300332"></trkpt>
    <trkpt lat="35.8273346" lon="127.1300401"></trkpt>
    <trkpt lat="35.8272685" lon="127.1300206"></trkpt>
    <trkpt lat="35.8272370" lon="127.1300542"></trkpt>
    <trkpt lat="35.8272261" lon="127.1300659"></trkpt>
    <trkpt lat="35.8272232" lon="127.1300787"></trkpt>
    <trkpt lat="35.8272034" lon="127.1300834"></trkpt>
    <trkpt lat="35.8271698" lon="127.1301024"></trkpt>
    <trkpt lat="35.8271061" lon="127.1301386"></trkpt>
    <trkpt lat="35.8270841" lon="127.1301511"></trkpt>
    <trkpt lat="35.8270585" lon="127.1301744"></trkpt>
    <trkpt lat="35.8270380" lon="127.1301713"></trkpt>
    <trkpt lat="35.8269990" lon="127.1301653"></trkpt>
    <trkpt lat="35.8269731" lon="127.1302522"></trkpt>
    <trkpt lat="35.8269610" lon="127.1302772"></trkpt>
    <trkpt lat="35.8269296" lon="127.1303001"></trkpt>
    <trkpt lat="35.8265341" lon="127.1305889"></trkpt>
    <trkpt lat="35.8254079" lon="127.1314912"></trkpt>
    <trkpt lat="35.8251147" lon="127.1317226"></trkpt>
    <trkpt lat="35.8250646" lon="127.1317622"></trkpt>
    <trkpt lat="35.8250335" lon="127.1317655"></trkpt>
    <trkpt lat="35.8249588" lon="127.1318186"></trkpt>
    <trkpt lat="35.8248961" lon="127.1318633"></trkpt>
    <trkpt lat="35.8248761" lon="127.1319041"></trkpt>
    <trkpt lat="35.8248605" lon="127.1319162"></trkpt>
    <trkpt lat="35.8245425" lon="127.1321611"></trkpt>
    <trkpt lat="35.8242648" lon="127.1323759"></trkpt>
    <trkpt lat="35.8241185" lon="127.1324897"></trkpt>
    <trkpt lat="35.8239997" lon="127.1325822"></trkpt>
    <trkpt lat="35.8239043" lon="127.1326724"></trkpt>
    <trkpt lat="35.8237372" lon="127.1328097"></trkpt>
    <trkpt lat="35.8236602" lon="127.1328648"></trkpt>
    <trkpt lat="35.8234822" lon="127.1330136"></trkpt>
    <trkpt lat="35.8232179" lon="127.1333041"></trkpt>
    <trkpt lat="35.8230915" lon="127.1334387"></trkpt>
    <trkpt lat="35.8225392" lon="127.1340652"></trkpt>
    <trkpt lat="35.8224108" lon="127.1342110"></trkpt>
    <trkpt lat="35.8218205" lon="127.1348823"></trkpt>
    <trkpt lat="35.8216819" lon="127.1350116"></trkpt>
    <trkpt lat="35.8215178" lon="127.1351948"></trkpt>
    <trkpt lat="35.8211380" lon="127.1356225"></trkpt>
    <trkpt lat="35.8208815" lon="127.1359179"></trkpt>
    <trkpt lat="35.8208432" lon="127.1359237"></trkpt>
    <trkpt lat="35.8208200" lon="127.1359294"></trkpt>
    <trkpt lat="35.8208034" lon="127.1359311"></trkpt>
    <trkpt lat="35.8207220" lon="127.1360304"></trkpt>
    <trkpt lat="35.8206910" lon="127.1360649"></trkpt>
    <trkpt lat="35.8206307" lon="127.1361366"></trkpt>
    <trkpt lat="35.8206225" lon="127.1361714"></trkpt>
    <trkpt lat="35.8206120" lon="127.1362208"></trkpt>
    <trkpt lat="35.8203746" lon="127.1364888"></trkpt>
    <trkpt lat="35.8202210" lon="127.1366522"></trkpt>
    <trkpt lat="35.8196743" lon="127.1372787"></trkpt>
    <trkpt lat="35.8193807" lon="127.1376274"></trkpt>
    <trkpt lat="35.8193188" lon="127.1377015"></trkpt>
    <trkpt lat="35.8190229" lon="127.1380553"></trkpt>
    <trkpt lat="35.8188130" lon="127.1382463"></trkpt>
    <trkpt lat="35.8185557" lon="127.1383988"></trkpt>
    <trkpt lat="35.8182429" lon="127.1385835"></trkpt>
    <trkpt lat="35.8180344" lon="127.1387042"></trkpt>
    <trkpt lat="35.8180588" lon="127.1387740"></trkpt>
    <trkpt lat="35.8180886" lon="127.1388595"></trkpt>
    <trkpt lat="35.8181109" lon="127.1389148"></trkpt>
    <trkpt lat="35.8173813" lon="127.1393004"></trkpt>
    <trkpt lat="35.8170023" lon="127.1394804"></trkpt>
    <trkpt lat="35.8169725" lon="127.1394905"></trkpt>
    <trkpt lat="35.8169397" lon="127.1395017"></trkpt>
    <trkpt lat="35.8166529" lon="127.1396063"></trkpt>
    <trkpt lat="35.8166399" lon="127.1396501"></trkpt>
    <trkpt lat="35.8165973" lon="127.1397942"></trkpt>
    <trkpt lat="35.8166735" lon="127.1400922"></trkpt>
    <trkpt lat="35.8166829" lon="127.1401199"></trkpt>
    <trkpt lat="35.8166975" lon="127.1401633"></trkpt>
    <trkpt lat="35.8168009" lon="127.1405446"></trkpt>
  </trkseg></trk>
</gpx>