<?xml version="1.0" encoding="UTF-8"?>
<gpx version="1.1" creator="RunNavi nationwide seed" xmlns="http://www.topografix.com/GPX/1/1">
  <metadata>
    <name>제주종합경기장 트랙 5K</name>
    <copyright author="OpenStreetMap contributors">
      <license>https://opendatacommons.org/licenses/odbl/1-0/</license>
    </copyright>
  </metadata>
  <trk><name>제주종합경기장 트랙 5K</name><trkseg>
    <trkpt lat="33.5030919" lon="126.5151847"></trkpt>
    <trkpt lat="33.5030656" lon="126.5151846"></trkpt>
    <trkpt lat="33.5030681" lon="126.5153209"></trkpt>
    <trkpt lat="33.5030436" lon="126.5153046"></trkpt>
    <trkpt lat="33.5030266" lon="126.5152914"></trkpt>
    <trkpt lat="33.5030046" lon="126.5152792"></trkpt>
    <trkpt lat="33.5029885" lon="126.5152640"></trkpt>
    <trkpt lat="33.5029444" lon="126.5152650"></trkpt>
    <trkpt lat="33.5029071" lon="126.5152701"></trkpt>
    <trkpt lat="33.5027461" lon="126.5152619"></trkpt>
    <trkpt lat="33.5027130" lon="126.5152863"></trkpt>
    <trkpt lat="33.5026681" lon="126.5153402"></trkpt>
    <trkpt lat="33.5026732" lon="126.5151834"></trkpt>
    <trkpt lat="33.5026444" lon="126.5151786"></trkpt>
    <trkpt lat="33.5026139" lon="126.5164124"></trkpt>
    <trkpt lat="33.5026469" lon="126.5164074"></trkpt>
    <trkpt lat="33.5026452" lon="126.5163698"></trkpt>
    <trkpt lat="33.5026537" lon="126.5162885"></trkpt>
    <trkpt lat="33.5026851" lon="126.5163230"></trkpt>
    <trkpt lat="33.5027097" lon="126.5163413"></trkpt>
    <trkpt lat="33.5027664" lon="126.5163535"></trkpt>
    <trkpt lat="33.5029597" lon="126.5163515"></trkpt>
    <trkpt lat="33.5029893" lon="126.5163413"></trkpt>
    <trkpt lat="33.5030224" lon="126.5163139"></trkpt>
    <trkpt lat="33.5030470" lon="126.5162986"></trkpt>
    <trkpt lat="33.5030436" lon="126.5163952"></trkpt>
    <trkpt lat="33.5030580" lon="126.5163992"></trkpt>
    <trkpt lat="33.5030741" lon="126.5163901"></trkpt>
    <trkpt lat="33.5030834" lon="126.5162183"></trkpt>
    <trkpt lat="33.5030868" lon="126.5155272"></trkpt>
    <trkpt lat="33.5030944" lon="126.5152172"></trkpt>
    <trkpt lat="33.5030919" lon="126.5151847"></trkpt>
    <trkpt lat="33.5030656" lon="126.5151846"></trkpt>
    <trkpt lat="33.5030681" lon="126.5153209"></trkpt>
    <trkpt lat="33.5030436" lon="126.5153046"></trkpt>
    <trkpt lat="33.5030266" lon="126.5152914"></trkpt>
    <trkpt lat="33.5030046" lon="126.5152792"></trkpt>
    <trkpt lat="33.5029885" lon="126.5152640"></trkpt>
    <trkpt lat="33.5029444" lon="126.5152650"></trkpt>
    <trkpt lat="33.5029071" lon="126.5152701"></trkpt>
    <trkpt lat="33.5027461" lon="126.5152619"></trkpt>
    <trkpt lat="33.5027130" lon="126.5152863"></trkpt>
    <trkpt lat="33.5026681" lon="126.5153402"></trkpt>
    <trkpt lat="33.5026732" lon="126.5151834"></trkpt>
    <trkpt lat="33.5026444" lon="126.5151786"></trkpt>
    <trkpt lat="33.5026139" lon="126.5164124"></trkpt>
    <trkpt lat="33.5026469" lon="126.5164074"></trkpt>
    <trkpt lat="33.5026452" lon="126.5163698"></trkpt>
    <trkpt lat="33.5026537" lon="126.5162885"></trkpt>
    <trkpt lat="33.5026851" lon="126.5163230"></trkpt>
    <trkpt lat="33.5027097" lon="126.5163413"></trkpt>
    <trkpt lat="33.5027664" lon="126.5163535"></trkpt>
    <trkpt lat="33.5029597" lon="126.5163515"></trkpt>
    <trkpt lat="33.5029893" lon="126.5163413"></trkpt>
    <trkpt lat="33.5030224" lon="126.5163139"></trkpt>
    <trkpt lat="33.5030470" lon="126.5162986"></trkpt>
    <trkpt lat="33.5030436" lon="126.5163952"></trkpt>
    <trkpt lat="33.5030580" lon="126.5163992"></trkpt>
    <trkpt lat="33.5030741" lon="126.5163901"></trkpt>
    <trkpt lat="33.5030834" lon="126.5162183"></trkpt>
    <trkpt lat="33.5030868" lon="126.5155272"></trkpt>
    <trkpt lat="33.5030944" lon="126.5152172"></trkpt>
    <trkpt lat="33.5030919" lon="126.5151847"></trkpt>
    <trkpt lat="33.5030656" lon="126.5151846"></trkpt>
    <trkpt lat="33.5030681" lon="126.5153209"></trkpt>
    <trkpt lat="33.5030436" lon="126.5153046"></trkpt>
    <trkpt lat="33.5030266" lon="126.5152914"></trkpt>
    <trkpt lat="33.5030046" lon="126.5152792"></trkpt>
    <trkpt lat="33.5029885" lon="126.5152640"></trkpt>
    <trkpt lat="33.5029444" lon="126.5152650"></trkpt>
    <trkpt lat="33.5029071" lon="126.5152701"></trkpt>
    <trkpt lat="33.5027461" lon="126.5152619"></trkpt>
    <trkpt lat="33.5027130" lon="126.5152863"></trkpt>
    <trkpt lat="33.5026681" lon="126.5153402"></trkpt>
    <trkpt lat="33.5026732" lon="126.5151834"></trkpt>
    <trkpt lat="33.5026444" lon="126.5151786"></trkpt>
    <trkpt lat="33.5026139" lon="126.5164124"></trkpt>
    <trkpt lat="33.5026469" lon="126.5164074"></trkpt>
    <trkpt lat="33.5026452" lon="126.5163698"></trkpt>
    <trkpt lat="33.5026537" lon="126.5162885"></trkpt>
    <trkpt lat="33.5026851" lon="126.5163230"></trkpt>
    <trkpt lat="33.5027097" lon="126.5163413"></trkpt>
    <trkpt lat="33.5027664" lon="126.5163535"></trkpt>
    <trkpt lat="33.5029597" lon="126.5163515"></trkpt>
    <trkpt lat="33.5029893" lon="126.5163413"></trkpt>
    <trkpt lat="33.5030224" lon="126.5163139"></trkpt>
    <trkpt lat="33.5030470" lon="126.5162986"></trkpt>
    <trkpt lat="33.5030436" lon="126.5163952"></trkpt>
    <trkpt lat="33.5030580" lon="126.5163992"></trkpt>
    <trkpt lat="33.5030741" lon="126.5163901"></trkpt>
    <trkpt lat="33.5030834" lon="126.5162183"></trkpt>
    <trkpt lat="33.5030868" lon="126.5155272"></trkpt>
    <trkpt lat="33.5030944" lon="126.5152172"></trkpt>
    <trkpt lat="33.5030919" lon="126.5151847"></trkpt>
    <trkpt lat="33.5030656" lon="126.5151846"></trkpt>
    <trkpt lat="33.5030681" lon="126.5153209"></trkpt>
    <trkpt lat="33.5030436" lon="126.5153046"></trkpt>
    <trkpt lat="33.5030266" lon="126.5152914"></trkpt>
    <trkpt lat="33.5030046" lon="126.5152792"></trkpt>
    <trkpt lat="33.5029885" lon="126.5152640"></trkpt>
    <trkpt lat="33.5029444" lon="126.5152650"></trkpt>
    <trkpt lat="33.5029071" lon="126.5152701"></trkpt>
    <trkpt lat="33.5027461" lon="126.5152619"></trkpt>
    <trkpt lat="33.5027130" lon="126.5152863"></trkpt>
    <trkpt lat="33.5026681" lon="126.5153402"></trkpt>
    <trkpt lat="33.5026732" lon="126.5151834"></trkpt>
    <trkpt lat="33.5026444" lon="126.5151786"></trkpt>
    <trkpt lat="33.5026139" lon="126.5164124"></trkpt>
    <trkpt lat="33.5026469" lon="126.5164074"></trkpt>
    <trkpt lat="33.5026452" lon="126.5163698"></trkpt>
    <trkpt lat="33.5026537" lon="126.5162885"></trkpt>
    <trkpt lat="33.5026851" lon="126.5163230"></trkpt>
    <trkpt lat="33.5027097" lon="126.5163413"></trkpt>
    <trkpt lat="33.5027664" lon="126.5163535"></trkpt>
    <trkpt lat="33.5029597" lon="126.5163515"></trkpt>
    <trkpt lat="33.5029893" lon="126.5163413"></trkpt>
    <trkpt lat="33.5030224" lon="126.5163139"></trkpt>
    <trkpt lat="33.5030470" lon="126.5162986"></trkpt>
    <trkpt lat="33.5030436" lon="126.5163952"></trkpt>
    <trkpt lat="33.5030580" lon="126.5163992"></trkpt>
    <trkpt lat="33.5030741" lon="126.5163901"></trkpt>
    <trkpt lat="33.5030834" lon="126.5162183"></trkpt>
    <trkpt lat="33.5030868" lon="126.5155272"></trkpt>
    <trkpt lat="33.5030944" lon="126.5152172"></trkpt>
    <trkpt lat="33.5030919" lon="126.5151847"></trkpt>
    <trkpt lat="33.5030656" lon="126.5151846"></trkpt>
    <trkpt lat="33.5030681" lon="126.5153209"></trkpt>
    <trkpt lat="33.5030436" lon="126.5153046"></trkpt>
    <trkpt lat="33.5030266" lon="126.5152914"></trkpt>
    <trkpt lat="33.5030046" lon="126.5152792"></trkpt>
    <trkpt lat="33.5029885" lon="126.5152640"></trkpt>
    <trkpt lat="33.5029444" lon="126.5152650"></trkpt>
    <trkpt lat="33.5029071" lon="126.5152701"></trkpt>
    <trkpt lat="33.5027461" lon="126.5152619"></trkpt>
    <trkpt lat="33.5027130" lon="126.5152863"></trkpt>
    <trkpt lat="33.5026681" lon="126.5153402"></trkpt>
    <trkpt lat="33.5026732" lon="126.5151834"></trkpt>
    <trkpt lat="33.5026444" lon="126.5151786"></trkpt>
    <trkpt lat="33.5026139" lon="126.5164124"></trkpt>
    <trkpt lat="33.5026469" lon="126.5164074"></trkpt>
    <trkpt lat="33.5026452" lon="126.5163698"></trkpt>
    <trkpt lat="33.5026537" lon="126.5162885"></trkpt>
    <trkpt lat="33.5026851" lon="126.5163230"></trkpt>
    <trkpt lat="33.5027097" lon="126.5163413"></trkpt>
    <trkpt lat="33.5027664" lon="126.5163535"></trkpt>
    <trkpt lat="33.5029597" lon="126.5163515"></trkpt>
    <trkpt lat="33.5029893" lon="126.5163413"></trkpt>
    <trkpt lat="33.5030224" lon="126.5163139"></trkpt>
    <trkpt lat="33.5030470" lon="126.5162986"></trkpt>
    <trkpt lat="33.5030436" lon="126.5163952"></trkpt>
    <trkpt lat="33.5030580" lon="126.5163992"></trkpt>
    <trkpt lat="33.5030741" lon="126.5163901"></trkpt>
    <trkpt lat="33.5030834" lon="126.5162183"></trkpt>
    <trkpt lat="33.5030868" lon="126.5155272"></trkpt>
    <trkpt lat="33.5030944" lon="126.5152172"></trkpt>
    <trkpt lat="33.5030919" lon="126.5151847"></trkpt>
    <trkpt lat="33.5030656" lon="126.5151846"></trkpt>
    <trkpt lat="33.5030681" lon="126.5153209"></trkpt>
    <trkpt lat="33.5030436" lon="126.5153046"></trkpt>
    <trkpt lat="33.5030266" lon="126.5152914"></trkpt>
    <trkpt lat="33.5030046" lon="126.5152792"></trkpt>
    <trkpt lat="33.5029885" lon="126.5152640"></trkpt>
    <trkpt lat="33.5029444" lon="126.5152650"></trkpt>
    <trkpt lat="33.5029071" lon="126.5152701"></trkpt>
    <trkpt lat="33.5027461" lon="126.5152619"></trkpt>
    <trkpt lat="33.5027130" lon="126.5152863"></trkpt>
    <trkpt lat="33.5026681" lon="126.5153402"></trkpt>
    <trkpt lat="33.5026732" lon="126.5151834"></trkpt>
    <trkpt lat="33.5026444" lon="126.5151786"></trkpt>
    <trkpt lat="33.5026139" lon="126.5164124"></trkpt>
    <trkpt lat="33.5026469" lon="126.5164074"></trkpt>
    <trkpt lat="33.5026452" lon="126.5163698"></trkpt>
    <trkpt lat="33.5026537" lon="126.5162885"></trkpt>
    <trkpt lat="33.5026851" lon="126.5163230"></trkpt>
    <trkpt lat="33.5027097" lon="126.5163413"></trkpt>
    <trkpt lat="33.5027664" lon="126.5163535"></trkpt>
    <trkpt lat="33.5029597" lon="126.5163515"></trkpt>
    <trkpt lat="33.5029893" lon="126.5163413"></trkpt>
    <trkpt lat="33.5030224" lon="126.5163139"></trkpt>
    <trkpt lat="33.5030470" lon="126.5162986"></trkpt>
    <trkpt lat="33.5030436" lon="126.5163952"></trkpt>
    <trkpt lat="33.5030580" lon="126.5163992"></trkpt>
    <trkpt lat="33.5030741" lon="126.5163901"></trkpt>
    <trkpt lat="33.5030834" lon="126.5162183"></trkpt>
    <trkpt lat="33.5030868" lon="126.5155272"></trkpt>
    <trkpt lat="33.5030944" lon="126.5152172"></trkpt>
    <trkpt lat="33.5030919" lon="126.5151847"></trkpt>
    <trkpt lat="33.5030656" lon="126.5151846"></trkpt>
    <trkpt lat="33.5030681" lon="126.5153209"></trkpt>
    <trkpt lat="33.5030436" lon="126.5153046"></trkpt>
    <trkpt lat="33.5030266" lon="126.5152914"></trkpt>
    <trkpt lat="33.5030046" lon="126.5152792"></trkpt>
    <trkpt lat="33.5029885" lon="126.5152640"></trkpt>
    <trkpt lat="33.5029444" lon="126.5152650"></trkpt>
    <trkpt lat="33.5029071" lon="126.5152701"></trkpt>
    <trkpt lat="33.5027461" lon="126.5152619"></trkpt>
    <trkpt lat="33.5027130" lon="126.5152863"></trkpt>
    <trkpt lat="33.5026681" lon="126.5153402"></trkpt>
    <trkpt lat="33.5026732" lon="126.5151834"></trkpt>
    <trkpt lat="33.5026444" lon="126.5151786"></trkpt>
    <trkpt lat="33.5026139" lon="126.5164124"></trkpt>
    <trkpt lat="33.5026469" lon="126.5164074"></trkpt>
    <trkpt lat="33.5026452" lon="126.5163698"></trkpt>
    <trkpt lat="33.5026537" lon="126.5162885"></trkpt>
    <trkpt lat="33.5026851" lon="126.5163230"></trkpt>
    <trkpt lat="33.5027097" lon="126.5163413"></trkpt>
    <trkpt lat="33.5027664" lon="126.5163535"></trkpt>
    <trkpt lat="33.5029597" lon="126.5163515"></trkpt>
    <trkpt lat="33.5029893" lon="126.5163413"></trkpt>
    <trkpt lat="33.5030224" lon="126.5163139"></trkpt>
    <trkpt lat="33.5030470" lon="126.5162986"></trkpt>
    <trkpt lat="33.5030436" lon="126.5163952"></trkpt>
    <trkpt lat="33.5030580" lon="126.5163992"></trkpt>
    <trkpt lat="33.5030741" lon="126.5163901"></trkpt>
    <trkpt lat="33.5030834" lon="126.5162183"></trkpt>
    <trkpt lat="33.5030868" lon="126.5155272"></trkpt>
    <trkpt lat="33.5030944" lon="126.5152172"></trkpt>
    <trkpt lat="33.5030919" lon="126.5151847"></trkpt>
    <trkpt lat="33.5030656" lon="126.5151846"></trkpt>
    <trkpt lat="33.5030681" lon="126.5153209"></trkpt>
    <trkpt lat="33.5030436" lon="126.5153046"></trkpt>
    <trkpt lat="33.5030266" lon="126.5152914"></trkpt>
    <trkpt lat="33.5030046" lon="126.5152792"></trkpt>
    <trkpt lat="33.5029885" lon="126.5152640"></trkpt>
    <trkpt lat="33.5029444" lon="126.5152650"></trkpt>
    <trkpt lat="33.5029071" lon="126.5152701"></trkpt>
    <trkpt lat="33.5027461" lon="126.5152619"></trkpt>
    <trkpt lat="33.5027130" lon="126.5152863"></trkpt>
    <trkpt lat="33.5026681" lon="126.5153402"></trkpt>
    <trkpt lat="33.5026732" lon="126.5151834"></trkpt>
    <trkpt lat="33.5026444" lon="126.5151786"></trkpt>
    <trkpt lat="33.5026139" lon="126.5164124"></trkpt>
    <trkpt lat="33.5026469" lon="126.5164074"></trkpt>
    <trkpt lat="33.5026452" lon="126.5163698"></trkpt>
    <trkpt lat="33.5026537" lon="126.5162885"></trkpt>
    <trkpt lat="33.5026851" lon="126.5163230"></trkpt>
    <trkpt lat="33.5027097" lon="126.5163413"></trkpt>
    <trkpt lat="33.5027664" lon="126.5163535"></trkpt>
    <trkpt lat="33.5029597" lon="126.5163515"></trkpt>
    <trkpt lat="33.5029893" lon="126.5163413"></trkpt>
    <trkpt lat="33.5030224" lon="126.5163139"></trkpt>
    <trkpt lat="33.5030470" lon="126.5162986"></trkpt>
    <trkpt lat="33.5030436" lon="126.5163952"></trkpt>
    <trkpt lat="33.5030580" lon="126.5163992"></trkpt>
    <trkpt lat="33.5030741" lon="126.5163901"></trkpt>
    <trkpt lat="33.5030834" lon="126.5162183"></trkpt>
    <trkpt lat="33.5030868" lon="126.5155272"></trkpt>
    <trkpt lat="33.5030944" lon="126.5152172"></trkpt>
    <trkpt lat="33.5030919" lon="126.5151847"></trkpt>
    <trkpt lat="33.5030656" lon="126.5151846"></trkpt>
    <trkpt lat="33.5030681" lon="126.5153209"></trkpt>
    <trkpt lat="33.5030436" lon="126.5153046"></trkpt>
    <trkpt lat="33.5030266" lon="126.5152914"></trkpt>
    <trkpt lat="33.5030046" lon="126.5152792"></trkpt>
    <trkpt lat="33.5029885" lon="126.5152640"></trkpt>
    <trkpt lat="33.5029444" lon="126.5152650"></trkpt>
    <trkpt lat="33.5029071" lon="126.5152701"></trkpt>
    <trkpt lat="33.5027461" lon="126.5152619"></trkpt>
    <trkpt lat="33.5027130" lon="126.5152863"></trkpt>
    <trkpt lat="33.5026681" lon="126.5153402"></trkpt>
    <trkpt lat="33.5026732" lon="126.5151834"></trkpt>
    <trkpt lat="33.5026444" lon="126.5151786"></trkpt>
    <trkpt lat="33.5026139" lon="126.5164124"></trkpt>
    <trkpt lat="33.5026469" lon="126.5164074"></trkpt>
    <trkpt lat="33.5026452" lon="126.5163698"></trkpt>
    <trkpt lat="33.5026537" lon="126.5162885"></trkpt>
    <trkpt lat="33.5026851" lon="126.5163230"></trkpt>
    <trkpt lat="33.5027097" lon="126.5163413"></trkpt>
    <trkpt lat="33.5027664" lon="126.5163535"></trkpt>
    <trkpt lat="33.5029597" lon="126.5163515"></trkpt>
    <trkpt lat="33.5029893" lon="126.5163413"></trkpt>
    <trkpt lat="33.5030224" lon="126.5163139"></trkpt>
    <trkpt lat="33.5030470" lon="126.5162986"></trkpt>
    <trkpt lat="33.5030436" lon="126.5163952"></trkpt>
    <trkpt lat="33.5030580" lon="126.5163992"></trkpt>
    <trkpt lat="33.5030741" lon="126.5163901"></trkpt>
    <trkpt lat="33.5030834" lon="126.5162183"></trkpt>
    <trkpt lat="33.5030868" lon="126.5155272"></trkpt>
    <trkpt lat="33.5030944" lon="126.5152172"></trkpt>
    <trkpt lat="33.5030919" lon="126.5151847"></trkpt>
    <trkpt lat="33.5030656" lon="126.5151846"></trkpt>
    <trkpt lat="33.5030681" lon="126.5153209"></trkpt>
    <trkpt lat="33.5030436" lon="126.5153046"></trkpt>
    <trkpt lat="33.5030266" lon="126.5152914"></trkpt>
    <trkpt lat="33.5030046" lon="126.5152792"></trkpt>
    <trkpt lat="33.5029885" lon="126.5152640"></trkpt>
    <trkpt lat="33.5029444" lon="126.5152650"></trkpt>
    <trkpt lat="33.5029071" lon="126.5152701"></trkpt>
    <trkpt lat="33.5027461" lon="126.5152619"></trkpt>
    <trkpt lat="33.5027130" lon="126.5152863"></trkpt>
    <trkpt lat="33.5026681" lon="126.5153402"></trkpt>
    <trkpt lat="33.5026732" lon="126.5151834"></trkpt>
    <trkpt lat="33.5026444" lon="126.5151786"></trkpt>
    <trkpt lat="33.5026139" lon="126.5164124"></trkpt>
    <trkpt lat="33.5026469" lon="126.5164074"></trkpt>
    <trkpt lat="33.5026452" lon="126.5163698"></trkpt>
    <trkpt lat="33.5026537" lon="126.5162885"></trkpt>
    <trkpt lat="33.5026851" lon="126.5163230"></trkpt>
    <trkpt lat="33.5027097" lon="126.5163413"></trkpt>
    <trkpt lat="33.5027664" lon="126.5163535"></trkpt>
    <trkpt lat="33.5029597" lon="126.5163515"></trkpt>
    <trkpt lat="33.5029893" lon="126.5163413"></trkpt>
    <trkpt lat="33.5030224" lon="126.5163139"></trkpt>
    <trkpt lat="33.5030470" lon="126.5162986"></trkpt>
    <trkpt lat="33.5030436" lon="126.5163952"></trkpt>
    <trkpt lat="33.5030580" lon="126.5163992"></trkpt>
    <trkpt lat="33.5030741" lon="126.5163901"></trkpt>
    <trkpt lat="33.5030834" lon="126.5162183"></trkpt>
    <trkpt lat="33.5030868" lon="126.5155272"></trkpt>
    <trkpt lat="33.5030944" lon="126.5152172"></trkpt>
    <trkpt lat="33.5030919" lon="126.5151847"></trkpt>
    <trkpt lat="33.5030656" lon="126.5151846"></trkpt>
    <trkpt lat="33.5030681" lon="126.5153209"></trkpt>
    <trkpt lat="33.5030436" lon="126.5153046"></trkpt>
    <trkpt lat="33.5030266" lon="126.5152914"></trkpt>
    <trkpt lat="33.5030046" lon="126.5152792"></trkpt>
    <trkpt lat="33.5029885" lon="126.5152640"></trkpt>
    <trkpt lat="33.5029444" lon="126.5152650"></trkpt>
    <trkpt lat="33.5029071" lon="126.5152701"></trkpt>
    <trkpt lat="33.5027461" lon="126.5152619"></trkpt>
    <trkpt lat="33.5027130" lon="126.5152863"></trkpt>
    <trkpt lat="33.5026681" lon="126.5153402"></trkpt>
    <trkpt lat="33.5026732" lon="126.5151834"></trkpt>
    <trkpt lat="33.5026444" lon="126.5151786"></trkpt>
    <trkpt lat="33.5026139" lon="126.5164124"></trkpt>
    <trkpt lat="33.5026469" lon="126.5164074"></trkpt>
    <trkpt lat="33.5026452" lon="126.5163698"></trkpt>
    <trkpt lat="33.5026537" lon="126.5162885"></trkpt>
    <trkpt lat="33.5026851" lon="126.5163230"></trkpt>
    <trkpt lat="33.5027097" lon="126.5163413"></trkpt>
    <trkpt lat="33.5027664" lon="126.5163535"></trkpt>
    <trkpt lat="33.5029597" lon="126.5163515"></trkpt>
    <trkpt lat="33.5029893" lon="126.5163413"></trkpt>
    <trkpt lat="33.5030224" lon="126.5163139"></trkpt>
    <trkpt lat="33.5030470" lon="126.5162986"></trkpt>
    <trkpt lat="33.5030436" lon="126.5163952"></trkpt>
    <trkpt lat="33.5030580" lon="126.5163992"></trkpt>
    <trkpt lat="33.5030741" lon="126.5163901"></trkpt>
    <trkpt lat="33.5030834" lon="126.5162183"></trkpt>
    <trkpt lat="33.5030868" lon="126.5155272"></trkpt>
    <trkpt lat="33.5030944" lon="126.5152172"></trkpt>
    <trkpt lat="33.5030919" lon="126.5151847"></trkpt>
    <trkpt lat="33.5030656" lon="126.5151846"></trkpt>
    <trkpt lat="33.5030681" lon="126.5153209"></trkpt>
    <trkpt lat="33.5030436" lon="126.5153046"></trkpt>
    <trkpt lat="33.5030266" lon="126.5152914"></trkpt>
    <trkpt lat="33.5030046" lon="126.5152792"></trkpt>
    <trkpt lat="33.5029885" lon="126.5152640"></trkpt>
    <trkpt lat="33.5029444" lon="126.5152650"></trkpt>
    <trkpt lat="33.5029071" lon="126.5152701"></trkpt>
    <trkpt lat="33.5027461" lon="126.5152619"></trkpt>
    <trkpt lat="33.5027130" lon="126.5152863"></trkpt>
    <trkpt lat="33.5026681" lon="126.5153402"></trkpt>
    <trkpt lat="33.5026732" lon="126.5151834"></trkpt>
    <trkpt lat="33.5026444" lon="126.5151786"></trkpt>
    <trkpt lat="33.5026139" lon="126.5164124"></trkpt>
    <trkpt lat="33.5026469" lon="126.5164074"></trkpt>
    <trkpt lat="33.5026452" lon="126.5163698"></trkpt>
    <trkpt lat="33.5026537" lon="126.5162885"></trkpt>
    <trkpt lat="33.5026851" lon="126.5163230"></trkpt>
    <trkpt lat="33.5027097" lon="126.5163413"></trkpt>
    <trkpt lat="33.5027664" lon="126.5163535"></trkpt>
    <trkpt lat="33.5029597" lon="126.5163515"></trkpt>
    <trkpt lat="33.5029893" lon="126.5163413"></trkpt>
    <trkpt lat="33.5030224" lon="126.5163139"></trkpt>
    <trkpt lat="33.5030470" lon="126.5162986"></trkpt>
    <trkpt lat="33.5030436" lon="126.5163952"></trkpt>
    <trkpt lat="33.5030580" lon="126.5163992"></trkpt>
    <trkpt lat="33.5030741" lon="126.5163901"></trkpt>
    <trkpt lat="33.5030834" lon="126.5162183"></trkpt>
    <trkpt lat="33.5030868" lon="126.5155272"></trkpt>
    <trkpt lat="33.5030944" lon="126.5152172"></trkpt>
    <trkpt lat="33.5030919" lon="126.5151847"></trkpt>
    <trkpt lat="33.5030656" lon="126.5151846"></trkpt>
    <trkpt lat="33.5030681" lon="126.5153209"></trkpt>
    <trkpt lat="33.5030436" lon="126.5153046"></trkpt>
    <trkpt lat="33.5030266" lon="126.5152914"></trkpt>
    <trkpt lat="33.5030046" lon="126.5152792"></trkpt>
    <trkpt lat="33.5029885" lon="126.5152640"></trkpt>
    <trkpt lat="33.5029444" lon="126.5152650"></trkpt>
    <trkpt lat="33.5029071" lon="126.5152701"></trkpt>
    <trkpt lat="33.5027461" lon="126.5152619"></trkpt>
    <trkpt lat="33.5027130" lon="126.5152863"></trkpt>
    <trkpt lat="33.5026681" lon="126.5153402"></trkpt>
    <trkpt lat="33.5026732" lon="126.5151834"></trkpt>
    <trkpt lat="33.5026444" lon="126.5151786"></trkpt>
    <trkpt lat="33.5026139" lon="126.5164124"></trkpt>
    <trkpt lat="33.5026469" lon="126.5164074"></trkpt>
    <trkpt lat="33.5026452" lon="126.5163698"></trkpt>
    <trkpt lat="33.5026537" lon="126.5162885"></trkpt>
    <trkpt lat="33.5026851" lon="126.5163230"></trkpt>
    <trkpt lat="33.5027097" lon="126.5163413"></trkpt>
    <trkpt lat="33.5027664" lon="126.5163535"></trkpt>
    <trkpt lat="33.5029597" lon="126.5163515"></trkpt>
    <trkpt lat="33.5029893" lon="126.5163413"></trkpt>
    <trkpt lat="33.5030224" lon="126.5163139"></trkpt>
    <trkpt lat="33.5030470" lon="126.5162986"></trkpt>
    <trkpt lat="33.5030436" lon="126.5163952"></trkpt>
    <trkpt lat="33.5030580" lon="126.5163992"></trkpt>
    <trkpt lat="33.5030741" lon="126.5163901"></trkpt>
    <trkpt lat="33.5030834" lon="126.5162183"></trkpt>
    <trkpt lat="33.5030868" lon="126.5155272"></trkpt>
    <trkpt lat="33.5030944" lon="126.5152172"></trkpt>
    <trkpt lat="33.5030919" lon="126.5151847"></trkpt>
  </trkseg></trk>
</gpx>