<?xml version="1.0" encoding="UTF-8"?>
<gpx version="1.1" creator="RunNavi nationwide seed" xmlns="http://www.topografix.com/GPX/1/1">
  <metadata>
    <name>포항운하관 · 형산강 왕복 6.5K</name>
    <copyright author="OpenStreetMap contributors">
      <license>https://opendatacommons.org/licenses/odbl/1-0/</license>
    </copyright>
  </metadata>
  <trk><name>포항운하관 · 형산강 왕복 6.5K</name><trkseg>
    <trkpt lat="36.0042250" lon="129.3419832"></trkpt>
    <trkpt lat="36.0042838" lon="129.3412675"></trkpt>
    <trkpt lat="36.0043565" lon="129.3404389"></trkpt>
    <trkpt lat="36.0046652" lon="129.3369201"></trkpt>
    <trkpt lat="36.0048581" lon="129.3344895"></trkpt>
    <trkpt lat="36.0049163" lon="129.3337569"></trkpt>
    <trkpt lat="36.0050051" lon="129.3324966"></trkpt>
    <trkpt lat="36.0050002" lon="129.3322608"></trkpt>
    <trkpt lat="36.0049859" lon="129.3319752"></trkpt>
    <trkpt lat="36.0048474" lon="129.3313894"></trkpt>
    <trkpt lat="36.0048456" lon="129.3308887"></trkpt>
    <trkpt lat="36.0047969" lon="129.3300181"></trkpt>
    <trkpt lat="36.0047969" lon="129.3299349"></trkpt>
    <trkpt lat="36.0047969" lon="129.3293527"></trkpt>
    <trkpt lat="36.0048311" lon="129.3292039"></trkpt>
    <trkpt lat="36.0048174" lon="129.3287758"></trkpt>
    <trkpt lat="36.0047654" lon="129.3278908"></trkpt>
    <trkpt lat="36.0046672" lon="129.3269008"></trkpt>
    <trkpt lat="36.0045624" lon="129.3260310"></trkpt>
    <trkpt lat="36.0043990" lon="129.3250328"></trkpt>
    <trkpt lat="36.0043816" lon="129.3249225"></trkpt>
    <trkpt lat="36.0042082" lon="129.3238232"></trkpt>
    <trkpt lat="36.0040174" lon="129.3229033"></trkpt>
    <trkpt lat="36.0038379" lon="129.3221140"></trkpt>
    <trkpt lat="36.0037511" lon="129.3218303"></trkpt>
    <trkpt lat="36.0036226" lon="129.3215011"></trkpt>
    <trkpt lat="36.0034195" lon="129.3207445"></trkpt>
    <trkpt lat="36.0032535" lon="129.3200433"></trkpt>
    <trkpt lat="36.0032174" lon="129.3198584"></trkpt>
    <trkpt lat="36.0031657" lon="129.3197616"></trkpt>
    <trkpt lat="36.0031494" lon="129.3197312"></trkpt>
    <trkpt lat="36.0031192" lon="129.3196483"></trkpt>
    <trkpt lat="36.0029482" lon="129.3190715"></trkpt>
    <trkpt lat="36.0023787" lon="129.3176320"></trkpt>
    <trkpt lat="36.0017856" lon="129.3161318"></trkpt>
    <trkpt lat="36.0015107" lon="129.3154348"></trkpt>
    <trkpt lat="36.0013663" lon="129.3147684"></trkpt>
    <trkpt lat="36.0012526" lon="129.3145070"></trkpt>
    <trkpt lat="36.0011660" lon="129.3143507"></trkpt>
    <trkpt lat="36.0009223" lon="129.3142252"></trkpt>
    <trkpt lat="36.0006928" lon="129.3136368"></trkpt>
    <trkpt lat="36.0006616" lon="129.3134582"></trkpt>
    <trkpt lat="36.0005917" lon="129.3132013"></trkpt>
    <trkpt lat="36.0005246" lon="129.3130320"></trkpt>
    <trkpt lat="36.0004245" lon="129.3128558"></trkpt>
    <trkpt lat="36.0002366" lon="129.3125417"></trkpt>
    <trkpt lat="35.9999948" lon="129.3119358"></trkpt>
    <trkpt lat="35.9995263" lon="129.3108465"></trkpt>
    <trkpt lat="35.9992174" lon="129.3101974"></trkpt>
    <trkpt lat="35.9988490" lon="129.3092739"></trkpt>
    <trkpt lat="35.9986998" lon="129.3088956"></trkpt>
    <trkpt lat="35.9985062" lon="129.3084298"></trkpt>
    <trkpt lat="35.9985088" lon="129.3083760"></trkpt>
    <trkpt lat="35.9989008" lon="129.3091007"></trkpt>
    <trkpt lat="35.9985088" lon="129.3083760"></trkpt>
    <trkpt lat="35.9985062" lon="129.3084298"></trkpt>
    <trkpt lat="35.9986998" lon="129.3088956"></trkpt>
    <trkpt lat="35.9988490" lon="129.3092739"></trkpt>
    <trkpt lat="35.9992174" lon="129.3101974"></trkpt>
    <trkpt lat="35.9995263" lon="129.3108465"></trkpt>
    <trkpt lat="35.9999948" lon="129.3119358"></trkpt>
    <trkpt lat="36.0002366" lon="129.3125417"></trkpt>
    <trkpt lat="36.0004245" lon="129.3128558"></trkpt>
    <trkpt lat="36.0005246" lon="129.3130320"></trkpt>
    <trkpt lat="36.0005917" lon="129.3132013"></trkpt>
    <trkpt lat="36.0006616" lon="129.3134582"></trkpt>
    <trkpt lat="36.0006928" lon="129.3136368"></trkpt>
    <trkpt lat="36.0009223" lon="129.3142252"></trkpt>
    <trkpt lat="36.0011660" lon="129.3143507"></trkpt>
    <trkpt lat="36.0012526" lon="129.3145070"></trkpt>
    <trkpt lat="36.0013663" lon="129.3147684"></trkpt>
    <trkpt lat="36.0015107" lon="129.3154348"></trkpt>
    <trkpt lat="36.0017856" lon="129.3161318"></trkpt>
    <trkpt lat="36.0023787" lon="129.3176320"></trkpt>
    <trkpt lat="36.0029482" lon="129.3190715"></trkpt>
    <trkpt lat="36.0031192" lon="129.3196483"></trkpt>
    <trkpt lat="36.0031494" lon="129.3197312"></trkpt>
    <trkpt lat="36.0031657" lon="129.3197616"></trkpt>
    <trkpt lat="36.0032174" lon="129.3198584"></trkpt>
    <trkpt lat="36.0032535" lon="129.3200433"></trkpt>
    <trkpt lat="36.0034195" lon="129.3207445"></trkpt>
    <trkpt lat="36.0036226" lon="129.3215011"></trkpt>
    <trkpt lat="36.0037511" lon="129.3218303"></trkpt>
    <trkpt lat="36.0038379" lon="129.3221140"></trkpt>
    <trkpt lat="36.0040174" lon="129.3229033"></trkpt>
    <trkpt lat="36.0042082" lon="129.3238232"></trkpt>
    <trkpt lat="36.0043816" lon="129.3249225"></trkpt>
    <trkpt lat="36.0043990" lon="129.3250328"></trkpt>
    <trkpt lat="36.0045624" lon="129.3260310"></trkpt>
    <trkpt lat="36.0046672" lon="129.3269008"></trkpt>
    <trkpt lat="36.0047654" lon="129.3278908"></trkpt>
    <trkpt lat="36.0048174" lon="129.3287758"></trkpt>
    <trkpt lat="36.0048311" lon="129.3292039"></trkpt>
    <trkpt lat="36.0047969" lon="129.3293527"></trkpt>
    <trkpt lat="36.0047969" lon="129.3299349"></trkpt>
    <trkpt lat="36.0047969" lon="129.3300181"></trkpt>
    <trkpt lat="36.0048456" lon="129.3308887"></trkpt>
    <trkpt lat="36.0048474" lon="129.3313894"></trkpt>
    <trkpt lat="36.0049859" lon="129.3319752"></trkpt>
    <trkpt lat="36.0050002" lon="129.3322608"></trkpt>
    <trkpt lat="36.0050051" lon="129.3324966"></trkpt>
    <trkpt lat="36.0049163" lon="129.3337569"></trkpt>
    <trkpt lat="36.0048581" lon="129.3344895"></trkpt>
    <trkpt lat="36.0046652" lon="129.3369201"></trkpt>
    <trkpt lat="36.0043565" lon="129.3404389"></trkpt>
    <trkpt lat="36.0042838" lon="129.3412675"></trkpt>
    <trkpt lat="36.0042250" lon="129.3419832"></trkpt>
  </trkseg></trk>
</gpx>