<?xml version="1.0" encoding="UTF-8"?>
<gpx version="1.1" creator="RunNavi nationwide seed" xmlns="http://www.topografix.com/GPX/1/1">
  <metadata>
    <name>광교호수공원 순환 7.2K</name>
    <copyright author="OpenStreetMap contributors">
      <license>https://opendatacommons.org/licenses/odbl/1-0/</license>
    </copyright>
  </metadata>
  <trk><name>광교호수공원 순환 7.2K</name><trkseg>
    <trkpt lat="37.2885997" lon="127.0662061"></trkpt>
    <trkpt lat="37.2886481" lon="127.0662444"></trkpt>
    <trkpt lat="37.2887164" lon="127.0662551"></trkpt>
    <trkpt lat="37.2887719" lon="127.0662551"></trkpt>
    <trkpt lat="37.2888210" lon="127.0662444"></trkpt>
    <trkpt lat="37.2888695" lon="127.0662283"></trkpt>
    <trkpt lat="37.2889575" lon="127.0661941"></trkpt>
    <trkpt lat="37.2890355" lon="127.0661572"></trkpt>
    <trkpt lat="37.2908862" lon="127.0649897"></trkpt>
    <trkpt lat="37.2909247" lon="127.0649569"></trkpt>
    <trkpt lat="37.2909652" lon="127.0648965"></trkpt>
    <trkpt lat="37.2910004" lon="127.0647886"></trkpt>
    <trkpt lat="37.2910212" lon="127.0646860"></trkpt>
    <trkpt lat="37.2910228" lon="127.0645975"></trkpt>
    <trkpt lat="37.2910018" lon="127.0644782"></trkpt>
    <trkpt lat="37.2909656" lon="127.0643971"></trkpt>
    <trkpt lat="37.2909021" lon="127.0643146"></trkpt>
    <trkpt lat="37.2908173" lon="127.0642516"></trkpt>
    <trkpt lat="37.2907271" lon="127.0642214"></trkpt>
    <trkpt lat="37.2905047" lon="127.0642235"></trkpt>
    <trkpt lat="37.2901237" lon="127.0642354"></trkpt>
    <trkpt lat="37.2900512" lon="127.0642449"></trkpt>
    <trkpt lat="37.2900064" lon="127.0642663"></trkpt>
    <trkpt lat="37.2899743" lon="127.0642869"></trkpt>
    <trkpt lat="37.2889703" lon="127.0649320"></trkpt>
    <trkpt lat="37.2887228" lon="127.0650910"></trkpt>
    <trkpt lat="37.2886258" lon="127.0651755"></trkpt>
    <trkpt lat="37.2885793" lon="127.0652372"></trkpt>
    <trkpt lat="37.2885521" lon="127.0652982"></trkpt>
    <trkpt lat="37.2885229" lon="127.0653760"></trkpt>
    <trkpt lat="37.2885000" lon="127.0654859"></trkpt>
    <trkpt lat="37.2885011" lon="127.0655926"></trkpt>
    <trkpt lat="37.2885139" lon="127.0656905"></trkpt>
    <trkpt lat="37.2885347" lon="127.0657857"></trkpt>
    <trkpt lat="37.2885587" lon="127.0658916"></trkpt>
    <trkpt lat="37.2885731" lon="127.0659560"></trkpt>
    <trkpt lat="37.2885832" lon="127.0660224"></trkpt>
    <trkpt lat="37.2885848" lon="127.0661028"></trkpt>
    <trkpt lat="37.2885869" lon="127.0661598"></trkpt>
    <trkpt lat="37.2885997" lon="127.0662061"></trkpt>
    <trkpt lat="37.2886481" lon="127.0662444"></trkpt>
    <trkpt lat="37.2887164" lon="127.0662551"></trkpt>
    <trkpt lat="37.2887719" lon="127.0662551"></trkpt>
    <trkpt lat="37.2888210" lon="127.0662444"></trkpt>
    <trkpt lat="37.2888695" lon="127.0662283"></trkpt>
    <trkpt lat="37.2889575" lon="127.0661941"></trkpt>
    <trkpt lat="37.2890355" lon="127.0661572"></trkpt>
    <trkpt lat="37.2908862" lon="127.0649897"></trkpt>
    <trkpt lat="37.2909247" lon="127.0649569"></trkpt>
    <trkpt lat="37.2909652" lon="127.0648965"></trkpt>
    <trkpt lat="37.2910004" lon="127.0647886"></trkpt>
    <trkpt lat="37.2910212" lon="127.0646860"></trkpt>
    <trkpt lat="37.2910228" lon="127.0645975"></trkpt>
    <trkpt lat="37.2910018" lon="127.0644782"></trkpt>
    <trkpt lat="37.2909656" lon="127.0643971"></trkpt>
    <trkpt lat="37.2909021" lon="127.0643146"></trkpt>
    <trkpt lat="37.2908173" lon="127.0642516"></trkpt>
    <trkpt lat="37.2907271" lon="127.0642214"></trkpt>
    <trkpt lat="37.2905047" lon="127.0642235"></trkpt>
    <trkpt lat="37.2901237" lon="127.0642354"></trkpt>
    <trkpt lat="37.2900512" lon="127.0642449"></trkpt>
    <trkpt lat="37.2900064" lon="127.0642663"></trkpt>
    <trkpt lat="37.2899743" lon="127.0642869"></trkpt>
    <trkpt lat="37.2889703" lon="127.0649320"></trkpt>
    <trkpt lat="37.2887228" lon="127.0650910"></trkpt>
    <trkpt lat="37.2886258" lon="127.0651755"></trkpt>
    <trkpt lat="37.2885793" lon="127.0652372"></trkpt>
    <trkpt lat="37.2885521" lon="127.0652982"></trkpt>
    <trkpt lat="37.2885229" lon="127.0653760"></trkpt>
    <trkpt lat="37.2885000" lon="127.0654859"></trkpt>
    <trkpt lat="37.2885011" lon="127.0655926"></trkpt>
    <trkpt lat="37.2885139" lon="127.0656905"></trkpt>
    <trkpt lat="37.2885347" lon="127.0657857"></trkpt>
    <trkpt lat="37.2885587" lon="127.0658916"></trkpt>
    <trkpt lat="37.2885731" lon="127.0659560"></trkpt>
    <trkpt lat="37.2885832" lon="127.0660224"></trkpt>
    <trkpt lat="37.2885848" lon="127.0661028"></trkpt>
    <trkpt lat="37.2885869" lon="127.0661598"></trkpt>
    <trkpt lat="37.2885997" lon="127.0662061"></trkpt>
    <trkpt lat="37.2886481" lon="127.0662444"></trkpt>
    <trkpt lat="37.2887164" lon="127.0662551"></trkpt>
    <trkpt lat="37.2887719" lon="127.0662551"></trkpt>
    <trkpt lat="37.2888210" lon="127.0662444"></trkpt>
    <trkpt lat="37.2888695" lon="127.0662283"></trkpt>
    <trkpt lat="37.2889575" lon="127.0661941"></trkpt>
    <trkpt lat="37.2890355" lon="127.0661572"></trkpt>
    <trkpt lat="37.2908862" lon="127.0649897"></trkpt>
    <trkpt lat="37.2909247" lon="127.0649569"></trkpt>
    <trkpt lat="37.2909652" lon="127.0648965"></trkpt>
    <trkpt lat="37.2910004" lon="127.0647886"></trkpt>
    <trkpt lat="37.2910212" lon="127.0646860"></trkpt>
    <trkpt lat="37.2910228" lon="127.0645975"></trkpt>
    <trkpt lat="37.2910018" lon="127.0644782"></trkpt>
    <trkpt lat="37.2909656" lon="127.0643971"></trkpt>
    <trkpt lat="37.2909021" lon="127.0643146"></trkpt>
    <trkpt lat="37.2908173" lon="127.0642516"></trkpt>
    <trkpt lat="37.2907271" lon="127.0642214"></trkpt>
    <trkpt lat="37.2905047" lon="127.0642235"></trkpt>
    <trkpt lat="37.2901237" lon="127.0642354"></trkpt>
    <trkpt lat="37.2900512" lon="127.0642449"></trkpt>
    <trkpt lat="37.2900064" lon="127.0642663"></trkpt>
    <trkpt lat="37.2899743" lon="127.0642869"></trkpt>
    <trkpt lat="37.2889703" lon="127.0649320"></trkpt>
    <trkpt lat="37.2887228" lon="127.0650910"></trkpt>
    <trkpt lat="37.2886258" lon="127.0651755"></trkpt>
    <trkpt lat="37.2885793" lon="127.0652372"></trkpt>
    <trkpt lat="37.2885521" lon="127.0652982"></trkpt>
    <trkpt lat="37.2885229" lon="127.0653760"></trkpt>
    <trkpt lat="37.2885000" lon="127.0654859"></trkpt>
    <trkpt lat="37.2885011" lon="127.0655926"></trkpt>
    <trkpt lat="37.2885139" lon="127.0656905"></trkpt>
    <trkpt lat="37.2885347" lon="127.0657857"></trkpt>
    <trkpt lat="37.2885587" lon="127.0658916"></trkpt>
    <trkpt lat="37.2885731" lon="127.0659560"></trkpt>
    <trkpt lat="37.2885832" lon="127.0660224"></trkpt>
    <trkpt lat="37.2885848" lon="127.0661028"></trkpt>
    <trkpt lat="37.2885869" lon="127.0661598"></trkpt>
    <trkpt lat="37.2885997" lon="127.0662061"></trkpt>
    <trkpt lat="37.2886481" lon="127.0662444"></trkpt>
    <trkpt lat="37.2887164" lon="127.0662551"></trkpt>
    <trkpt lat="37.2887719" lon="127.0662551"></trkpt>
    <trkpt lat="37.2888210" lon="127.0662444"></trkpt>
    <trkpt lat="37.2888695" lon="127.0662283"></trkpt>
    <trkpt lat="37.2889575" lon="127.0661941"></trkpt>
    <trkpt lat="37.2890355" lon="127.0661572"></trkpt>
    <trkpt lat="37.2908862" lon="127.0649897"></trkpt>
    <trkpt lat="37.2909247" lon="127.0649569"></trkpt>
    <trkpt lat="37.2909652" lon="127.0648965"></trkpt>
    <trkpt lat="37.2910004" lon="127.0647886"></trkpt>
    <trkpt lat="37.2910212" lon="127.0646860"></trkpt>
    <trkpt lat="37.2910228" lon="127.0645975"></trkpt>
    <trkpt lat="37.2910018" lon="127.0644782"></trkpt>
    <trkpt lat="37.2909656" lon="127.0643971"></trkpt>
    <trkpt lat="37.2909021" lon="127.0643146"></trkpt>
    <trkpt lat="37.2908173" lon="127.0642516"></trkpt>
    <trkpt lat="37.2907271" lon="127.0642214"></trkpt>
    <trkpt lat="37.2905047" lon="127.0642235"></trkpt>
    <trkpt lat="37.2901237" lon="127.0642354"></trkpt>
    <trkpt lat="37.2900512" lon="127.0642449"></trkpt>
    <trkpt lat="37.2900064" lon="127.0642663"></trkpt>
    <trkpt lat="37.2899743" lon="127.0642869"></trkpt>
    <trkpt lat="37.2889703" lon="127.0649320"></trkpt>
    <trkpt lat="37.2887228" lon="127.0650910"></trkpt>
    <trkpt lat="37.2886258" lon="127.0651755"></trkpt>
    <trkpt lat="37.2885793" lon="127.0652372"></trkpt>
    <trkpt lat="37.2885521" lon="127.0652982"></trkpt>
    <trkpt lat="37.2885229" lon="127.0653760"></trkpt>
    <trkpt lat="37.2885000" lon="127.0654859"></trkpt>
    <trkpt lat="37.2885011" lon="127.0655926"></trkpt>
    <trkpt lat="37.2885139" lon="127.0656905"></trkpt>
    <trkpt lat="37.2885347" lon="127.0657857"></trkpt>
    <trkpt lat="37.2885587" lon="127.0658916"></trkpt>
    <trkpt lat="37.2885731" lon="127.0659560"></trkpt>
    <trkpt lat="37.2885832" lon="127.0660224"></trkpt>
    <trkpt lat="37.2885848" lon="127.0661028"></trkpt>
    <trkpt lat="37.2885869" lon="127.0661598"></trkpt>
    <trkpt lat="37.2885997" lon="127.0662061"></trkpt>
    <trkpt lat="37.2886481" lon="127.0662444"></trkpt>
    <trkpt lat="37.2887164" lon="127.0662551"></trkpt>
    <trkpt lat="37.2887719" lon="127.0662551"></trkpt>
    <trkpt lat="37.2888210" lon="127.0662444"></trkpt>
    <trkpt lat="37.2888695" lon="127.0662283"></trkpt>
    <trkpt lat="37.2889575" lon="127.0661941"></trkpt>
    <trkpt lat="37.2890355" lon="127.0661572"></trkpt>
    <trkpt lat="37.2908862" lon="127.0649897"></trkpt>
    <trkpt lat="37.2909247" lon="127.0649569"></trkpt>
    <trkpt lat="37.2909652" lon="127.0648965"></trkpt>
    <trkpt lat="37.2910004" lon="127.0647886"></trkpt>
    <trkpt lat="37.2910212" lon="127.0646860"></trkpt>
    <trkpt lat="37.2910228" lon="127.0645975"></trkpt>
    <trkpt lat="37.2910018" lon="127.0644782"></trkpt>
    <trkpt lat="37.2909656" lon="127.0643971"></trkpt>
    <trkpt lat="37.2909021" lon="127.0643146"></trkpt>
    <trkpt lat="37.2908173" lon="127.0642516"></trkpt>
    <trkpt lat="37.2907271" lon="127.0642214"></trkpt>
    <trkpt lat="37.2905047" lon="127.0642235"></trkpt>
    <trkpt lat="37.2901237" lon="127.0642354"></trkpt>
    <trkpt lat="37.2900512" lon="127.0642449"></trkpt>
    <trkpt lat="37.2900064" lon="127.0642663"></trkpt>
    <trkpt lat="37.2899743" lon="127.0642869"></trkpt>
    <trkpt lat="37.2889703" lon="127.0649320"></trkpt>
    <trkpt lat="37.2887228" lon="127.0650910"></trkpt>
    <trkpt lat="37.2886258" lon="127.0651755"></trkpt>
    <trkpt lat="37.2885793" lon="127.0652372"></trkpt>
    <trkpt lat="37.2885521" lon="127.0652982"></trkpt>
    <trkpt lat="37.2885229" lon="127.0653760"></trkpt>
    <trkpt lat="37.2885000" lon="127.0654859"></trkpt>
    <trkpt lat="37.2885011" lon="127.0655926"></trkpt>
    <trkpt lat="37.2885139" lon="127.0656905"></trkpt>
    <trkpt lat="37.2885347" lon="127.0657857"></trkpt>
    <trkpt lat="37.2885587" lon="127.0658916"></trkpt>
    <trkpt lat="37.2885731" lon="127.0659560"></trkpt>
    <trkpt lat="37.2885832" lon="127.0660224"></trkpt>
    <trkpt lat="37.2885848" lon="127.0661028"></trkpt>
    <trkpt lat="37.2885869" lon="127.0661598"></trkpt>
    <trkpt lat="37.2885997" lon="127.0662061"></trkpt>
    <trkpt lat="37.2886481" lon="127.0662444"></trkpt>
    <trkpt lat="37.2887164" lon="127.0662551"></trkpt>
    <trkpt lat="37.2887719" lon="127.0662551"></trkpt>
    <trkpt lat="37.2888210" lon="127.0662444"></trkpt>
    <trkpt lat="37.2888695" lon="127.0662283"></trkpt>
    <trkpt lat="37.2889575" lon="127.0661941"></trkpt>
    <trkpt lat="37.2890355" lon="127.0661572"></trkpt>
    <trkpt lat="37.2908862" lon="127.0649897"></trkpt>
    <trkpt lat="37.2909247" lon="127.0649569"></trkpt>
    <trkpt lat="37.2909652" lon="127.0648965"></trkpt>
    <trkpt lat="37.2910004" lon="127.0647886"></trkpt>
    <trkpt lat="37.2910212" lon="127.0646860"></trkpt>
    <trkpt lat="37.2910228" lon="127.0645975"></trkpt>
    <trkpt lat="37.2910018" lon="127.0644782"></trkpt>
    <trkpt lat="37.2909656" lon="127.0643971"></trkpt>
    <trkpt lat="37.2909021" lon="127.0643146"></trkpt>
    <trkpt lat="37.2908173" lon="127.0642516"></trkpt>
    <trkpt lat="37.2907271" lon="127.0642214"></trkpt>
    <trkpt lat="37.2905047" lon="127.0642235"></trkpt>
    <trkpt lat="37.2901237" lon="127.0642354"></trkpt>
    <trkpt lat="37.2900512" lon="127.0642449"></trkpt>
    <trkpt lat="37.2900064" lon="127.0642663"></trkpt>
    <trkpt lat="37.2899743" lon="127.0642869"></trkpt>
    <trkpt lat="37.2889703" lon="127.0649320"></trkpt>
    <trkpt lat="37.2887228" lon="127.0650910"></trkpt>
    <trkpt lat="37.2886258" lon="127.0651755"></trkpt>
    <trkpt lat="37.2885793" lon="127.0652372"></trkpt>
    <trkpt lat="37.2885521" lon="127.0652982"></trkpt>
    <trkpt lat="37.2885229" lon="127.0653760"></trkpt>
    <trkpt lat="37.2885000" lon="127.0654859"></trkpt>
    <trkpt lat="37.2885011" lon="127.0655926"></trkpt>
    <trkpt lat="37.2885139" lon="127.0656905"></trkpt>
    <trkpt lat="37.2885347" lon="127.0657857"></trkpt>
    <trkpt lat="37.2885587" lon="127.0658916"></trkpt>
    <trkpt lat="37.2885731" lon="127.0659560"></trkpt>
    <trkpt lat="37.2885832" lon="127.0660224"></trkpt>
    <trkpt lat="37.2885848" lon="127.0661028"></trkpt>
    <trkpt lat="37.2885869" lon="127.0661598"></trkpt>
    <trkpt lat="37.2885997" lon="127.0662061"></trkpt>
    <trkpt lat="37.2886481" lon="127.0662444"></trkpt>
    <trkpt lat="37.2887164" lon="127.0662551"></trkpt>
    <trkpt lat="37.2887719" lon="127.0662551"></trkpt>
    <trkpt lat="37.2888210" lon="127.0662444"></trkpt>
    <trkpt lat="37.2888695" lon="127.0662283"></trkpt>
    <trkpt lat="37.2889575" lon="127.0661941"></trkpt>
    <trkpt lat="37.2890355" lon="127.0661572"></trkpt>
    <trkpt lat="37.2908862" lon="127.0649897"></trkpt>
    <trkpt lat="37.2909247" lon="127.0649569"></trkpt>
    <trkpt lat="37.2909652" lon="127.0648965"></trkpt>
    <trkpt lat="37.2910004" lon="127.0647886"></trkpt>
    <trkpt lat="37.2910212" lon="127.0646860"></trkpt>
    <trkpt lat="37.2910228" lon="127.0645975"></trkpt>
    <trkpt lat="37.2910018" lon="127.0644782"></trkpt>
    <trkpt lat="37.2909656" lon="127.0643971"></trkpt>
    <trkpt lat="37.2909021" lon="127.0643146"></trkpt>
    <trkpt lat="37.2908173" lon="127.0642516"></trkpt>
    <trkpt lat="37.2907271" lon="127.0642214"></trkpt>
    <trkpt lat="37.2905047" lon="127.0642235"></trkpt>
    <trkpt lat="37.2901237" lon="127.0642354"></trkpt>
    <trkpt lat="37.2900512" lon="127.0642449"></trkpt>
    <trkpt lat="37.2900064" lon="127.0642663"></trkpt>
    <trkpt lat="37.2899743" lon="127.0642869"></trkpt>
    <trkpt lat="37.2889703" lon="127.0649320"></trkpt>
    <trkpt lat="37.2887228" lon="127.0650910"></trkpt>
    <trkpt lat="37.2886258" lon="127.0651755"></trkpt>
    <trkpt lat="37.2885793" lon="127.0652372"></trkpt>
    <trkpt lat="37.2885521" lon="127.0652982"></trkpt>
    <trkpt lat="37.2885229" lon="127.0653760"></trkpt>
    <trkpt lat="37.2885000" lon="127.0654859"></trkpt>
    <trkpt lat="37.2885011" lon="127.0655926"></trkpt>
    <trkpt lat="37.2885139" lon="127.0656905"></trkpt>
    <trkpt lat="37.2885347" lon="127.0657857"></trkpt>
    <trkpt lat="37.2885587" lon="127.0658916"></trkpt>
    <trkpt lat="37.2885731" lon="127.0659560"></trkpt>
    <trkpt lat="37.2885832" lon="127.0660224"></trkpt>
    <trkpt lat="37.2885848" lon="127.0661028"></trkpt>
    <trkpt lat="37.2885869" lon="127.0661598"></trkpt>
    <trkpt lat="37.2885997" lon="127.0662061"></trkpt>
    <trkpt lat="37.2886481" lon="127.0662444"></trkpt>
    <trkpt lat="37.2887164" lon="127.0662551"></trkpt>
    <trkpt lat="37.2887719" lon="127.0662551"></trkpt>
    <trkpt lat="37.2888210" lon="127.0662444"></trkpt>
    <trkpt lat="37.2888695" lon="127.0662283"></trkpt>
    <trkpt lat="37.2889575" lon="127.0661941"></trkpt>
    <trkpt lat="37.2890355" lon="127.0661572"></trkpt>
    <trkpt lat="37.2908862" lon="127.0649897"></trkpt>
    <trkpt lat="37.2909247" lon="127.0649569"></trkpt>
    <trkpt lat="37.2909652" lon="127.0648965"></trkpt>
    <trkpt lat="37.2910004" lon="127.0647886"></trkpt>
    <trkpt lat="37.2910212" lon="127.0646860"></trkpt>
    <trkpt lat="37.2910228" lon="127.0645975"></trkpt>
    <trkpt lat="37.2910018" lon="127.0644782"></trkpt>
    <trkpt lat="37.2909656" lon="127.0643971"></trkpt>
    <trkpt lat="37.2909021" lon="127.0643146"></trkpt>
    <trkpt lat="37.2908173" lon="127.0642516"></trkpt>
    <trkpt lat="37.2907271" lon="127.0642214"></trkpt>
    <trkpt lat="37.2905047" lon="127.0642235"></trkpt>
    <trkpt lat="37.2901237" lon="127.0642354"></trkpt>
    <trkpt lat="37.2900512" lon="127.0642449"></trkpt>
    <trkpt lat="37.2900064" lon="127.0642663"></trkpt>
    <trkpt lat="37.2899743" lon="127.0642869"></trkpt>
    <trkpt lat="37.2889703" lon="127.0649320"></trkpt>
    <trkpt lat="37.2887228" lon="127.0650910"></trkpt>
    <trkpt lat="37.2886258" lon="127.0651755"></trkpt>
    <trkpt lat="37.2885793" lon="127.0652372"></trkpt>
    <trkpt lat="37.2885521" lon="127.0652982"></trkpt>
    <trkpt lat="37.2885229" lon="127.0653760"></trkpt>
    <trkpt lat="37.2885000" lon="127.0654859"></trkpt>
    <trkpt lat="37.2885011" lon="127.0655926"></trkpt>
    <trkpt lat="37.2885139" lon="127.0656905"></trkpt>
    <trkpt lat="37.2885347" lon="127.0657857"></trkpt>
    <trkpt lat="37.2885587" lon="127.0658916"></trkpt>
    <trkpt lat="37.2885731" lon="127.0659560"></trkpt>
    <trkpt lat="37.2885832" lon="127.0660224"></trkpt>
    <trkpt lat="37.2885848" lon="127.0661028"></trkpt>
    <trkpt lat="37.2885869" lon="127.0661598"></trkpt>
    <trkpt lat="37.2885997" lon="127.0662061"></trkpt>
    <trkpt lat="37.2886481" lon="127.0662444"></trkpt>
    <trkpt lat="37.2887164" lon="127.0662551"></trkpt>
    <trkpt lat="37.2887719" lon="127.0662551"></trkpt>
    <trkpt lat="37.2888210" lon="127.0662444"></trkpt>
    <trkpt lat="37.2888695" lon="127.0662283"></trkpt>
    <trkpt lat="37.2889575" lon="127.0661941"></trkpt>
    <trkpt lat="37.2890355" lon="127.0661572"></trkpt>
    <trkpt lat="37.2908862" lon="127.0649897"></trkpt>
    <trkpt lat="37.2909247" lon="127.0649569"></trkpt>
    <trkpt lat="37.2909652" lon="127.0648965"></trkpt>
    <trkpt lat="37.2910004" lon="127.0647886"></trkpt>
    <trkpt lat="37.2910212" lon="127.0646860"></trkpt>
    <trkpt lat="37.2910228" lon="127.0645975"></trkpt>
    <trkpt lat="37.2910018" lon="127.0644782"></trkpt>
    <trkpt lat="37.2909656" lon="127.0643971"></trkpt>
    <trkpt lat="37.2909021" lon="127.0643146"></trkpt>
    <trkpt lat="37.2908173" lon="127.0642516"></trkpt>
    <trkpt lat="37.2907271" lon="127.0642214"></trkpt>
    <trkpt lat="37.2905047" lon="127.0642235"></trkpt>
    <trkpt lat="37.2901237" lon="127.0642354"></trkpt>
    <trkpt lat="37.2900512" lon="127.0642449"></trkpt>
    <trkpt lat="37.2900064" lon="127.0642663"></trkpt>
    <trkpt lat="37.2899743" lon="127.0642869"></trkpt>
    <trkpt lat="37.2889703" lon="127.0649320"></trkpt>
    <trkpt lat="37.2887228" lon="127.0650910"></trkpt>
    <trkpt lat="37.2886258" lon="127.0651755"></trkpt>
    <trkpt lat="37.2885793" lon="127.0652372"></trkpt>
    <trkpt lat="37.2885521" lon="127.0652982"></trkpt>
    <trkpt lat="37.2885229" lon="127.0653760"></trkpt>
    <trkpt lat="37.2885000" lon="127.0654859"></trkpt>
    <trkpt lat="37.2885011" lon="127.0655926"></trkpt>
    <trkpt lat="37.2885139" lon="127.0656905"></trkpt>
    <trkpt lat="37.2885347" lon="127.0657857"></trkpt>
    <trkpt lat="37.2885587" lon="127.0658916"></trkpt>
    <trkpt lat="37.2885731" lon="127.0659560"></trkpt>
    <trkpt lat="37.2885832" lon="127.0660224"></trkpt>
    <trkpt lat="37.2885848" lon="127.0661028"></trkpt>
    <trkpt lat="37.2885869" lon="127.0661598"></trkpt>
    <trkpt lat="37.2885997" lon="127.0662061"></trkpt>
    <trkpt lat="37.2886481" lon="127.0662444"></trkpt>
    <trkpt lat="37.2887164" lon="127.0662551"></trkpt>
    <trkpt lat="37.2887719" lon="127.0662551"></trkpt>
    <trkpt lat="37.2888210" lon="127.0662444"></trkpt>
    <trkpt lat="37.2888695" lon="127.0662283"></trkpt>
    <trkpt lat="37.2889575" lon="127.0661941"></trkpt>
    <trkpt lat="37.2890355" lon="127.0661572"></trkpt>
    <trkpt lat="37.2908862" lon="127.0649897"></trkpt>
    <trkpt lat="37.2909247" lon="127.0649569"></trkpt>
    <trkpt lat="37.2909652" lon="127.0648965"></trkpt>
    <trkpt lat="37.2910004" lon="127.0647886"></trkpt>
    <trkpt lat="37.2910212" lon="127.0646860"></trkpt>
    <trkpt lat="37.2910228" lon="127.0645975"></trkpt>
    <trkpt lat="37.2910018" lon="127.0644782"></trkpt>
    <trkpt lat="37.2909656" lon="127.0643971"></trkpt>
    <trkpt lat="37.2909021" lon="127.0643146"></trkpt>
    <trkpt lat="37.2908173" lon="127.0642516"></trkpt>
    <trkpt lat="37.2907271" lon="127.0642214"></trkpt>
    <trkpt lat="37.2905047" lon="127.0642235"></trkpt>
    <trkpt lat="37.2901237" lon="127.0642354"></trkpt>
    <trkpt lat="37.2900512" lon="127.0642449"></trkpt>
    <trkpt lat="37.2900064" lon="127.0642663"></trkpt>
    <trkpt lat="37.2899743" lon="127.0642869"></trkpt>
    <trkpt lat="37.2889703" lon="127.0649320"></trkpt>
    <trkpt lat="37.2887228" lon="127.0650910"></trkpt>
    <trkpt lat="37.2886258" lon="127.0651755"></trkpt>
    <trkpt lat="37.2885793" lon="127.0652372"></trkpt>
    <trkpt lat="37.2885521" lon="127.0652982"></trkpt>
    <trkpt lat="37.2885229" lon="127.0653760"></trkpt>
    <trkpt lat="37.2885000" lon="127.0654859"></trkpt>
    <trkpt lat="37.2885011" lon="127.0655926"></trkpt>
    <trkpt lat="37.2885139" lon="127.0656905"></trkpt>
    <trkpt lat="37.2885347" lon="127.0657857"></trkpt>
    <trkpt lat="37.2885587" lon="127.0658916"></trkpt>
    <trkpt lat="37.2885731" lon="127.0659560"></trkpt>
    <trkpt lat="37.2885832" lon="127.0660224"></trkpt>
    <trkpt lat="37.2885848" lon="127.0661028"></trkpt>
    <trkpt lat="37.2885869" lon="127.0661598"></trkpt>
    <trkpt lat="37.2885997" lon="127.0662061"></trkpt>
  </trkseg></trk>
</gpx>