<?xml version="1.0" encoding="UTF-8"?>
<gpx version="1.1" creator="RunNavi nationwide seed" xmlns="http://www.topografix.com/GPX/1/1">
  <metadata>
    <name>여의도공원 순환 5.1K</name>
    <copyright author="OpenStreetMap contributors">
      <license>https://opendatacommons.org/licenses/odbl/1-0/</license>
    </copyright>
  </metadata>
  <trk><name>여의도공원 순환 5.1K</name><trkseg>
    <trkpt lat="37.5245157" lon="126.9212390"></trkpt>
    <trkpt lat="37.5245348" lon="126.9212697"></trkpt>
    <trkpt lat="37.5246114" lon="126.9213587"></trkpt>
    <trkpt lat="37.5248577" lon="126.9217593"></trkpt>
    <trkpt lat="37.5249520" lon="126.9219509"></trkpt>
    <trkpt lat="37.5251168" lon="126.9221252"></trkpt>
    <trkpt lat="37.5252881" lon="126.9224498"></trkpt>
    <trkpt lat="37.5254125" lon="126.9226067"></trkpt>
    <trkpt lat="37.5255710" lon="126.9228427"></trkpt>
    <trkpt lat="37.5258209" lon="126.9232357"></trkpt>
    <trkpt lat="37.5260656" lon="126.9236179"></trkpt>
    <trkpt lat="37.5262212" lon="126.9238443"></trkpt>
    <trkpt lat="37.5263876" lon="126.9241357"></trkpt>
    <trkpt lat="37.5264100" lon="126.9242033"></trkpt>
    <trkpt lat="37.5264315" lon="126.9242682"></trkpt>
    <trkpt lat="37.5264780" lon="126.9244900"></trkpt>
    <trkpt lat="37.5265977" lon="126.9247611"></trkpt>
    <trkpt lat="37.5266415" lon="126.9248243"></trkpt>
    <trkpt lat="37.5267849" lon="126.9249634"></trkpt>
    <trkpt lat="37.5269129" lon="126.9250877"></trkpt>
    <trkpt lat="37.5270513" lon="126.9252083"></trkpt>
    <trkpt lat="37.5270864" lon="126.9252572"></trkpt>
    <trkpt lat="37.5272300" lon="126.9255810"></trkpt>
    <trkpt lat="37.5272713" lon="126.9256703"></trkpt>
    <trkpt lat="37.5274229" lon="126.9259456"></trkpt>
    <trkpt lat="37.5274803" lon="126.9260765"></trkpt>
    <trkpt lat="37.5275487" lon="126.9262414"></trkpt>
    <trkpt lat="37.5276575" lon="126.9264493"></trkpt>
    <trkpt lat="37.5276781" lon="126.9264923"></trkpt>
    <trkpt lat="37.5277131" lon="126.9265656"></trkpt>
    <trkpt lat="37.5278215" lon="126.9266863"></trkpt>
    <trkpt lat="37.5279875" lon="126.9268124"></trkpt>
    <trkpt lat="37.5281215" lon="126.9269572"></trkpt>
    <trkpt lat="37.5282874" lon="126.9271423"></trkpt>
    <trkpt lat="37.5283799" lon="126.9273421"></trkpt>
    <trkpt lat="37.5284522" lon="126.9275165"></trkpt>
    <trkpt lat="37.5285448" lon="126.9276465"></trkpt>
    <trkpt lat="37.5287575" lon="126.9278491"></trkpt>
    <trkpt lat="37.5288933" lon="126.9278879"></trkpt>
    <trkpt lat="37.5291202" lon="126.9278021"></trkpt>
    <trkpt lat="37.5292701" lon="126.9276439"></trkpt>
    <trkpt lat="37.5293825" lon="126.9274500"></trkpt>
    <trkpt lat="37.5293946" lon="126.9274293"></trkpt>
    <trkpt lat="37.5293977" lon="126.9273979"></trkpt>
    <trkpt lat="37.5294180" lon="126.9271959"></trkpt>
    <trkpt lat="37.5293792" lon="126.9267031"></trkpt>
    <trkpt lat="37.5293743" lon="126.9266407"></trkpt>
    <trkpt lat="37.5292542" lon="126.9262759"></trkpt>
    <trkpt lat="37.5291037" lon="126.9259839"></trkpt>
    <trkpt lat="37.5290710" lon="126.9259321"></trkpt>
    <trkpt lat="37.5289333" lon="126.9257269"></trkpt>
    <trkpt lat="37.5288252" lon="126.9256284"></trkpt>
    <trkpt lat="37.5285692" lon="126.9254391"></trkpt>
    <trkpt lat="37.5283693" lon="126.9252191"></trkpt>
    <trkpt lat="37.5281269" lon="126.9248453"></trkpt>
    <trkpt lat="37.5278857" lon="126.9244651"></trkpt>
    <trkpt lat="37.5277883" lon="126.9242509"></trkpt>
    <trkpt lat="37.5277135" lon="126.9240102"></trkpt>
    <trkpt lat="37.5276274" lon="126.9237429"></trkpt>
    <trkpt lat="37.5275448" lon="126.9236055"></trkpt>
    <trkpt lat="37.5274769" lon="126.9235119"></trkpt>
    <trkpt lat="37.5272568" lon="126.9232142"></trkpt>
    <trkpt lat="37.5269069" lon="126.9228115"></trkpt>
    <trkpt lat="37.5268273" lon="126.9227159"></trkpt>
    <trkpt lat="37.5266652" lon="126.9224758"></trkpt>
    <trkpt lat="37.5265373" lon="126.9222282"></trkpt>
    <trkpt lat="37.5264625" lon="126.9219048"></trkpt>
    <trkpt lat="37.5263758" lon="126.9216957"></trkpt>
    <trkpt lat="37.5261900" lon="126.9214815"></trkpt>
    <trkpt lat="37.5260322" lon="126.9213292"></trkpt>
    <trkpt lat="37.5259635" lon="126.9212629"></trkpt>
    <trkpt lat="37.5258326" lon="126.9210993"></trkpt>
    <trkpt lat="37.5257883" lon="126.9209664"></trkpt>
    <trkpt lat="37.5257137" lon="126.9207088"></trkpt>
    <trkpt lat="37.5253572" lon="126.9201256"></trkpt>
    <trkpt lat="37.5251806" lon="126.9199178"></trkpt>
    <trkpt lat="37.5250296" lon="126.9197112"></trkpt>
    <trkpt lat="37.5249286" lon="126.9194779"></trkpt>
    <trkpt lat="37.5247850" lon="126.9193116"></trkpt>
    <trkpt lat="37.5245861" lon="126.9190112"></trkpt>
    <trkpt lat="37.5244093" lon="126.9186377"></trkpt>
    <trkpt lat="37.5244019" lon="126.9186202"></trkpt>
    <trkpt lat="37.5243627" lon="126.9185270"></trkpt>
    <trkpt lat="37.5242043" lon="126.9182695"></trkpt>
    <trkpt lat="37.5241417" lon="126.9181928"></trkpt>
    <trkpt lat="37.5238522" lon="126.9178377"></trkpt>
    <trkpt lat="37.5237596" lon="126.9176821"></trkpt>
    <trkpt lat="37.5236352" lon="126.9173938"></trkpt>
    <trkpt lat="37.5234650" lon="126.9171377"></trkpt>
    <trkpt lat="37.5232799" lon="126.9170237"></trkpt>
    <trkpt lat="37.5231470" lon="126.9170384"></trkpt>
    <trkpt lat="37.5230289" lon="126.9170693"></trkpt>
    <trkpt lat="37.5228109" lon="126.9172436"></trkpt>
    <trkpt lat="37.5226205" lon="126.9174729"></trkpt>
    <trkpt lat="37.5225343" lon="126.9176687"></trkpt>
    <trkpt lat="37.5225280" lon="126.9179115"></trkpt>
    <trkpt lat="37.5225684" lon="126.9180818"></trkpt>
    <trkpt lat="37.5226684" lon="126.9182695"></trkpt>
    <trkpt lat="37.5231874" lon="126.9190595"></trkpt>
    <trkpt lat="37.5232787" lon="126.9191718"></trkpt>
    <trkpt lat="37.5234382" lon="126.9194788"></trkpt>
    <trkpt lat="37.5237837" lon="126.9195258"></trkpt>
    <trkpt lat="37.5247200" lon="126.9210759"></trkpt>
    <trkpt lat="37.5245348" lon="126.9212697"></trkpt>
    <trkpt lat="37.5245348" lon="126.9212697"></trkpt>
    <trkpt lat="37.5246114" lon="126.9213587"></trkpt>
    <trkpt lat="37.5248577" lon="126.9217593"></trkpt>
    <trkpt lat="37.5249520" lon="126.9219509"></trkpt>
    <trkpt lat="37.5251168" lon="126.9221252"></trkpt>
    <trkpt lat="37.5252881" lon="126.9224498"></trkpt>
    <trkpt lat="37.5254125" lon="126.9226067"></trkpt>
    <trkpt lat="37.5255710" lon="126.9228427"></trkpt>
    <trkpt lat="37.5258209" lon="126.9232357"></trkpt>
    <trkpt lat="37.5260656" lon="126.9236179"></trkpt>
    <trkpt lat="37.5262212" lon="126.9238443"></trkpt>
    <trkpt lat="37.5263876" lon="126.9241357"></trkpt>
    <trkpt lat="37.5264100" lon="126.9242033"></trkpt>
    <trkpt lat="37.5264315" lon="126.9242682"></trkpt>
    <trkpt lat="37.5264780" lon="126.9244900"></trkpt>
    <trkpt lat="37.5265977" lon="126.9247611"></trkpt>
    <trkpt lat="37.5266415" lon="126.9248243"></trkpt>
    <trkpt lat="37.5267849" lon="126.9249634"></trkpt>
    <trkpt lat="37.5269129" lon="126.9250877"></trkpt>
    <trkpt lat="37.5270513" lon="126.9252083"></trkpt>
    <trkpt lat="37.5270864" lon="126.9252572"></trkpt>
    <trkpt lat="37.5272300" lon="126.9255810"></trkpt>
    <trkpt lat="37.5272713" lon="126.9256703"></trkpt>
    <trkpt lat="37.5274229" lon="126.9259456"></trkpt>
    <trkpt lat="37.5274803" lon="126.9260765"></trkpt>
    <trkpt lat="37.5275487" lon="126.9262414"></trkpt>
    <trkpt lat="37.5276575" lon="126.9264493"></trkpt>
    <trkpt lat="37.5276781" lon="126.9264923"></trkpt>
    <trkpt lat="37.5277131" lon="126.9265656"></trkpt>
    <trkpt lat="37.5278215" lon="126.9266863"></trkpt>
    <trkpt lat="37.5279875" lon="126.9268124"></trkpt>
    <trkpt lat="37.5281215" lon="126.9269572"></trkpt>
    <trkpt lat="37.5282874" lon="126.9271423"></trkpt>
    <trkpt lat="37.5283799" lon="126.9273421"></trkpt>
    <trkpt lat="37.5284522" lon="126.9275165"></trkpt>
    <trkpt lat="37.5285448" lon="126.9276465"></trkpt>
    <trkpt lat="37.5287575" lon="126.9278491"></trkpt>
    <trkpt lat="37.5288933" lon="126.9278879"></trkpt>
    <trkpt lat="37.5291202" lon="126.9278021"></trkpt>
    <trkpt lat="37.5292701" lon="126.9276439"></trkpt>
    <trkpt lat="37.5293825" lon="126.9274500"></trkpt>
    <trkpt lat="37.5293946" lon="126.9274293"></trkpt>
    <trkpt lat="37.5293977" lon="126.9273979"></trkpt>
    <trkpt lat="37.5294180" lon="126.9271959"></trkpt>
    <trkpt lat="37.5293792" lon="126.9267031"></trkpt>
    <trkpt lat="37.5293743" lon="126.9266407"></trkpt>
    <trkpt lat="37.5292542" lon="126.9262759"></trkpt>
    <trkpt lat="37.5291037" lon="126.9259839"></trkpt>
    <trkpt lat="37.5290710" lon="126.9259321"></trkpt>
    <trkpt lat="37.5289333" lon="126.9257269"></trkpt>
    <trkpt lat="37.5288252" lon="126.9256284"></trkpt>
    <trkpt lat="37.5285692" lon="126.9254391"></trkpt>
    <trkpt lat="37.5283693" lon="126.9252191"></trkpt>
    <trkpt lat="37.5281269" lon="126.9248453"></trkpt>
    <trkpt lat="37.5278857" lon="126.9244651"></trkpt>
    <trkpt lat="37.5277883" lon="126.9242509"></trkpt>
    <trkpt lat="37.5277135" lon="126.9240102"></trkpt>
    <trkpt lat="37.5276274" lon="126.9237429"></trkpt>
    <trkpt lat="37.5275448" lon="126.9236055"></trkpt>
    <trkpt lat="37.5274769" lon="126.9235119"></trkpt>
    <trkpt lat="37.5272568" lon="126.9232142"></trkpt>
    <trkpt lat="37.5269069" lon="126.9228115"></trkpt>
    <trkpt lat="37.5268273" lon="126.9227159"></trkpt>
    <trkpt lat="37.5266652" lon="126.9224758"></trkpt>
    <trkpt lat="37.5265373" lon="126.9222282"></trkpt>
    <trkpt lat="37.5264625" lon="126.9219048"></trkpt>
    <trkpt lat="37.5263758" lon="126.9216957"></trkpt>
    <trkpt lat="37.5261900" lon="126.9214815"></trkpt>
    <trkpt lat="37.5260322" lon="126.9213292"></trkpt>
    <trkpt lat="37.5259635" lon="126.9212629"></trkpt>
    <trkpt lat="37.5258326" lon="126.9210993"></trkpt>
    <trkpt lat="37.5257883" lon="126.9209664"></trkpt>
    <trkpt lat="37.5257137" lon="126.9207088"></trkpt>
    <trkpt lat="37.5253572" lon="126.9201256"></trkpt>
    <trkpt lat="37.5251806" lon="126.9199178"></trkpt>
    <trkpt lat="37.5250296" lon="126.9197112"></trkpt>
    <trkpt lat="37.5249286" lon="126.9194779"></trkpt>
    <trkpt lat="37.5247850" lon="126.9193116"></trkpt>
    <trkpt lat="37.5245861" lon="126.9190112"></trkpt>
    <trkpt lat="37.5244093" lon="126.9186377"></trkpt>
    <trkpt lat="37.5244019" lon="126.9186202"></trkpt>
    <trkpt lat="37.5243627" lon="126.9185270"></trkpt>
    <trkpt lat="37.5242043" lon="126.9182695"></trkpt>
    <trkpt lat="37.5241417" lon="126.9181928"></trkpt>
    <trkpt lat="37.5238522" lon="126.9178377"></trkpt>
    <trkpt lat="37.5237596" lon="126.9176821"></trkpt>
    <trkpt lat="37.5236352" lon="126.9173938"></trkpt>
    <trkpt lat="37.5234650" lon="126.9171377"></trkpt>
    <trkpt lat="37.5232799" lon="126.9170237"></trkpt>
    <trkpt lat="37.5231470" lon="126.9170384"></trkpt>
    <trkpt lat="37.5230289" lon="126.9170693"></trkpt>
    <trkpt lat="37.5228109" lon="126.9172436"></trkpt>
    <trkpt lat="37.5226205" lon="126.9174729"></trkpt>
    <trkpt lat="37.5225343" lon="126.9176687"></trkpt>
    <trkpt lat="37.5225280" lon="126.9179115"></trkpt>
    <trkpt lat="37.5225684" lon="126.9180818"></trkpt>
    <trkpt lat="37.5226684" lon="126.9182695"></trkpt>
    <trkpt lat="37.5231874" lon="126.9190595"></trkpt>
    <trkpt lat="37.5232787" lon="126.9191718"></trkpt>
    <trkpt lat="37.5234382" lon="126.9194788"></trkpt>
    <trkpt lat="37.5237837" lon="126.9195258"></trkpt>
    <trkpt lat="37.5247200" lon="126.9210759"></trkpt>
    <trkpt lat="37.5245348" lon="126.9212697"></trkpt>
  </trkseg></trk>
</gpx>