<?xml version="1.0" encoding="UTF-8"?>
<gpx version="1.1" creator="RunNavi nationwide seed" xmlns="http://www.topografix.com/GPX/1/1">
  <metadata>
    <name>동천 · 순천만 방향 왕복 10K</name>
    <copyright author="OpenStreetMap contributors">
      <license>https://opendatacommons.org/licenses/odbl/1-0/</license>
    </copyright>
  </metadata>
  <trk><name>동천 · 순천만 방향 왕복 10K</name><trkseg>
    <trkpt lat="34.9448412" lon="127.4988772"></trkpt>
    <trkpt lat="34.9448432" lon="127.4987940"></trkpt>
    <trkpt lat="34.9448532" lon="127.4987472"></trkpt>
    <trkpt lat="34.9448815" lon="127.4987086"></trkpt>
    <trkpt lat="34.9449432" lon="127.4986659"></trkpt>
    <trkpt lat="34.9449982" lon="127.4985968"></trkpt>
    <trkpt lat="34.9450184" lon="127.4985410"></trkpt>
    <trkpt lat="34.9448183" lon="127.4986228"></trkpt>
    <trkpt lat="34.9446292" lon="127.4986953"></trkpt>
    <trkpt lat="34.9445411" lon="127.4987300"></trkpt>
    <trkpt lat="34.9440205" lon="127.4986214"></trkpt>
    <trkpt lat="34.9439361" lon="127.4986182"></trkpt>
    <trkpt lat="34.9438890" lon="127.4986218"></trkpt>
    <trkpt lat="34.9438305" lon="127.4986370"></trkpt>
    <trkpt lat="34.9437769" lon="127.4986551"></trkpt>
    <trkpt lat="34.9432512" lon="127.4988602"></trkpt>
    <trkpt lat="34.9431257" lon="127.4989079"></trkpt>
    <trkpt lat="34.9430320" lon="127.4989505"></trkpt>
    <trkpt lat="34.9429525" lon="127.4989828"></trkpt>
    <trkpt lat="34.9429082" lon="127.4990050"></trkpt>
    <trkpt lat="34.9429016" lon="127.4989725"></trkpt>
    <trkpt lat="34.9426581" lon="127.4980600"></trkpt>
    <trkpt lat="34.9426478" lon="127.4980225"></trkpt>
    <trkpt lat="34.9414975" lon="127.4985021"></trkpt>
    <trkpt lat="34.9410091" lon="127.4987137"></trkpt>
    <trkpt lat="34.9408148" lon="127.4988057"></trkpt>
    <trkpt lat="34.9406723" lon="127.4988777"></trkpt>
    <trkpt lat="34.9405435" lon="127.4989503"></trkpt>
    <trkpt lat="34.9400557" lon="127.4992283"></trkpt>
    <trkpt lat="34.9395678" lon="127.4995093"></trkpt>
    <trkpt lat="34.9388246" lon="127.4998671"></trkpt>
    <trkpt lat="34.9387237" lon="127.4999127"></trkpt>
    <trkpt lat="34.9380353" lon="127.5003210"></trkpt>
    <trkpt lat="34.9379546" lon="127.5003569"></trkpt>
    <trkpt lat="34.9379034" lon="127.5003869"></trkpt>
    <trkpt lat="34.9378550" lon="127.5004280"></trkpt>
    <trkpt lat="34.9377533" lon="127.5004968"></trkpt>
    <trkpt lat="34.9376668" lon="127.5005334"></trkpt>
    <trkpt lat="34.9375594" lon="127.5005691"></trkpt>
    <trkpt lat="34.9374592" lon="127.5005900"></trkpt>
    <trkpt lat="34.9371354" lon="127.5006396"></trkpt>
    <trkpt lat="34.9370694" lon="127.5006519"></trkpt>
    <trkpt lat="34.9364929" lon="127.5006790"></trkpt>
    <trkpt lat="34.9359093" lon="127.5005722"></trkpt>
    <trkpt lat="34.9348781" lon="127.5002910"></trkpt>
    <trkpt lat="34.9341548" lon="127.5000938"></trkpt>
    <trkpt lat="34.9340219" lon="127.5000773"></trkpt>
    <trkpt lat="34.9338461" lon="127.5000579"></trkpt>
    <trkpt lat="34.9335806" lon="127.5000613"></trkpt>
    <trkpt lat="34.9334364" lon="127.5000818"></trkpt>
    <trkpt lat="34.9332879" lon="127.5001157"></trkpt>
    <trkpt lat="34.9331420" lon="127.5001574"></trkpt>
    <trkpt lat="34.9325995" lon="127.5003565"></trkpt>
    <trkpt lat="34.9309731" lon="127.5010147"></trkpt>
    <trkpt lat="34.9302711" lon="127.5011902"></trkpt>
    <trkpt lat="34.9294586" lon="127.5015030"></trkpt>
    <trkpt lat="34.9292253" lon="127.5016278"></trkpt>
    <trkpt lat="34.9288580" lon="127.5018290"></trkpt>
    <trkpt lat="34.9288173" lon="127.5018513"></trkpt>
    <trkpt lat="34.9287532" lon="127.5018864"></trkpt>
    <trkpt lat="34.9287148" lon="127.5019073"></trkpt>
    <trkpt lat="34.9279900" lon="127.5022049"></trkpt>
    <trkpt lat="34.9275818" lon="127.5023117"></trkpt>
    <trkpt lat="34.9268112" lon="127.5029984"></trkpt>
    <trkpt lat="34.9266435" lon="127.5032360"></trkpt>
    <trkpt lat="34.9265366" lon="127.5033875"></trkpt>
    <trkpt lat="34.9261644" lon="127.5044756"></trkpt>
    <trkpt lat="34.9250908" lon="127.5076141"></trkpt>
    <trkpt lat="34.9249229" lon="127.5077744"></trkpt>
    <trkpt lat="34.9244729" lon="127.5079858"></trkpt>
    <trkpt lat="34.9243645" lon="127.5080184"></trkpt>
    <trkpt lat="34.9241812" lon="127.5080883"></trkpt>
    <trkpt lat="34.9241104" lon="127.5081406"></trkpt>
    <trkpt lat="34.9235617" lon="127.5086295"></trkpt>
    <trkpt lat="34.9232729" lon="127.5088950"></trkpt>
    <trkpt lat="34.9223785" lon="127.5098038"></trkpt>
    <trkpt lat="34.9220734" lon="127.5102539"></trkpt>
    <trkpt lat="34.9209709" lon="127.5126648"></trkpt>
    <trkpt lat="34.9200516" lon="127.5157089"></trkpt>
    <trkpt lat="34.9197350" lon="127.5164871"></trkpt>
    <trkpt lat="34.9193573" lon="127.5171890"></trkpt>
    <trkpt lat="34.9191093" lon="127.5174789"></trkpt>
    <trkpt lat="34.9184333" lon="127.5180252"></trkpt>
    <trkpt lat="34.9183109" lon="127.5181209"></trkpt>
    <trkpt lat="34.9181741" lon="127.5182088"></trkpt>
    <trkpt lat="34.9178581" lon="127.5183716"></trkpt>
    <trkpt lat="34.9173317" lon="127.5185717"></trkpt>
    <trkpt lat="34.9168164" lon="127.5187508"></trkpt>
    <trkpt lat="34.9166955" lon="127.5187809"></trkpt>
    <trkpt lat="34.9165094" lon="127.5188174"></trkpt>
    <trkpt lat="34.9163327" lon="127.5187949"></trkpt>
    <trkpt lat="34.9160815" lon="127.5187268"></trkpt>
    <trkpt lat="34.9159510" lon="127.5187275"></trkpt>
    <trkpt lat="34.9156469" lon="127.5186608"></trkpt>
    <trkpt lat="34.9154044" lon="127.5185966"></trkpt>
    <trkpt lat="34.9152339" lon="127.5185220"></trkpt>
    <trkpt lat="34.9151095" lon="127.5184754"></trkpt>
    <trkpt lat="34.9149045" lon="127.5183987"></trkpt>
    <trkpt lat="34.9147102" lon="127.5183260"></trkpt>
    <trkpt lat="34.9143666" lon="127.5181468"></trkpt>
    <trkpt lat="34.9139980" lon="127.5179272"></trkpt>
    <trkpt lat="34.9137693" lon="127.5177904"></trkpt>
    <trkpt lat="34.9136054" lon="127.5176724"></trkpt>
    <trkpt lat="34.9132051" lon="127.5173465"></trkpt>
    <trkpt lat="34.9124250" lon="127.5166829"></trkpt>
    <trkpt lat="34.9122059" lon="127.5164945"></trkpt>
    <trkpt lat="34.9119955" lon="127.5163593"></trkpt>
    <trkpt lat="34.9118567" lon="127.5162699"></trkpt>
    <trkpt lat="34.9117590" lon="127.5161869"></trkpt>
    <trkpt lat="34.9116394" lon="127.5160836"></trkpt>
    <trkpt lat="34.9113251" lon="127.5158335"></trkpt>
    <trkpt lat="34.9110327" lon="127.5156259"></trkpt>
    <trkpt lat="34.9108224" lon="127.5155110"></trkpt>
    <trkpt lat="34.9106678" lon="127.5154451"></trkpt>
    <trkpt lat="34.9101925" lon="127.5153088"></trkpt>
    <trkpt lat="34.9099095" lon="127.5152523"></trkpt>
    <trkpt lat="34.9101925" lon="127.5153088"></trkpt>
    <trkpt lat="34.9106678" lon="127.5154451"></trkpt>
    <trkpt lat="34.9108224" lon="127.5155110"></trkpt>
    <trkpt lat="34.9110327" lon="127.5156259"></trkpt>
    <trkpt lat="34.9113251" lon="127.5158335"></trkpt>
    <trkpt lat="34.9116394" lon="127.5160836"></trkpt>
    <trkpt lat="34.9117590" lon="127.5161869"></trkpt>
    <trkpt lat="34.9118567" lon="127.5162699"></trkpt>
    <trkpt lat="34.9119955" lon="127.5163593"></trkpt>
    <trkpt lat="34.9122059" lon="127.5164945"></trkpt>
    <trkpt lat="34.9124250" lon="127.5166829"></trkpt>
    <trkpt lat="34.9132051" lon="127.5173465"></trkpt>
    <trkpt lat="34.9136054" lon="127.5176724"></trkpt>
    <trkpt lat="34.9137693" lon="127.5177904"></trkpt>
    <trkpt lat="34.9139980" lon="127.5179272"></trkpt>
    <trkpt lat="34.9143666" lon="127.5181468"></trkpt>
    <trkpt lat="34.9147102" lon="127.5183260"></trkpt>
    <trkpt lat="34.9149045" lon="127.5183987"></trkpt>
    <trkpt lat="34.9151095" lon="127.5184754"></trkpt>
    <trkpt lat="34.9152339" lon="127.5185220"></trkpt>
    <trkpt lat="34.9154044" lon="127.5185966"></trkpt>
    <trkpt lat="34.9156469" lon="127.5186608"></trkpt>
    <trkpt lat="34.9159510" lon="127.5187275"></trkpt>
    <trkpt lat="34.9160815" lon="127.5187268"></trkpt>
    <trkpt lat="34.9163327" lon="127.5187949"></trkpt>
    <trkpt lat="34.9165094" lon="127.5188174"></trkpt>
    <trkpt lat="34.9166955" lon="127.5187809"></trkpt>
    <trkpt lat="34.9168164" lon="127.5187508"></trkpt>
    <trkpt lat="34.9173317" lon="127.5185717"></trkpt>
    <trkpt lat="34.9178581" lon="127.5183716"></trkpt>
    <trkpt lat="34.9181741" lon="127.5182088"></trkpt>
    <trkpt lat="34.9183109" lon="127.5181209"></trkpt>
    <trkpt lat="34.9184333" lon="127.5180252"></trkpt>
    <trkpt lat="34.9191093" lon="127.5174789"></trkpt>
    <trkpt lat="34.9193573" lon="127.5171890"></trkpt>
    <trkpt lat="34.9197350" lon="127.5164871"></trkpt>
    <trkpt lat="34.9200516" lon="127.5157089"></trkpt>
    <trkpt lat="34.9209709" lon="127.5126648"></trkpt>
    <trkpt lat="34.9220734" lon="127.5102539"></trkpt>
    <trkpt lat="34.9223785" lon="127.5098038"></trkpt>
    <trkpt lat="34.9232729" lon="127.5088950"></trkpt>
    <trkpt lat="34.9235617" lon="127.5086295"></trkpt>
    <trkpt lat="34.9241104" lon="127.5081406"></trkpt>
    <trkpt lat="34.9241812" lon="127.5080883"></trkpt>
    <trkpt lat="34.9243645" lon="127.5080184"></trkpt>
    <trkpt lat="34.9244729" lon="127.5079858"></trkpt>
    <trkpt lat="34.9249229" lon="127.5077744"></trkpt>
    <trkpt lat="34.9250908" lon="127.5076141"></trkpt>
    <trkpt lat="34.9261644" lon="127.5044756"></trkpt>
    <trkpt lat="34.9265366" lon="127.5033875"></trkpt>
    <trkpt lat="34.9266435" lon="127.5032360"></trkpt>
    <trkpt lat="34.9268112" lon="127.5029984"></trkpt>
    <trkpt lat="34.9275818" lon="127.5023117"></trkpt>
    <trkpt lat="34.9279900" lon="127.5022049"></trkpt>
    <trkpt lat="34.9287148" lon="127.5019073"></trkpt>
    <trkpt lat="34.9287532" lon="127.5018864"></trkpt>
    <trkpt lat="34.9288173" lon="127.5018513"></trkpt>
    <trkpt lat="34.9288580" lon="127.5018290"></trkpt>
    <trkpt lat="34.9292253" lon="127.5016278"></trkpt>
    <trkpt lat="34.9294586" lon="127.5015030"></trkpt>
    <trkpt lat="34.9302711" lon="127.5011902"></trkpt>
    <trkpt lat="34.9309731" lon="127.5010147"></trkpt>
    <trkpt lat="34.9325995" lon="127.5003565"></trkpt>
    <trkpt lat="34.9331420" lon="127.5001574"></trkpt>
    <trkpt lat="34.9332879" lon="127.5001157"></trkpt>
    <trkpt lat="34.9334364" lon="127.5000818"></trkpt>
    <trkpt lat="34.9335806" lon="127.5000613"></trkpt>
    <trkpt lat="34.9338461" lon="127.5000579"></trkpt>
    <trkpt lat="34.9340219" lon="127.5000773"></trkpt>
    <trkpt lat="34.9341548" lon="127.5000938"></trkpt>
    <trkpt lat="34.9348781" lon="127.5002910"></trkpt>
    <trkpt lat="34.9359093" lon="127.5005722"></trkpt>
    <trkpt lat="34.9364929" lon="127.5006790"></trkpt>
    <trkpt lat="34.9370694" lon="127.5006519"></trkpt>
    <trkpt lat="34.9371354" lon="127.5006396"></trkpt>
    <trkpt lat="34.9374592" lon="127.5005900"></trkpt>
    <trkpt lat="34.9375594" lon="127.5005691"></trkpt>
    <trkpt lat="34.9376668" lon="127.5005334"></trkpt>
    <trkpt lat="34.9377533" lon="127.5004968"></trkpt>
    <trkpt lat="34.9378550" lon="127.5004280"></trkpt>
    <trkpt lat="34.9379034" lon="127.5003869"></trkpt>
    <trkpt lat="34.9379546" lon="127.5003569"></trkpt>
    <trkpt lat="34.9380353" lon="127.5003210"></trkpt>
    <trkpt lat="34.9387237" lon="127.4999127"></trkpt>
    <trkpt lat="34.9388246" lon="127.4998671"></trkpt>
    <trkpt lat="34.9395678" lon="127.4995093"></trkpt>
    <trkpt lat="34.9400557" lon="127.4992283"></trkpt>
    <trkpt lat="34.9405435" lon="127.4989503"></trkpt>
    <trkpt lat="34.9406723" lon="127.4988777"></trkpt>
    <trkpt lat="34.9408148" lon="127.4988057"></trkpt>
    <trkpt lat="34.9410091" lon="127.4987137"></trkpt>
    <trkpt lat="34.9414975" lon="127.4985021"></trkpt>
    <trkpt lat="34.9426478" lon="127.4980225"></trkpt>
    <trkpt lat="34.9426581" lon="127.4980600"></trkpt>
    <trkpt lat="34.9429016" lon="127.4989725"></trkpt>
    <trkpt lat="34.9429082" lon="127.4990050"></trkpt>
    <trkpt lat="34.9429525" lon="127.4989828"></trkpt>
    <trkpt lat="34.9430320" lon="127.4989505"></trkpt>
    <trkpt lat="34.9431257" lon="127.4989079"></trkpt>
    <trkpt lat="34.9432512" lon="127.4988602"></trkpt>
    <trkpt lat="34.9437769" lon="127.4986551"></trkpt>
    <trkpt lat="34.9438305" lon="127.4986370"></trkpt>
    <trkpt lat="34.9438890" lon="127.4986218"></trkpt>
    <trkpt lat="34.9439361" lon="127.4986182"></trkpt>
    <trkpt lat="34.9440205" lon="127.4986214"></trkpt>
    <trkpt lat="34.9445411" lon="127.4987300"></trkpt>
    <trkpt lat="34.9446292" lon="127.4986953"></trkpt>
    <trkpt lat="34.9448183" lon="127.4986228"></trkpt>
    <trkpt lat="34.9450184" lon="127.4985410"></trkpt>
    <trkpt lat="34.9449982" lon="127.4985968"></trkpt>
    <trkpt lat="34.9449432" lon="127.4986659"></trkpt>
    <trkpt lat="34.9448815" lon="127.4987086"></trkpt>
    <trkpt lat="34.9448532" lon="127.4987472"></trkpt>
    <trkpt lat="34.9448432" lon="127.4987940"></trkpt>
    <trkpt lat="34.9448412" lon="127.4988772"></trkpt>
  </trkseg></trk>
</gpx>