<?xml version="1.0" encoding="UTF-8"?>
<gpx version="1.1" creator="RunNavi nationwide seed" xmlns="http://www.topografix.com/GPX/1/1">
  <metadata>
    <name>세종호수공원 순환 5.1K</name>
    <copyright author="OpenStreetMap contributors">
      <license>https://opendatacommons.org/licenses/odbl/1-0/</license>
    </copyright>
  </metadata>
  <trk><name>세종호수공원 순환 5.1K</name><trkseg>
    <trkpt lat="36.4977328" lon="127.2700051"></trkpt>
    <trkpt lat="36.4977415" lon="127.2701419"></trkpt>
    <trkpt lat="36.4977328" lon="127.2702913"></trkpt>
    <trkpt lat="36.4977053" lon="127.2703959"></trkpt>
    <trkpt lat="36.4976654" lon="127.2705066"></trkpt>
    <trkpt lat="36.4976040" lon="127.2706286"></trkpt>
    <trkpt lat="36.4975382" lon="127.2707138"></trkpt>
    <trkpt lat="36.4974730" lon="127.2707674"></trkpt>
    <trkpt lat="36.4974164" lon="127.2708036"></trkpt>
    <trkpt lat="36.4973339" lon="127.2708291"></trkpt>
    <trkpt lat="36.4972709" lon="127.2708418"></trkpt>
    <trkpt lat="36.4971771" lon="127.2708492"></trkpt>
    <trkpt lat="36.4970919" lon="127.2708519"></trkpt>
    <trkpt lat="36.4969900" lon="127.2708378"></trkpt>
    <trkpt lat="36.4968353" lon="127.2708197"></trkpt>
    <trkpt lat="36.4966547" lon="127.2707949"></trkpt>
    <trkpt lat="36.4965415" lon="127.2707687"></trkpt>
    <trkpt lat="36.4964531" lon="127.2707285"></trkpt>
    <trkpt lat="36.4963744" lon="127.2706782"></trkpt>
    <trkpt lat="36.4963103" lon="127.2706313"></trkpt>
    <trkpt lat="36.4962483" lon="127.2705850"></trkpt>
    <trkpt lat="36.4961917" lon="127.2705615"></trkpt>
    <trkpt lat="36.4961708" lon="127.2705581"></trkpt>
    <trkpt lat="36.4961141" lon="127.2705488"></trkpt>
    <trkpt lat="36.4959281" lon="127.2705294"></trkpt>
    <trkpt lat="36.4959152" lon="127.2705281"></trkpt>
    <trkpt lat="36.4957944" lon="127.2705147"></trkpt>
    <trkpt lat="36.4957281" lon="127.2704871"></trkpt>
    <trkpt lat="36.4956828" lon="127.2704536"></trkpt>
    <trkpt lat="36.4956316" lon="127.2704127"></trkpt>
    <trkpt lat="36.4955966" lon="127.2703564"></trkpt>
    <trkpt lat="36.4955615" lon="127.2702725"></trkpt>
    <trkpt lat="36.4955405" lon="127.2701270"></trkpt>
    <trkpt lat="36.4955303" lon="127.2698803"></trkpt>
    <trkpt lat="36.4955168" lon="127.2695048"></trkpt>
    <trkpt lat="36.4955082" lon="127.2694370"></trkpt>
    <trkpt lat="36.4954785" lon="127.2693874"></trkpt>
    <trkpt lat="36.4954246" lon="127.2693284"></trkpt>
    <trkpt lat="36.4953464" lon="127.2692439"></trkpt>
    <trkpt lat="36.4952898" lon="127.2692023"></trkpt>
    <trkpt lat="36.4952553" lon="127.2692064"></trkpt>
    <trkpt lat="36.4952128" lon="127.2692332"></trkpt>
    <trkpt lat="36.4951750" lon="127.2692841"></trkpt>
    <trkpt lat="36.4949815" lon="127.2696248"></trkpt>
    <trkpt lat="36.4948532" lon="127.2698501"></trkpt>
    <trkpt lat="36.4948122" lon="127.2699145"></trkpt>
    <trkpt lat="36.4947783" lon="127.2699487"></trkpt>
    <trkpt lat="36.4947416" lon="127.2699775"></trkpt>
    <trkpt lat="36.4946840" lon="127.2699943"></trkpt>
    <trkpt lat="36.4946306" lon="127.2699996"></trkpt>
    <trkpt lat="36.4945578" lon="127.2699835"></trkpt>
    <trkpt lat="36.4944882" lon="127.2699460"></trkpt>
    <trkpt lat="36.4944246" lon="127.2699071"></trkpt>
    <trkpt lat="36.4943562" lon="127.2698415"></trkpt>
    <trkpt lat="36.4943071" lon="127.2697777"></trkpt>
    <trkpt lat="36.4942640" lon="127.2696878"></trkpt>
    <trkpt lat="36.4942300" lon="127.2695745"></trkpt>
    <trkpt lat="36.4942052" lon="127.2694806"></trkpt>
    <trkpt lat="36.4941751" lon="127.2693975"></trkpt>
    <trkpt lat="36.4941330" lon="127.2693291"></trkpt>
    <trkpt lat="36.4940597" lon="127.2692573"></trkpt>
    <trkpt lat="36.4939804" lon="127.2691943"></trkpt>
    <trkpt lat="36.4939422" lon="127.2691628"></trkpt>
    <trkpt lat="36.4938850" lon="127.2691085"></trkpt>
    <trkpt lat="36.4938225" lon="127.2690039"></trkpt>
    <trkpt lat="36.4937875" lon="127.2689443"></trkpt>
    <trkpt lat="36.4937611" lon="127.2689644"></trkpt>
    <trkpt lat="36.4936452" lon="127.2690281"></trkpt>
    <trkpt lat="36.4934856" lon="127.2690415"></trkpt>
    <trkpt lat="36.4933853" lon="127.2690643"></trkpt>
    <trkpt lat="36.4932937" lon="127.2688631"></trkpt>
    <trkpt lat="36.4930979" lon="127.2689950"></trkpt>
    <trkpt lat="36.4919636" lon="127.2697138"></trkpt>
    <trkpt lat="36.4919522" lon="127.2696641"></trkpt>
    <trkpt lat="36.4919232" lon="127.2695893"></trkpt>
    <trkpt lat="36.4918987" lon="127.2695264"></trkpt>
    <trkpt lat="36.4918869" lon="127.2694959"></trkpt>
    <trkpt lat="36.4918707" lon="127.2694542"></trkpt>
    <trkpt lat="36.4917913" lon="127.2695062"></trkpt>
    <trkpt lat="36.4917338" lon="127.2695224"></trkpt>
    <trkpt lat="36.4917034" lon="127.2695316"></trkpt>
    <trkpt lat="36.4916272" lon="127.2695535"></trkpt>
    <trkpt lat="36.4915781" lon="127.2695228"></trkpt>
    <trkpt lat="36.4915414" lon="127.2694674"></trkpt>
    <trkpt lat="36.4914866" lon="127.2693374"></trkpt>
    <trkpt lat="36.4913904" lon="127.2693946"></trkpt>
    <trkpt lat="36.4912907" lon="127.2694539"></trkpt>
    <trkpt lat="36.4912715" lon="127.2694113"></trkpt>
    <trkpt lat="36.4912155" lon="127.2692709"></trkpt>
    <trkpt lat="36.4910049" lon="127.2687434"></trkpt>
    <trkpt lat="36.4908115" lon="127.2682251"></trkpt>
    <trkpt lat="36.4906858" lon="127.2679612"></trkpt>
    <trkpt lat="36.4905509" lon="127.2677756"></trkpt>
    <trkpt lat="36.4905375" lon="127.2677487"></trkpt>
    <trkpt lat="36.4901850" lon="127.2673158"></trkpt>
    <trkpt lat="36.4897430" lon="127.2668225"></trkpt>
    <trkpt lat="36.4896688" lon="127.2667566"></trkpt>
    <trkpt lat="36.4895103" lon="127.2665824"></trkpt>
    <trkpt lat="36.4894552" lon="127.2665732"></trkpt>
    <trkpt lat="36.4894172" lon="127.2665758"></trkpt>
    <trkpt lat="36.4893449" lon="127.2666670"></trkpt>
    <trkpt lat="36.4892824" lon="127.2667756"></trkpt>
    <trkpt lat="36.4891552" lon="127.2669647"></trkpt>
    <trkpt lat="36.4890075" lon="127.2671726"></trkpt>
    <trkpt lat="36.4889261" lon="127.2672535"></trkpt>
    <trkpt lat="36.4888942" lon="127.2672852"></trkpt>
    <trkpt lat="36.4887637" lon="127.2673697"></trkpt>
    <trkpt lat="36.4885810" lon="127.2674542"></trkpt>
    <trkpt lat="36.4884209" lon="127.2675467"></trkpt>
    <trkpt lat="36.4882403" lon="127.2676761"></trkpt>
    <trkpt lat="36.4881961" lon="127.2677506"></trkpt>
    <trkpt lat="36.4881958" lon="127.2678050"></trkpt>
    <trkpt lat="36.4879370" lon="127.2680052"></trkpt>
    <trkpt lat="36.4879193" lon="127.2680189"></trkpt>
    <trkpt lat="36.4878994" lon="127.2680343"></trkpt>
    <trkpt lat="36.4878530" lon="127.2680194"></trkpt>
    <trkpt lat="36.4878317" lon="127.2680187"></trkpt>
    <trkpt lat="36.4878099" lon="127.2679735"></trkpt>
    <trkpt lat="36.4877771" lon="127.2679056"></trkpt>
    <trkpt lat="36.4877688" lon="127.2679281"></trkpt>
    <trkpt lat="36.4876373" lon="127.2680273"></trkpt>
    <trkpt lat="36.4875122" lon="127.2681534"></trkpt>
    <trkpt lat="36.4873882" lon="127.2683103"></trkpt>
    <trkpt lat="36.4873160" lon="127.2684498"></trkpt>
    <trkpt lat="36.4872534" lon="127.2685960"></trkpt>
    <trkpt lat="36.4871931" lon="127.2687126"></trkpt>
    <trkpt lat="36.4871413" lon="127.2688011"></trkpt>
    <trkpt lat="36.4871176" lon="127.2688339"></trkpt>
    <trkpt lat="36.4870831" lon="127.2688816"></trkpt>
    <trkpt lat="36.4870000" lon="127.2689648"></trkpt>
    <trkpt lat="36.4868836" lon="127.2690774"></trkpt>
    <trkpt lat="36.4868006" lon="127.2691270"></trkpt>
    <trkpt lat="36.4867014" lon="127.2691780"></trkpt>
    <trkpt lat="36.4865824" lon="127.2692329"></trkpt>
    <trkpt lat="36.4864922" lon="127.2691954"></trkpt>
    <trkpt lat="36.4864588" lon="127.2691150"></trkpt>
    <trkpt lat="36.4864534" lon="127.2690251"></trkpt>
    <trkpt lat="36.4863598" lon="127.2690150"></trkpt>
    <trkpt lat="36.4862606" lon="127.2690042"></trkpt>
    <trkpt lat="36.4862762" lon="127.2689601"></trkpt>
    <trkpt lat="36.4862890" lon="127.2688203"></trkpt>
    <trkpt lat="36.4862739" lon="127.2687449"></trkpt>
    <trkpt lat="36.4862747" lon="127.2687288"></trkpt>
    <trkpt lat="36.4862767" lon="127.2686890"></trkpt>
    <trkpt lat="36.4861046" lon="127.2686669"></trkpt>
    <trkpt lat="36.4859695" lon="127.2686450"></trkpt>
    <trkpt lat="36.4857761" lon="127.2686223"></trkpt>
    <trkpt lat="36.4857683" lon="127.2687013"></trkpt>
    <trkpt lat="36.4857481" lon="127.2687498"></trkpt>
    <trkpt lat="36.4857200" lon="127.2687886"></trkpt>
    <trkpt lat="36.4856852" lon="127.2688270"></trkpt>
    <trkpt lat="36.4856488" lon="127.2688667"></trkpt>
    <trkpt lat="36.4856129" lon="127.2689210"></trkpt>
    <trkpt lat="36.4855899" lon="127.2689908"></trkpt>
    <trkpt lat="36.4855851" lon="127.2690757"></trkpt>
    <trkpt lat="36.4855822" lon="127.2691181"></trkpt>
    <trkpt lat="36.4854624" lon="127.2691015"></trkpt>
    <trkpt lat="36.4854068" lon="127.2690860"></trkpt>
    <trkpt lat="36.4853505" lon="127.2690468"></trkpt>
    <trkpt lat="36.4853131" lon="127.2690076"></trkpt>
    <trkpt lat="36.4852712" lon="127.2689622"></trkpt>
    <trkpt lat="36.4852164" lon="127.2688951"></trkpt>
    <trkpt lat="36.4851705" lon="127.2688400"></trkpt>
    <trkpt lat="36.4851303" lon="127.2687840"></trkpt>
    <trkpt lat="36.4850766" lon="127.2687241"></trkpt>
    <trkpt lat="36.4850359" lon="127.2686847"></trkpt>
    <trkpt lat="36.4849810" lon="127.2686513"></trkpt>
    <trkpt lat="36.4849173" lon="127.2686325"></trkpt>
    <trkpt lat="36.4848277" lon="127.2686116"></trkpt>
    <trkpt lat="36.4848029" lon="127.2686488"></trkpt>
    <trkpt lat="36.4847440" lon="127.2687362"></trkpt>
    <trkpt lat="36.4846084" lon="127.2689201"></trkpt>
    <trkpt lat="36.4845135" lon="127.2690045"></trkpt>
    <trkpt lat="36.4843730" lon="127.2691000"></trkpt>
    <trkpt lat="36.4842561" lon="127.2691407"></trkpt>
    <trkpt lat="36.4841860" lon="127.2691333"></trkpt>
    <trkpt lat="36.4841099" lon="127.2691082"></trkpt>
    <trkpt lat="36.4839064" lon="127.2690472"></trkpt>
    <trkpt lat="36.4837527" lon="127.2690178"></trkpt>
    <trkpt lat="36.4835705" lon="127.2690045"></trkpt>
    <trkpt lat="36.4834153" lon="127.2690126"></trkpt>
    <trkpt lat="36.4833932" lon="127.2690188"></trkpt>
    <trkpt lat="36.4833163" lon="127.2689659"></trkpt>
    <trkpt lat="36.4832691" lon="127.2688863"></trkpt>
    <trkpt lat="36.4830848" lon="127.2690158"></trkpt>
    <trkpt lat="36.4830536" lon="127.2689472"></trkpt>
    <trkpt lat="36.4829567" lon="127.2690144"></trkpt>
    <trkpt lat="36.4827523" lon="127.2691564"></trkpt>
    <trkpt lat="36.4827133" lon="127.2690735"></trkpt>
    <trkpt lat="36.4826952" lon="127.2690295"></trkpt>
    <trkpt lat="36.4826654" lon="127.2690472"></trkpt>
    <trkpt lat="36.4825870" lon="127.2691051"></trkpt>
    <trkpt lat="36.4825289" lon="127.2691448"></trkpt>
    <trkpt lat="36.4825011" lon="127.2691519"></trkpt>
    <trkpt lat="36.4824750" lon="127.2691102"></trkpt>
    <trkpt lat="36.4824014" lon="127.2690208"></trkpt>
    <trkpt lat="36.4823296" lon="127.2689342"></trkpt>
    <trkpt lat="36.4822543" lon="127.2688724"></trkpt>
    <trkpt lat="36.4821628" lon="127.2687951"></trkpt>
    <trkpt lat="36.4821483" lon="127.2687814"></trkpt>
    <trkpt lat="36.4821399" lon="127.2687669"></trkpt>
    <trkpt lat="36.4821105" lon="127.2687159"></trkpt>
    <trkpt lat="36.4820694" lon="127.2686039"></trkpt>
    <trkpt lat="36.4825033" lon="127.2683445"></trkpt>
    <trkpt lat="36.4826634" lon="127.2682896"></trkpt>
    <trkpt lat="36.4827303" lon="127.2682441"></trkpt>
    <trkpt lat="36.4827656" lon="127.2682145"></trkpt>
    <trkpt lat="36.4828299" lon="127.2681921"></trkpt>
    <trkpt lat="36.4828598" lon="127.2681703"></trkpt>
    <trkpt lat="36.4828786" lon="127.2681567"></trkpt>
    <trkpt lat="36.4829216" lon="127.2681070"></trkpt>
    <trkpt lat="36.4831055" lon="127.2679692"></trkpt>
    <trkpt lat="36.4831909" lon="127.2678618"></trkpt>
    <trkpt lat="36.4832416" lon="127.2678275"></trkpt>
    <trkpt lat="36.4839212" lon="127.2673286"></trkpt>
    <trkpt lat="36.4839855" lon="127.2672830"></trkpt>
    <trkpt lat="36.4844105" lon="127.2669707"></trkpt>
    <trkpt lat="36.4845332" lon="127.2668801"></trkpt>
    <trkpt lat="36.4846240" lon="127.2668081"></trkpt>
    <trkpt lat="36.4847311" lon="127.2667724"></trkpt>
    <trkpt lat="36.4848284" lon="127.2667070"></trkpt>
    <trkpt lat="36.4849288" lon="127.2666373"></trkpt>
    <trkpt lat="36.4849753" lon="127.2665973"></trkpt>
    <trkpt lat="36.4850314" lon="127.2665201"></trkpt>
    <trkpt lat="36.4851082" lon="127.2664623"></trkpt>
    <trkpt lat="36.4851612" lon="127.2664321"></trkpt>
    <trkpt lat="36.4852010" lon="127.2664397"></trkpt>
    <trkpt lat="36.4852532" lon="127.2664648"></trkpt>
    <trkpt lat="36.4853361" lon="127.2664004"></trkpt>
    <trkpt lat="36.4854131" lon="127.2663406"></trkpt>
    <trkpt lat="36.4854190" lon="127.2662907"></trkpt>
    <trkpt lat="36.4854472" lon="127.2662124"></trkpt>
    <trkpt lat="36.4854988" lon="127.2661716"></trkpt>
    <trkpt lat="36.4857263" lon="127.2660067"></trkpt>
    <trkpt lat="36.4864459" lon="127.2654851"></trkpt>
    <trkpt lat="36.4864929" lon="127.2654921"></trkpt>
    <trkpt lat="36.4865454" lon="127.2655376"></trkpt>
    <trkpt lat="36.4866121" lon="127.2656847"></trkpt>
    <trkpt lat="36.4867867" lon="127.2660490"></trkpt>
    <trkpt lat="36.4868026" lon="127.2660805"></trkpt>
    <trkpt lat="36.4871931" lon="127.2666187"></trkpt>
    <trkpt lat="36.4877677" lon="127.2678004"></trkpt>
    <trkpt lat="36.4878035" lon="127.2677711"></trkpt>
    <trkpt lat="36.4878203" lon="127.2677572"></trkpt>
    <trkpt lat="36.4880206" lon="127.2675932"></trkpt>
    <trkpt lat="36.4880351" lon="127.2675813"></trkpt>
    <trkpt lat="36.4880575" lon="127.2675629"></trkpt>
    <trkpt lat="36.4880772" lon="127.2676060"></trkpt>
    <trkpt lat="36.4881839" lon="127.2676272"></trkpt>
    <trkpt lat="36.4884102" lon="127.2674556"></trkpt>
    <trkpt lat="36.4886933" lon="127.2672875"></trkpt>
    <trkpt lat="36.4887943" lon="127.2672202"></trkpt>
    <trkpt lat="36.4889622" lon="127.2670468"></trkpt>
    <trkpt lat="36.4890055" lon="127.2669814"></trkpt>
    <trkpt lat="36.4892026" lon="127.2666840"></trkpt>
    <trkpt lat="36.4893654" lon="127.2664368"></trkpt>
    <trkpt lat="36.4893762" lon="127.2664204"></trkpt>
    <trkpt lat="36.4893762" lon="127.2663822"></trkpt>
    <trkpt lat="36.4893762" lon="127.2663367"></trkpt>
    <trkpt lat="36.4893624" lon="127.2663051"></trkpt>
    <trkpt lat="36.4894124" lon="127.2662362"></trkpt>
    <trkpt lat="36.4894780" lon="127.2661458"></trkpt>
    <trkpt lat="36.4895114" lon="127.2661544"></trkpt>
    <trkpt lat="36.4895160" lon="127.2661505"></trkpt>
    <trkpt lat="36.4895409" lon="127.2661298"></trkpt>
    <trkpt lat="36.4895846" lon="127.2661983"></trkpt>
    <trkpt lat="36.4896162" lon="127.2662478"></trkpt>
    <trkpt lat="36.4896073" lon="127.2662659"></trkpt>
    <trkpt lat="36.4896075" lon="127.2663206"></trkpt>
    <trkpt lat="36.4896101" lon="127.2663674"></trkpt>
    <trkpt lat="36.4896272" lon="127.2663880"></trkpt>
    <trkpt lat="36.4898259" lon="127.2665972"></trkpt>
    <trkpt lat="36.4898714" lon="127.2666482"></trkpt>
    <trkpt lat="36.4906824" lon="127.2675844"></trkpt>
    <trkpt lat="36.4907055" lon="127.2676033"></trkpt>
    <trkpt lat="36.4907518" lon="127.2674646"></trkpt>
    <trkpt lat="36.4907839" lon="127.2674206"></trkpt>
    <trkpt lat="36.4908987" lon="127.2672668"></trkpt>
    <trkpt lat="36.4912079" lon="127.2668763"></trkpt>
    <trkpt lat="36.4915727" lon="127.2664144"></trkpt>
    <trkpt lat="36.4917467" lon="127.2666612"></trkpt>
    <trkpt lat="36.4918578" lon="127.2668219"></trkpt>
    <trkpt lat="36.4919154" lon="127.2669350"></trkpt>
    <trkpt lat="36.4919710" lon="127.2670688"></trkpt>
    <trkpt lat="36.4921029" lon="127.2673823"></trkpt>
    <trkpt lat="36.4923334" lon="127.2679384"></trkpt>
    <trkpt lat="36.4924861" lon="127.2683210"></trkpt>
    <trkpt lat="36.4925168" lon="127.2683984"></trkpt>
    <trkpt lat="36.4925828" lon="127.2683572"></trkpt>
    <trkpt lat="36.4928508" lon="127.2683928"></trkpt>
    <trkpt lat="36.4929072" lon="127.2685097"></trkpt>
    <trkpt lat="36.4931433" lon="127.2686032"></trkpt>
    <trkpt lat="36.4933643" lon="127.2691126"></trkpt>
    <trkpt lat="36.4933849" lon="127.2691593"></trkpt>
    <trkpt lat="36.4934337" lon="127.2691967"></trkpt>
    <trkpt lat="36.4935229" lon="127.2692095"></trkpt>
    <trkpt lat="36.4937350" lon="127.2692329"></trkpt>
    <trkpt lat="36.4938790" lon="127.2692354"></trkpt>
    <trkpt lat="36.4939034" lon="127.2692782"></trkpt>
    <trkpt lat="36.4940026" lon="127.2693560"></trkpt>
    <trkpt lat="36.4940630" lon="127.2694230"></trkpt>
    <trkpt lat="36.4941082" lon="127.2695062"></trkpt>
    <trkpt lat="36.4941815" lon="127.2697234"></trkpt>
    <trkpt lat="36.4942505" lon="127.2698951"></trkpt>
    <trkpt lat="36.4943152" lon="127.2700131"></trkpt>
    <trkpt lat="36.4944101" lon="127.2700963"></trkpt>
    <trkpt lat="36.4945201" lon="127.2701472"></trkpt>
    <trkpt lat="36.4946667" lon="127.2701445"></trkpt>
    <trkpt lat="36.4947724" lon="127.2700963"></trkpt>
    <trkpt lat="36.4948543" lon="127.2700051"></trkpt>
    <trkpt lat="36.4949729" lon="127.2697798"></trkpt>
    <trkpt lat="36.4951756" lon="127.2694177"></trkpt>
    <trkpt lat="36.4952877" lon="127.2692487"></trkpt>
    <trkpt lat="36.4954710" lon="127.2694204"></trkpt>
    <trkpt lat="36.4954667" lon="127.2694981"></trkpt>
    <trkpt lat="36.4954861" lon="127.2700909"></trkpt>
    <trkpt lat="36.4954969" lon="127.2703162"></trkpt>
    <trkpt lat="36.4955141" lon="127.2704262"></trkpt>
    <trkpt lat="36.4955400" lon="127.2705174"></trkpt>
    <trkpt lat="36.4956025" lon="127.2706032"></trkpt>
    <trkpt lat="36.4956866" lon="127.2706569"></trkpt>
    <trkpt lat="36.4957858" lon="127.2706810"></trkpt>
    <trkpt lat="36.4958008" lon="127.2706823"></trkpt>
    <trkpt lat="36.4961760" lon="127.2707150"></trkpt>
    <trkpt lat="36.4961869" lon="127.2707159"></trkpt>
    <trkpt lat="36.4963076" lon="127.2707454"></trkpt>
    <trkpt lat="36.4964111" lon="127.2707910"></trkpt>
    <trkpt lat="36.4965297" lon="127.2708339"></trkpt>
    <trkpt lat="36.4966806" lon="127.2708580"></trkpt>
    <trkpt lat="36.4970968" lon="127.2709197"></trkpt>
    <trkpt lat="36.4973081" lon="127.2709546"></trkpt>
    <trkpt lat="36.4974267" lon="127.2709546"></trkpt>
    <trkpt lat="36.4975453" lon="127.2709224"></trkpt>
    <trkpt lat="36.4976682" lon="127.2708392"></trkpt>
    <trkpt lat="36.4977614" lon="127.2707377"></trkpt>
    <trkpt lat="36.4977889" lon="127.2707078"></trkpt>
    <trkpt lat="36.4979291" lon="127.2704771"></trkpt>
    <trkpt lat="36.4980282" lon="127.2703538"></trkpt>
    <trkpt lat="36.4981058" lon="127.2702893"></trkpt>
    <trkpt lat="36.4982068" lon="127.2702364"></trkpt>
    <trkpt lat="36.4980067" lon="127.2699783"></trkpt>
    <trkpt lat="36.4975338" lon="127.2693573"></trkpt>
    <trkpt lat="36.4974647" lon="127.2693667"></trkpt>
    <trkpt lat="36.4976067" lon="127.2696336"></trkpt>
    <trkpt lat="36.4976875" lon="127.2697771"></trkpt>
    <trkpt lat="36.4977091" lon="127.2698924"></trkpt>
    <trkpt lat="36.4977328" lon="127.2700051"></trkpt>
  </trkseg></trk>
</gpx>