<?xml version="1.0" encoding="UTF-8"?>
<gpx version="1.1" creator="RunNavi nationwide seed" xmlns="http://www.topografix.com/GPX/1/1">
  <metadata>
    <name>정자교 · 탄천 왕복 10K</name>
    <copyright author="OpenStreetMap contributors">
      <license>https://opendatacommons.org/licenses/odbl/1-0/</license>
    </copyright>
  </metadata>
  <trk><name>정자교 · 탄천 왕복 10K</name><trkseg>
    <trkpt lat="37.3661191" lon="127.1099161"></trkpt>
    <trkpt lat="37.3661183" lon="127.1098399"></trkpt>
    <trkpt lat="37.3661174" lon="127.1097416"></trkpt>
    <trkpt lat="37.3673522" lon="127.1097373"></trkpt>
    <trkpt lat="37.3674013" lon="127.1097371"></trkpt>
    <trkpt lat="37.3678617" lon="127.1097352"></trkpt>
    <trkpt lat="37.3678544" lon="127.1097013"></trkpt>
    <trkpt lat="37.3673493" lon="127.1095416"></trkpt>
    <trkpt lat="37.3673860" lon="127.1095390"></trkpt>
    <trkpt lat="37.3676056" lon="127.1095454"></trkpt>
    <trkpt lat="37.3676299" lon="127.1095434"></trkpt>
    <trkpt lat="37.3681331" lon="127.1095361"></trkpt>
    <trkpt lat="37.3685519" lon="127.1095442"></trkpt>
    <trkpt lat="37.3687351" lon="127.1095395"></trkpt>
    <trkpt lat="37.3691840" lon="127.1095281"></trkpt>
    <trkpt lat="37.3694172" lon="127.1095364"></trkpt>
    <trkpt lat="37.3697179" lon="127.1095635"></trkpt>
    <trkpt lat="37.3700207" lon="127.1095693"></trkpt>
    <trkpt lat="37.3702768" lon="127.1095542"></trkpt>
    <trkpt lat="37.3705678" lon="127.1095309"></trkpt>
    <trkpt lat="37.3706525" lon="127.1095241"></trkpt>
    <trkpt lat="37.3708583" lon="127.1095067"></trkpt>
    <trkpt lat="37.3713686" lon="127.1094959"></trkpt>
    <trkpt lat="37.3717866" lon="127.1095158"></trkpt>
    <trkpt lat="37.3718271" lon="127.1095264"></trkpt>
    <trkpt lat="37.3724886" lon="127.1095146"></trkpt>
    <trkpt lat="37.3726210" lon="127.1095063"></trkpt>
    <trkpt lat="37.3729240" lon="127.1094873"></trkpt>
    <trkpt lat="37.3731420" lon="127.1094761"></trkpt>
    <trkpt lat="37.3737203" lon="127.1094919"></trkpt>
    <trkpt lat="37.3738893" lon="127.1094965"></trkpt>
    <trkpt lat="37.3746506" lon="127.1094838"></trkpt>
    <trkpt lat="37.3748571" lon="127.1094755"></trkpt>
    <trkpt lat="37.3751063" lon="127.1094754"></trkpt>
    <trkpt lat="37.3757539" lon="127.1095099"></trkpt>
    <trkpt lat="37.3759382" lon="127.1095195"></trkpt>
    <trkpt lat="37.3761034" lon="127.1095345"></trkpt>
    <trkpt lat="37.3763100" lon="127.1095752"></trkpt>
    <trkpt lat="37.3764890" lon="127.1096351"></trkpt>
    <trkpt lat="37.3766518" lon="127.1096959"></trkpt>
    <trkpt lat="37.3768062" lon="127.1097620"></trkpt>
    <trkpt lat="37.3769606" lon="127.1098443"></trkpt>
    <trkpt lat="37.3770378" lon="127.1098908"></trkpt>
    <trkpt lat="37.3770446" lon="127.1098956"></trkpt>
    <trkpt lat="37.3771150" lon="127.1099453"></trkpt>
    <trkpt lat="37.3772294" lon="127.1100303"></trkpt>
    <trkpt lat="37.3777841" lon="127.1105797"></trkpt>
    <trkpt lat="37.3788802" lon="127.1119879"></trkpt>
    <trkpt lat="37.3789120" lon="127.1119098"></trkpt>
    <trkpt lat="37.3793504" lon="127.1119938"></trkpt>
    <trkpt lat="37.3809788" lon="127.1140805"></trkpt>
    <trkpt lat="37.3822107" lon="127.1156469"></trkpt>
    <trkpt lat="37.3825858" lon="127.1159581"></trkpt>
    <trkpt lat="37.3827947" lon="127.1160654"></trkpt>
    <trkpt lat="37.3831485" lon="127.1161995"></trkpt>
    <trkpt lat="37.3841757" lon="127.1165857"></trkpt>
    <trkpt lat="37.3847469" lon="127.1167520"></trkpt>
    <trkpt lat="37.3848151" lon="127.1167735"></trkpt>
    <trkpt lat="37.3848471" lon="127.1168244"></trkpt>
    <trkpt lat="37.3848630" lon="127.1169089"></trkpt>
    <trkpt lat="37.3848668" lon="127.1169673"></trkpt>
    <trkpt lat="37.3849074" lon="127.1170141"></trkpt>
    <trkpt lat="37.3850018" lon="127.1170441"></trkpt>
    <trkpt lat="37.3850282" lon="127.1170900"></trkpt>
    <trkpt lat="37.3850692" lon="127.1172780"></trkpt>
    <trkpt lat="37.3851047" lon="127.1173302"></trkpt>
    <trkpt lat="37.3851506" lon="127.1173617"></trkpt>
    <trkpt lat="37.3852331" lon="127.1174017"></trkpt>
    <trkpt lat="37.3854630" lon="127.1173743"></trkpt>
    <trkpt lat="37.3856164" lon="127.1174118"></trkpt>
    <trkpt lat="37.3856846" lon="127.1174440"></trkpt>
    <trkpt lat="37.3860938" lon="127.1177444"></trkpt>
    <trkpt lat="37.3863964" lon="127.1180019"></trkpt>
    <trkpt lat="37.3866650" lon="127.1182380"></trkpt>
    <trkpt lat="37.3869164" lon="127.1184633"></trkpt>
    <trkpt lat="37.3873341" lon="127.1188656"></trkpt>
    <trkpt lat="37.3876836" lon="127.1191875"></trkpt>
    <trkpt lat="37.3879394" lon="127.1194235"></trkpt>
    <trkpt lat="37.3896997" lon="127.1210328"></trkpt>
    <trkpt lat="37.3907567" lon="127.1219770"></trkpt>
    <trkpt lat="37.3923123" lon="127.1234039"></trkpt>
    <trkpt lat="37.3928306" lon="127.1238860"></trkpt>
    <trkpt lat="37.3931647" lon="127.1241817"></trkpt>
    <trkpt lat="37.3933352" lon="127.1243427"></trkpt>
    <trkpt lat="37.3934972" lon="127.1244714"></trkpt>
    <trkpt lat="37.3937316" lon="127.1246431"></trkpt>
    <trkpt lat="37.3939191" lon="127.1247611"></trkpt>
    <trkpt lat="37.3941151" lon="127.1248523"></trkpt>
    <trkpt lat="37.3942643" lon="127.1249059"></trkpt>
    <trkpt lat="37.3945505" lon="127.1249771"></trkpt>
    <trkpt lat="37.3946296" lon="127.1249901"></trkpt>
    <trkpt lat="37.3947880" lon="127.1250031"></trkpt>
    <trkpt lat="37.3949112" lon="127.1250515"></trkpt>
    <trkpt lat="37.3950191" lon="127.1250563"></trkpt>
    <trkpt lat="37.3951553" lon="127.1250568"></trkpt>
    <trkpt lat="37.3952279" lon="127.1250554"></trkpt>
    <trkpt lat="37.3952570" lon="127.1250549"></trkpt>
    <trkpt lat="37.3955354" lon="127.1250681"></trkpt>
    <trkpt lat="37.3961577" lon="127.1250789"></trkpt>
    <trkpt lat="37.3967462" lon="127.1250865"></trkpt>
    <trkpt lat="37.3970833" lon="127.1250916"></trkpt>
    <trkpt lat="37.3971279" lon="127.1250922"></trkpt>
    <trkpt lat="37.3974248" lon="127.1250893"></trkpt>
    <trkpt lat="37.3983311" lon="127.1250602"></trkpt>
    <trkpt lat="37.3983980" lon="127.1250622"></trkpt>
    <trkpt lat="37.3987833" lon="127.1250755"></trkpt>
    <trkpt lat="37.3993517" lon="127.1250833"></trkpt>
    <trkpt lat="37.3999448" lon="127.1250777"></trkpt>
    <trkpt lat="37.4005946" lon="127.1250625"></trkpt>
    <trkpt lat="37.4008384" lon="127.1250585"></trkpt>
    <trkpt lat="37.4011361" lon="127.1250714"></trkpt>
    <trkpt lat="37.4016551" lon="127.1250972"></trkpt>
    <trkpt lat="37.4021247" lon="127.1250939"></trkpt>
    <trkpt lat="37.4023289" lon="127.1250913"></trkpt>
    <trkpt lat="37.4031684" lon="127.1250808"></trkpt>
    <trkpt lat="37.4036643" lon="127.1250801"></trkpt>
    <trkpt lat="37.4041109" lon="127.1250840"></trkpt>
    <trkpt lat="37.4042029" lon="127.1250851"></trkpt>
    <trkpt lat="37.4048150" lon="127.1251210"></trkpt>
    <trkpt lat="37.4051966" lon="127.1251302"></trkpt>
    <trkpt lat="37.4055621" lon="127.1251359"></trkpt>
    <trkpt lat="37.4051966" lon="127.1251302"></trkpt>
    <trkpt lat="37.4048150" lon="127.1251210"></trkpt>
    <trkpt lat="37.4042029" lon="127.1250851"></trkpt>
    <trkpt lat="37.4041109" lon="127.1250840"></trkpt>
    <trkpt lat="37.4036643" lon="127.1250801"></trkpt>
    <trkpt lat="37.4031684" lon="127.1250808"></trkpt>
    <trkpt lat="37.4023289" lon="127.1250913"></trkpt>
    <trkpt lat="37.4021247" lon="127.1250939"></trkpt>
    <trkpt lat="37.4016551" lon="127.1250972"></trkpt>
    <trkpt lat="37.4011361" lon="127.1250714"></trkpt>
    <trkpt lat="37.4008384" lon="127.1250585"></trkpt>
    <trkpt lat="37.4005946" lon="127.1250625"></trkpt>
    <trkpt lat="37.3999448" lon="127.1250777"></trkpt>
    <trkpt lat="37.3993517" lon="127.1250833"></trkpt>
    <trkpt lat="37.3987833" lon="127.1250755"></trkpt>
    <trkpt lat="37.3983980" lon="127.1250622"></trkpt>
    <trkpt lat="37.3983311" lon="127.1250602"></trkpt>
    <trkpt lat="37.3974248" lon="127.1250893"></trkpt>
    <trkpt lat="37.3971279" lon="127.1250922"></trkpt>
    <trkpt lat="37.3970833" lon="127.1250916"></trkpt>
    <trkpt lat="37.3967462" lon="127.1250865"></trkpt>
    <trkpt lat="37.3961577" lon="127.1250789"></trkpt>
    <trkpt lat="37.3955354" lon="127.1250681"></trkpt>
    <trkpt lat="37.3952570" lon="127.1250549"></trkpt>
    <trkpt lat="37.3952279" lon="127.1250554"></trkpt>
    <trkpt lat="37.3951553" lon="127.1250568"></trkpt>
    <trkpt lat="37.3950191" lon="127.1250563"></trkpt>
    <trkpt lat="37.3949112" lon="127.1250515"></trkpt>
    <trkpt lat="37.3947880" lon="127.1250031"></trkpt>
    <trkpt lat="37.3946296" lon="127.1249901"></trkpt>
    <trkpt lat="37.3945505" lon="127.1249771"></trkpt>
    <trkpt lat="37.3942643" lon="127.1249059"></trkpt>
    <trkpt lat="37.3941151" lon="127.1248523"></trkpt>
    <trkpt lat="37.3939191" lon="127.1247611"></trkpt>
    <trkpt lat="37.3937316" lon="127.1246431"></trkpt>
    <trkpt lat="37.3934972" lon="127.1244714"></trkpt>
    <trkpt lat="37.3933352" lon="127.1243427"></trkpt>
    <trkpt lat="37.3931647" lon="127.1241817"></trkpt>
    <trkpt lat="37.3928306" lon="127.1238860"></trkpt>
    <trkpt lat="37.3923123" lon="127.1234039"></trkpt>
    <trkpt lat="37.3907567" lon="127.1219770"></trkpt>
    <trkpt lat="37.3896997" lon="127.1210328"></trkpt>
    <trkpt lat="37.3879394" lon="127.1194235"></trkpt>
    <trkpt lat="37.3876836" lon="127.1191875"></trkpt>
    <trkpt lat="37.3873341" lon="127.1188656"></trkpt>
    <trkpt lat="37.3869164" lon="127.1184633"></trkpt>
    <trkpt lat="37.3866650" lon="127.1182380"></trkpt>
    <trkpt lat="37.3863964" lon="127.1180019"></trkpt>
    <trkpt lat="37.3860938" lon="127.1177444"></trkpt>
    <trkpt lat="37.3856846" lon="127.1174440"></trkpt>
    <trkpt lat="37.3856164" lon="127.1174118"></trkpt>
    <trkpt lat="37.3854630" lon="127.1173743"></trkpt>
    <trkpt lat="37.3852331" lon="127.1174017"></trkpt>
    <trkpt lat="37.3851506" lon="127.1173617"></trkpt>
    <trkpt lat="37.3851047" lon="127.1173302"></trkpt>
    <trkpt lat="37.3850692" lon="127.1172780"></trkpt>
    <trkpt lat="37.3850282" lon="127.1170900"></trkpt>
    <trkpt lat="37.3850018" lon="127.1170441"></trkpt>
    <trkpt lat="37.3849074" lon="127.1170141"></trkpt>
    <trkpt lat="37.3848668" lon="127.1169673"></trkpt>
    <trkpt lat="37.3848630" lon="127.1169089"></trkpt>
    <trkpt lat="37.3848471" lon="127.1168244"></trkpt>
    <trkpt lat="37.3848151" lon="127.1167735"></trkpt>
    <trkpt lat="37.3847469" lon="127.1167520"></trkpt>
    <trkpt lat="37.3841757" lon="127.1165857"></trkpt>
    <trkpt lat="37.3831485" lon="127.1161995"></trkpt>
    <trkpt lat="37.3827947" lon="127.1160654"></trkpt>
    <trkpt lat="37.3825858" lon="127.1159581"></trkpt>
    <trkpt lat="37.3822107" lon="127.1156469"></trkpt>
    <trkpt lat="37.3809788" lon="127.1140805"></trkpt>
    <trkpt lat="37.3793504" lon="127.1119938"></trkpt>
    <trkpt lat="37.3789120" lon="127.1119098"></trkpt>
    <trkpt lat="37.3788802" lon="127.1119879"></trkpt>
    <trkpt lat="37.3777841" lon="127.1105797"></trkpt>
    <trkpt lat="37.3772294" lon="127.1100303"></trkpt>
    <trkpt lat="37.3771150" lon="127.1099453"></trkpt>
    <trkpt lat="37.3770446" lon="127.1098956"></trkpt>
    <trkpt lat="37.3770378" lon="127.1098908"></trkpt>
    <trkpt lat="37.3769606" lon="127.1098443"></trkpt>
    <trkpt lat="37.3768062" lon="127.1097620"></trkpt>
    <trkpt lat="37.3766518" lon="127.1096959"></trkpt>
    <trkpt lat="37.3764890" lon="127.1096351"></trkpt>
    <trkpt lat="37.3763100" lon="127.1095752"></trkpt>
    <trkpt lat="37.3761034" lon="127.1095345"></trkpt>
    <trkpt lat="37.3759382" lon="127.1095195"></trkpt>
    <trkpt lat="37.3757539" lon="127.1095099"></trkpt>
    <trkpt lat="37.3751063" lon="127.1094754"></trkpt>
    <trkpt lat="37.3748571" lon="127.1094755"></trkpt>
    <trkpt lat="37.3746506" lon="127.1094838"></trkpt>
    <trkpt lat="37.3738893" lon="127.1094965"></trkpt>
    <trkpt lat="37.3737203" lon="127.1094919"></trkpt>
    <trkpt lat="37.3731420" lon="127.1094761"></trkpt>
    <trkpt lat="37.3729240" lon="127.1094873"></trkpt>
    <trkpt lat="37.3726210" lon="127.1095063"></trkpt>
    <trkpt lat="37.3724886" lon="127.1095146"></trkpt>
    <trkpt lat="37.3718271" lon="127.1095264"></trkpt>
    <trkpt lat="37.3717866" lon="127.1095158"></trkpt>
    <trkpt lat="37.3713686" lon="127.1094959"></trkpt>
    <trkpt lat="37.3708583" lon="127.1095067"></trkpt>
    <trkpt lat="37.3706525" lon="127.1095241"></trkpt>
    <trkpt lat="37.3705678" lon="127.1095309"></trkpt>
    <trkpt lat="37.3702768" lon="127.1095542"></trkpt>
    <trkpt lat="37.3700207" lon="127.1095693"></trkpt>
    <trkpt lat="37.3697179" lon="127.1095635"></trkpt>
    <trkpt lat="37.3694172" lon="127.1095364"></trkpt>
    <trkpt lat="37.3691840" lon="127.1095281"></trkpt>
    <trkpt lat="37.3687351" lon="127.1095395"></trkpt>
    <trkpt lat="37.3685519" lon="127.1095442"></trkpt>
    <trkpt lat="37.3681331" lon="127.1095361"></trkpt>
    <trkpt lat="37.3676299" lon="127.1095434"></trkpt>
    <trkpt lat="37.3676056" lon="127.1095454"></trkpt>
    <trkpt lat="37.3673860" lon="127.1095390"></trkpt>
    <trkpt lat="37.3673493" lon="127.1095416"></trkpt>
    <trkpt lat="37.3678544" lon="127.1097013"></trkpt>
    <trkpt lat="37.3678617" lon="127.1097352"></trkpt>
    <trkpt lat="37.3674013" lon="127.1097371"></trkpt>
    <trkpt lat="37.3673522" lon="127.1097373"></trkpt>
    <trkpt lat="37.3661174" lon="127.1097416"></trkpt>
    <trkpt lat="37.3661183" lon="127.1098399"></trkpt>
    <trkpt lat="37.3661191" lon="127.1099161"></trkpt>
  </trkseg></trk>
</gpx>