<?xml version="1.0" encoding="UTF-8"?>
<gpx version="1.1" creator="RunNavi nationwide seed" xmlns="http://www.topografix.com/GPX/1/1">
  <metadata>
    <name>올림픽공원 순환 6.8K</name>
    <copyright author="OpenStreetMap contributors">
      <license>https://opendatacommons.org/licenses/odbl/1-0/</license>
    </copyright>
  </metadata>
  <trk><name>올림픽공원 순환 6.8K</name><trkseg>
    <trkpt lat="37.5182907" lon="127.1318947"></trkpt>
    <trkpt lat="37.5176563" lon="127.1314615"></trkpt>
    <trkpt lat="37.5178182" lon="127.1310476"></trkpt>
    <trkpt lat="37.5178825" lon="127.1308998"></trkpt>
    <trkpt lat="37.5179595" lon="127.1307655"></trkpt>
    <trkpt lat="37.5180536" lon="127.1306700"></trkpt>
    <trkpt lat="37.5193369" lon="127.1303987"></trkpt>
    <trkpt lat="37.5194354" lon="127.1304327"></trkpt>
    <trkpt lat="37.5194862" lon="127.1305326"></trkpt>
    <trkpt lat="37.5195980" lon="127.1314834"></trkpt>
    <trkpt lat="37.5195570" lon="127.1315853"></trkpt>
    <trkpt lat="37.5194938" lon="127.1316384"></trkpt>
    <trkpt lat="37.5182907" lon="127.1318947"></trkpt>
    <trkpt lat="37.5176563" lon="127.1314615"></trkpt>
    <trkpt lat="37.5178182" lon="127.1310476"></trkpt>
    <trkpt lat="37.5178825" lon="127.1308998"></trkpt>
    <trkpt lat="37.5179595" lon="127.1307655"></trkpt>
    <trkpt lat="37.5180536" lon="127.1306700"></trkpt>
    <trkpt lat="37.5193369" lon="127.1303987"></trkpt>
    <trkpt lat="37.5194354" lon="127.1304327"></trkpt>
    <trkpt lat="37.5194862" lon="127.1305326"></trkpt>
    <trkpt lat="37.5195980" lon="127.1314834"></trkpt>
    <trkpt lat="37.5195570" lon="127.1315853"></trkpt>
    <trkpt lat="37.5194938" lon="127.1316384"></trkpt>
    <trkpt lat="37.5182907" lon="127.1318947"></trkpt>
    <trkpt lat="37.5176563" lon="127.1314615"></trkpt>
    <trkpt lat="37.5178182" lon="127.1310476"></trkpt>
    <trkpt lat="37.5178825" lon="127.1308998"></trkpt>
    <trkpt lat="37.5179595" lon="127.1307655"></trkpt>
    <trkpt lat="37.5180536" lon="127.1306700"></trkpt>
    <trkpt lat="37.5193369" lon="127.1303987"></trkpt>
    <trkpt lat="37.5194354" lon="127.1304327"></trkpt>
    <trkpt lat="37.5194862" lon="127.1305326"></trkpt>
    <trkpt lat="37.5195980" lon="127.1314834"></trkpt>
    <trkpt lat="37.5195570" lon="127.1315853"></trkpt>
    <trkpt lat="37.5194938" lon="127.1316384"></trkpt>
    <trkpt lat="37.5182907" lon="127.1318947"></trkpt>
    <trkpt lat="37.5176563" lon="127.1314615"></trkpt>
    <trkpt lat="37.5178182" lon="127.1310476"></trkpt>
    <trkpt lat="37.5178825" lon="127.1308998"></trkpt>
    <trkpt lat="37.5179595" lon="127.1307655"></trkpt>
    <trkpt lat="37.5180536" lon="127.1306700"></trkpt>
    <trkpt lat="37.5193369" lon="127.1303987"></trkpt>
    <trkpt lat="37.5194354" lon="127.1304327"></trkpt>
    <trkpt lat="37.5194862" lon="127.1305326"></trkpt>
    <trkpt lat="37.5195980" lon="127.1314834"></trkpt>
    <trkpt lat="37.5195570" lon="127.1315853"></trkpt>
    <trkpt lat="37.5194938" lon="127.1316384"></trkpt>
    <trkpt lat="37.5182907" lon="127.1318947"></trkpt>
    <trkpt lat="37.5176563" lon="127.1314615"></trkpt>
    <trkpt lat="37.5178182" lon="127.1310476"></trkpt>
    <trkpt lat="37.5178825" lon="127.1308998"></trkpt>
    <trkpt lat="37.5179595" lon="127.1307655"></trkpt>
    <trkpt lat="37.5180536" lon="127.1306700"></trkpt>
    <trkpt lat="37.5193369" lon="127.1303987"></trkpt>
    <trkpt lat="37.5194354" lon="127.1304327"></trkpt>
    <trkpt lat="37.5194862" lon="127.1305326"></trkpt>
    <trkpt lat="37.5195980" lon="127.1314834"></trkpt>
    <trkpt lat="37.5195570" lon="127.1315853"></trkpt>
    <trkpt lat="37.5194938" lon="127.1316384"></trkpt>
    <trkpt lat="37.5182907" lon="127.1318947"></trkpt>
    <trkpt lat="37.5176563" lon="127.1314615"></trkpt>
    <trkpt lat="37.5178182" lon="127.1310476"></trkpt>
    <trkpt lat="37.5178825" lon="127.1308998"></trkpt>
    <trkpt lat="37.5179595" lon="127.1307655"></trkpt>
    <trkpt lat="37.5180536" lon="127.1306700"></trkpt>
    <trkpt lat="37.5193369" lon="127.1303987"></trkpt>
    <trkpt lat="37.5194354" lon="127.1304327"></trkpt>
    <trkpt lat="37.5194862" lon="127.1305326"></trkpt>
    <trkpt lat="37.5195980" lon="127.1314834"></trkpt>
    <trkpt lat="37.5195570" lon="127.1315853"></trkpt>
    <trkpt lat="37.5194938" lon="127.1316384"></trkpt>
    <trkpt lat="37.5182907" lon="127.1318947"></trkpt>
    <trkpt lat="37.5176563" lon="127.1314615"></trkpt>
    <trkpt lat="37.5178182" lon="127.1310476"></trkpt>
    <trkpt lat="37.5178825" lon="127.1308998"></trkpt>
    <trkpt lat="37.5179595" lon="127.1307655"></trkpt>
    <trkpt lat="37.5180536" lon="127.1306700"></trkpt>
    <trkpt lat="37.5193369" lon="127.1303987"></trkpt>
    <trkpt lat="37.5194354" lon="127.1304327"></trkpt>
    <trkpt lat="37.5194862" lon="127.1305326"></trkpt>
    <trkpt lat="37.5195980" lon="127.1314834"></trkpt>
    <trkpt lat="37.5195570" lon="127.1315853"></trkpt>
    <trkpt lat="37.5194938" lon="127.1316384"></trkpt>
    <trkpt lat="37.5182907" lon="127.1318947"></trkpt>
    <trkpt lat="37.5176563" lon="127.1314615"></trkpt>
    <trkpt lat="37.5178182" lon="127.1310476"></trkpt>
    <trkpt lat="37.5178825" lon="127.1308998"></trkpt>
    <trkpt lat="37.5179595" lon="127.1307655"></trkpt>
    <trkpt lat="37.5180536" lon="127.1306700"></trkpt>
    <trkpt lat="37.5193369" lon="127.1303987"></trkpt>
    <trkpt lat="37.5194354" lon="127.1304327"></trkpt>
    <trkpt lat="37.5194862" lon="127.1305326"></trkpt>
    <trkpt lat="37.5195980" lon="127.1314834"></trkpt>
    <trkpt lat="37.5195570" lon="127.1315853"></trkpt>
    <trkpt lat="37.5194938" lon="127.1316384"></trkpt>
    <trkpt lat="37.5182907" lon="127.1318947"></trkpt>
    <trkpt lat="37.5176563" lon="127.1314615"></trkpt>
    <trkpt lat="37.5178182" lon="127.1310476"></trkpt>
    <trkpt lat="37.5178825" lon="127.1308998"></trkpt>
    <trkpt lat="37.5179595" lon="127.1307655"></trkpt>
    <trkpt lat="37.5180536" lon="127.1306700"></trkpt>
    <trkpt lat="37.5193369" lon="127.1303987"></trkpt>
    <trkpt lat="37.5194354" lon="127.1304327"></trkpt>
    <trkpt lat="37.5194862" lon="127.1305326"></trkpt>
    <trkpt lat="37.5195980" lon="127.1314834"></trkpt>
    <trkpt lat="37.5195570" lon="127.1315853"></trkpt>
    <trkpt lat="37.5194938" lon="127.1316384"></trkpt>
    <trkpt lat="37.5182907" lon="127.1318947"></trkpt>
    <trkpt lat="37.5176563" lon="127.1314615"></trkpt>
    <trkpt lat="37.5178182" lon="127.1310476"></trkpt>
    <trkpt lat="37.5178825" lon="127.1308998"></trkpt>
    <trkpt lat="37.5179595" lon="127.1307655"></trkpt>
    <trkpt lat="37.5180536" lon="127.1306700"></trkpt>
    <trkpt lat="37.5193369" lon="127.1303987"></trkpt>
    <trkpt lat="37.5194354" lon="127.1304327"></trkpt>
    <trkpt lat="37.5194862" lon="127.1305326"></trkpt>
    <trkpt lat="37.5195980" lon="127.1314834"></trkpt>
    <trkpt lat="37.5195570" lon="127.1315853"></trkpt>
    <trkpt lat="37.5194938" lon="127.1316384"></trkpt>
    <trkpt lat="37.5182907" lon="127.1318947"></trkpt>
    <trkpt lat="37.5176563" lon="127.1314615"></trkpt>
    <trkpt lat="37.5178182" lon="127.1310476"></trkpt>
    <trkpt lat="37.5178825" lon="127.1308998"></trkpt>
    <trkpt lat="37.5179595" lon="127.1307655"></trkpt>
    <trkpt lat="37.5180536" lon="127.1306700"></trkpt>
    <trkpt lat="37.5193369" lon="127.1303987"></trkpt>
    <trkpt lat="37.5194354" lon="127.1304327"></trkpt>
    <trkpt lat="37.5194862" lon="127.1305326"></trkpt>
    <trkpt lat="37.5195980" lon="127.1314834"></trkpt>
    <trkpt lat="37.5195570" lon="127.1315853"></trkpt>
    <trkpt lat="37.5194938" lon="127.1316384"></trkpt>
    <trkpt lat="37.5182907" lon="127.1318947"></trkpt>
    <trkpt lat="37.5176563" lon="127.1314615"></trkpt>
    <trkpt lat="37.5178182" lon="127.1310476"></trkpt>
    <trkpt lat="37.5178825" lon="127.1308998"></trkpt>
    <trkpt lat="37.5179595" lon="127.1307655"></trkpt>
    <trkpt lat="37.5180536" lon="127.1306700"></trkpt>
    <trkpt lat="37.5193369" lon="127.1303987"></trkpt>
    <trkpt lat="37.5194354" lon="127.1304327"></trkpt>
    <trkpt lat="37.5194862" lon="127.1305326"></trkpt>
    <trkpt lat="37.5195980" lon="127.1314834"></trkpt>
    <trkpt lat="37.5195570" lon="127.1315853"></trkpt>
    <trkpt lat="37.5194938" lon="127.1316384"></trkpt>
    <trkpt lat="37.5182907" lon="127.1318947"></trkpt>
  </trkseg></trk>
</gpx>