<?xml version="1.0" encoding="UTF-8"?>
<gpx version="1.1" creator="RunNavi seed" xmlns="http://www.topografix.com/GPX/1/1">
  <metadata>
    <name>중랑천 왕복 5K</name>
    <copyright author="OpenStreetMap contributors">
      <license>https://opendatacommons.org/licenses/odbl/1-0/</license>
    </copyright>
  </metadata>
  <trk><name>중랑천 왕복 5K</name><trkseg>
    <trkpt lat="37.652951" lon="127.054614"></trkpt>
    <trkpt lat="37.652916" lon="127.054569"></trkpt>
    <trkpt lat="37.652868" lon="127.054570"></trkpt>
    <trkpt lat="37.652824" lon="127.054572"></trkpt>
    <trkpt lat="37.652453" lon="127.054594"></trkpt>
    <trkpt lat="37.651937" lon="127.054621"></trkpt>
    <trkpt lat="37.651327" lon="127.054656"></trkpt>
    <trkpt lat="37.650713" lon="127.054696"></trkpt>
    <trkpt lat="37.650481" lon="127.054711"></trkpt>
    <trkpt lat="37.650343" lon="127.054720"></trkpt>
    <trkpt lat="37.650275" lon="127.054738"></trkpt>
    <trkpt lat="37.650175" lon="127.054770"></trkpt>
    <trkpt lat="37.650039" lon="127.054817"></trkpt>
    <trkpt lat="37.649873" lon="127.054873"></trkpt>
    <trkpt lat="37.649712" lon="127.054929"></trkpt>
    <trkpt lat="37.649389" lon="127.055054"></trkpt>
    <trkpt lat="37.649112" lon="127.055162"></trkpt>
    <trkpt lat="37.648729" lon="127.055313"></trkpt>
    <trkpt lat="37.648350" lon="127.055465"></trkpt>
    <trkpt lat="37.648160" lon="127.055539"></trkpt>
    <trkpt lat="37.647678" lon="127.055734"></trkpt>
    <trkpt lat="37.647420" lon="127.055837"></trkpt>
    <trkpt lat="37.647310" lon="127.055876"></trkpt>
    <trkpt lat="37.646852" lon="127.056041"></trkpt>
    <trkpt lat="37.646457" lon="127.056183"></trkpt>
    <trkpt lat="37.646182" lon="127.056266"></trkpt>
    <trkpt lat="37.646059" lon="127.056293"></trkpt>
    <trkpt lat="37.646003" lon="127.056308"></trkpt>
    <trkpt lat="37.645899" lon="127.056309"></trkpt>
    <trkpt lat="37.645766" lon="127.056304"></trkpt>
    <trkpt lat="37.645512" lon="127.056201"></trkpt>
    <trkpt lat="37.645420" lon="127.056169"></trkpt>
    <trkpt lat="37.644647" lon="127.055864"></trkpt>
    <trkpt lat="37.644411" lon="127.055774"></trkpt>
    <trkpt lat="37.644267" lon="127.055723"></trkpt>
    <trkpt lat="37.644166" lon="127.055694"></trkpt>
    <trkpt lat="37.644079" lon="127.055678"></trkpt>
    <trkpt lat="37.643619" lon="127.055593"></trkpt>
    <trkpt lat="37.643366" lon="127.055550"></trkpt>
    <trkpt lat="37.643318" lon="127.055550"></trkpt>
    <trkpt lat="37.643271" lon="127.055561"></trkpt>
    <trkpt lat="37.643234" lon="127.055586"></trkpt>
    <trkpt lat="37.643200" lon="127.055617"></trkpt>
    <trkpt lat="37.643169" lon="127.055660"></trkpt>
    <trkpt lat="37.643150" lon="127.055684"></trkpt>
    <trkpt lat="37.643008" lon="127.055673"></trkpt>
    <trkpt lat="37.642806" lon="127.055656"></trkpt>
    <trkpt lat="37.642726" lon="127.055650"></trkpt>
    <trkpt lat="37.642539" lon="127.055633"></trkpt>
    <trkpt lat="37.642423" lon="127.055624"></trkpt>
    <trkpt lat="37.642331" lon="127.055621"></trkpt>
    <trkpt lat="37.642289" lon="127.055622"></trkpt>
    <trkpt lat="37.642241" lon="127.055634"></trkpt>
    <trkpt lat="37.641984" lon="127.055702"></trkpt>
    <trkpt lat="37.641936" lon="127.055713"></trkpt>
    <trkpt lat="37.641743" lon="127.055758"></trkpt>
    <trkpt lat="37.641502" lon="127.055816"></trkpt>
    <trkpt lat="37.641270" lon="127.055872"></trkpt>
    <trkpt lat="37.641199" lon="127.055897"></trkpt>
    <trkpt lat="37.640984" lon="127.055976"></trkpt>
    <trkpt lat="37.640758" lon="127.056047"></trkpt>
    <trkpt lat="37.640585" lon="127.056102"></trkpt>
    <trkpt lat="37.640330" lon="127.056190"></trkpt>
    <trkpt lat="37.640268" lon="127.056210"></trkpt>
    <trkpt lat="37.640220" lon="127.056233"></trkpt>
    <trkpt lat="37.640180" lon="127.056259"></trkpt>
    <trkpt lat="37.640070" lon="127.056337"></trkpt>
    <trkpt lat="37.639994" lon="127.056411"></trkpt>
    <trkpt lat="37.639868" lon="127.056562"></trkpt>
    <trkpt lat="37.639795" lon="127.056663"></trkpt>
    <trkpt lat="37.639538" lon="127.056995"></trkpt>
    <trkpt lat="37.639290" lon="127.057340"></trkpt>
    <trkpt lat="37.638952" lon="127.057801"></trkpt>
    <trkpt lat="37.638498" lon="127.058418"></trkpt>
    <trkpt lat="37.638151" lon="127.058873"></trkpt>
    <trkpt lat="37.637995" lon="127.059082"></trkpt>
    <trkpt lat="37.637740" lon="127.059404"></trkpt>
    <trkpt lat="37.637642" lon="127.059493"></trkpt>
    <trkpt lat="37.637442" lon="127.059633"></trkpt>
    <trkpt lat="37.637150" lon="127.059838"></trkpt>
    <trkpt lat="37.637100" lon="127.059859"></trkpt>
    <trkpt lat="37.637033" lon="127.059876"></trkpt>
    <trkpt lat="37.636785" lon="127.059935"></trkpt>
    <trkpt lat="37.636717" lon="127.059952"></trkpt>
    <trkpt lat="37.636652" lon="127.059999"></trkpt>
    <trkpt lat="37.636488" lon="127.060122"></trkpt>
    <trkpt lat="37.636418" lon="127.060152"></trkpt>
    <trkpt lat="37.636195" lon="127.060245"></trkpt>
    <trkpt lat="37.636112" lon="127.060285"></trkpt>
    <trkpt lat="37.636070" lon="127.060307"></trkpt>
    <trkpt lat="37.636033" lon="127.060327"></trkpt>
    <trkpt lat="37.635962" lon="127.060371"></trkpt>
    <trkpt lat="37.635807" lon="127.060476"></trkpt>
    <trkpt lat="37.635677" lon="127.060572"></trkpt>
    <trkpt lat="37.635457" lon="127.060762"></trkpt>
    <trkpt lat="37.635248" lon="127.060952"></trkpt>
    <trkpt lat="37.634838" lon="127.061349"></trkpt>
    <trkpt lat="37.634717" lon="127.061467"></trkpt>
    <trkpt lat="37.634554" lon="127.061628"></trkpt>
    <trkpt lat="37.634126" lon="127.062069"></trkpt>
    <trkpt lat="37.633874" lon="127.062366"></trkpt>
    <trkpt lat="37.633815" lon="127.062414"></trkpt>
    <trkpt lat="37.633746" lon="127.062487"></trkpt>
    <trkpt lat="37.633514" lon="127.062716"></trkpt>
    <trkpt lat="37.633466" lon="127.062772"></trkpt>
    <trkpt lat="37.633135" lon="127.063177"></trkpt>
    <trkpt lat="37.633010" lon="127.063350"></trkpt>
    <trkpt lat="37.632940" lon="127.063430"></trkpt>
    <trkpt lat="37.633010" lon="127.063350"></trkpt>
    <trkpt lat="37.633135" lon="127.063177"></trkpt>
    <trkpt lat="37.633466" lon="127.062772"></trkpt>
    <trkpt lat="37.633514" lon="127.062716"></trkpt>
    <trkpt lat="37.633746" lon="127.062487"></trkpt>
    <trkpt lat="37.633815" lon="127.062414"></trkpt>
    <trkpt lat="37.633874" lon="127.062366"></trkpt>
    <trkpt lat="37.634126" lon="127.062069"></trkpt>
    <trkpt lat="37.634554" lon="127.061628"></trkpt>
    <trkpt lat="37.634717" lon="127.061467"></trkpt>
    <trkpt lat="37.634838" lon="127.061349"></trkpt>
    <trkpt lat="37.635248" lon="127.060952"></trkpt>
    <trkpt lat="37.635457" lon="127.060762"></trkpt>
    <trkpt lat="37.635677" lon="127.060572"></trkpt>
    <trkpt lat="37.635807" lon="127.060476"></trkpt>
    <trkpt lat="37.635962" lon="127.060371"></trkpt>
    <trkpt lat="37.636033" lon="127.060327"></trkpt>
    <trkpt lat="37.636070" lon="127.060307"></trkpt>
    <trkpt lat="37.636112" lon="127.060285"></trkpt>
    <trkpt lat="37.636195" lon="127.060245"></trkpt>
    <trkpt lat="37.636418" lon="127.060152"></trkpt>
    <trkpt lat="37.636488" lon="127.060122"></trkpt>
    <trkpt lat="37.636652" lon="127.059999"></trkpt>
    <trkpt lat="37.636717" lon="127.059952"></trkpt>
    <trkpt lat="37.636785" lon="127.059935"></trkpt>
    <trkpt lat="37.637033" lon="127.059876"></trkpt>
    <trkpt lat="37.637100" lon="127.059859"></trkpt>
    <trkpt lat="37.637150" lon="127.059838"></trkpt>
    <trkpt lat="37.637442" lon="127.059633"></trkpt>
    <trkpt lat="37.637642" lon="127.059493"></trkpt>
    <trkpt lat="37.637740" lon="127.059404"></trkpt>
    <trkpt lat="37.637995" lon="127.059082"></trkpt>
    <trkpt lat="37.638151" lon="127.058873"></trkpt>
    <trkpt lat="37.638498" lon="127.058418"></trkpt>
    <trkpt lat="37.638952" lon="127.057801"></trkpt>
    <trkpt lat="37.639290" lon="127.057340"></trkpt>
    <trkpt lat="37.639538" lon="127.056995"></trkpt>
    <trkpt lat="37.639795" lon="127.056663"></trkpt>
    <trkpt lat="37.639868" lon="127.056562"></trkpt>
    <trkpt lat="37.639994" lon="127.056411"></trkpt>
    <trkpt lat="37.640070" lon="127.056337"></trkpt>
    <trkpt lat="37.640180" lon="127.056259"></trkpt>
    <trkpt lat="37.640220" lon="127.056233"></trkpt>
    <trkpt lat="37.640268" lon="127.056210"></trkpt>
    <trkpt lat="37.640330" lon="127.056190"></trkpt>
    <trkpt lat="37.640585" lon="127.056102"></trkpt>
    <trkpt lat="37.640758" lon="127.056047"></trkpt>
    <trkpt lat="37.640984" lon="127.055976"></trkpt>
    <trkpt lat="37.641199" lon="127.055897"></trkpt>
    <trkpt lat="37.641270" lon="127.055872"></trkpt>
    <trkpt lat="37.641502" lon="127.055816"></trkpt>
    <trkpt lat="37.641743" lon="127.055758"></trkpt>
    <trkpt lat="37.641936" lon="127.055713"></trkpt>
    <trkpt lat="37.641984" lon="127.055702"></trkpt>
    <trkpt lat="37.642241" lon="127.055634"></trkpt>
    <trkpt lat="37.642289" lon="127.055622"></trkpt>
    <trkpt lat="37.642331" lon="127.055621"></trkpt>
    <trkpt lat="37.642423" lon="127.055624"></trkpt>
    <trkpt lat="37.642539" lon="127.055633"></trkpt>
    <trkpt lat="37.642726" lon="127.055650"></trkpt>
    <trkpt lat="37.642806" lon="127.055656"></trkpt>
    <trkpt lat="37.643008" lon="127.055673"></trkpt>
    <trkpt lat="37.643150" lon="127.055684"></trkpt>
    <trkpt lat="37.643169" lon="127.055660"></trkpt>
    <trkpt lat="37.643200" lon="127.055617"></trkpt>
    <trkpt lat="37.643234" lon="127.055586"></trkpt>
    <trkpt lat="37.643271" lon="127.055561"></trkpt>
    <trkpt lat="37.643318" lon="127.055550"></trkpt>
    <trkpt lat="37.643366" lon="127.055550"></trkpt>
    <trkpt lat="37.643619" lon="127.055593"></trkpt>
    <trkpt lat="37.644079" lon="127.055678"></trkpt>
    <trkpt lat="37.644166" lon="127.055694"></trkpt>
    <trkpt lat="37.644267" lon="127.055723"></trkpt>
    <trkpt lat="37.644411" lon="127.055774"></trkpt>
    <trkpt lat="37.644647" lon="127.055864"></trkpt>
    <trkpt lat="37.645420" lon="127.056169"></trkpt>
    <trkpt lat="37.645512" lon="127.056201"></trkpt>
    <trkpt lat="37.645766" lon="127.056304"></trkpt>
    <trkpt lat="37.645899" lon="127.056309"></trkpt>
    <trkpt lat="37.646003" lon="127.056308"></trkpt>
    <trkpt lat="37.646059" lon="127.056293"></trkpt>
    <trkpt lat="37.646182" lon="127.056266"></trkpt>
    <trkpt lat="37.646457" lon="127.056183"></trkpt>
    <trkpt lat="37.646852" lon="127.056041"></trkpt>
    <trkpt lat="37.647310" lon="127.055876"></trkpt>
    <trkpt lat="37.647420" lon="127.055837"></trkpt>
    <trkpt lat="37.647678" lon="127.055734"></trkpt>
    <trkpt lat="37.648160" lon="127.055539"></trkpt>
    <trkpt lat="37.648350" lon="127.055465"></trkpt>
    <trkpt lat="37.648729" lon="127.055313"></trkpt>
    <trkpt lat="37.649112" lon="127.055162"></trkpt>
    <trkpt lat="37.649389" lon="127.055054"></trkpt>
    <trkpt lat="37.649712" lon="127.054929"></trkpt>
    <trkpt lat="37.649873" lon="127.054873"></trkpt>
    <trkpt lat="37.650039" lon="127.054817"></trkpt>
    <trkpt lat="37.650175" lon="127.054770"></trkpt>
    <trkpt lat="37.650275" lon="127.054738"></trkpt>
    <trkpt lat="37.650343" lon="127.054720"></trkpt>
    <trkpt lat="37.650481" lon="127.054711"></trkpt>
    <trkpt lat="37.650713" lon="127.054696"></trkpt>
    <trkpt lat="37.651327" lon="127.054656"></trkpt>
    <trkpt lat="37.651937" lon="127.054621"></trkpt>
    <trkpt lat="37.652453" lon="127.054594"></trkpt>
    <trkpt lat="37.652824" lon="127.054572"></trkpt>
    <trkpt lat="37.652868" lon="127.054570"></trkpt>
    <trkpt lat="37.652916" lon="127.054569"></trkpt>
    <trkpt lat="37.652951" lon="127.054614"></trkpt>
  </trkseg></trk>
</gpx>