<?xml version="1.0" encoding="UTF-8"?>
<gpx version="1.1" creator="RunNavi verified run" xmlns="http://www.topografix.com/GPX/1/1">
  <metadata>
    <name>초안산근린공원(트랙)</name>
  </metadata>
  <trk><name>초안산근린공원(트랙)</name><trkseg>
    <trkpt lat="37.64798286" lon="127.04126249"></trkpt>
    <trkpt lat="37.64802293" lon="127.04132628"></trkpt>
    <trkpt lat="37.64817808" lon="127.04148813"></trkpt>
    <trkpt lat="37.64820381" lon="127.04152392"></trkpt>
    <trkpt lat="37.64825737" lon="127.04158628"></trkpt>
    <trkpt lat="37.64835477" lon="127.04166063"></trkpt>
    <trkpt lat="37.64846692" lon="127.04160942"></trkpt>
    <trkpt lat="37.64861318" lon="127.04144371"></trkpt>
    <trkpt lat="37.64875861" lon="127.04129040"></trkpt>
    <trkpt lat="37.64888828" lon="127.04109728"></trkpt>
    <trkpt lat="37.64895584" lon="127.04100274"></trkpt>
    <trkpt lat="37.64904770" lon="127.04079000"></trkpt>
    <trkpt lat="37.64904049" lon="127.04076251"></trkpt>
    <trkpt lat="37.64895952" lon="127.04065623"></trkpt>
    <trkpt lat="37.64881846" lon="127.04049479"></trkpt>
    <trkpt lat="37.64868275" lon="127.04032062"></trkpt>
    <trkpt lat="37.64866674" lon="127.04030067"></trkpt>
    <trkpt lat="37.64859600" lon="127.04031358"></trkpt>
    <trkpt lat="37.64850145" lon="127.04041600"></trkpt>
    <trkpt lat="37.64837857" lon="127.04059747"></trkpt>
    <trkpt lat="37.64833591" lon="127.04067660"></trkpt>
    <trkpt lat="37.64820850" lon="127.04085832"></trkpt>
    <trkpt lat="37.64816022" lon="127.04093375"></trkpt>
    <trkpt lat="37.64803014" lon="127.04111572"></trkpt>
    <trkpt lat="37.64798974" lon="127.04121966"></trkpt>
    <trkpt lat="37.64803483" lon="127.04132049"></trkpt>
    <trkpt lat="37.64817582" lon="127.04149576"></trkpt>
    <trkpt lat="37.64822636" lon="127.04155703"></trkpt>
    <trkpt lat="37.64826567" lon="127.04159995"></trkpt>
    <trkpt lat="37.64839970" lon="127.04169407"></trkpt>
    <trkpt lat="37.64849793" lon="127.04163582"></trkpt>
    <trkpt lat="37.64863925" lon="127.04146198"></trkpt>
    <trkpt lat="37.64868845" lon="127.04138545"></trkpt>
    <trkpt lat="37.64880312" lon="127.04119979"></trkpt>
    <trkpt lat="37.64884218" lon="127.04115495"></trkpt>
    <trkpt lat="37.64887302" lon="127.04111438"></trkpt>
    <trkpt lat="37.64900789" lon="127.04092311"></trkpt>
    <trkpt lat="37.64904644" lon="127.04085270"></trkpt>
    <trkpt lat="37.64902750" lon="127.04070509"></trkpt>
    <trkpt lat="37.64888048" lon="127.04053477"></trkpt>
    <trkpt lat="37.64871737" lon="127.04037854"></trkpt>
    <trkpt lat="37.64863573" lon="127.04031500"></trkpt>
    <trkpt lat="37.64856499" lon="127.04032724"></trkpt>
    <trkpt lat="37.64853121" lon="127.04036227"></trkpt>
    <trkpt lat="37.64838838" lon="127.04055120"></trkpt>
    <trkpt lat="37.64837262" lon="127.04057660"></trkpt>
    <trkpt lat="37.64823994" lon="127.04074910"></trkpt>
    <trkpt lat="37.64817808" lon="127.04085404"></trkpt>
    <trkpt lat="37.64806107" lon="127.04105152"></trkpt>
    <trkpt lat="37.64802486" lon="127.04108966"></trkpt>
    <trkpt lat="37.64799049" lon="127.04110508"></trkpt>
    <trkpt lat="37.64798085" lon="127.04110156"></trkpt>
    <trkpt lat="37.64795763" lon="127.04109334"></trkpt>
    <trkpt lat="37.64795923" lon="127.04109686"></trkpt>
    <trkpt lat="37.64796526" lon="127.04115529"></trkpt>
    <trkpt lat="37.64797566" lon="127.04123911"></trkpt>
    <trkpt lat="37.64803173" lon="127.04132091"></trkpt>
    <trkpt lat="37.64806442" lon="127.04135637"></trkpt>
    <trkpt lat="37.64809594" lon="127.04140523"></trkpt>
    <trkpt lat="37.64822720" lon="127.04158285"></trkpt>
    <trkpt lat="37.64839157" lon="127.04169676"></trkpt>
    <trkpt lat="37.64844010" lon="127.04168536"></trkpt>
    <trkpt lat="37.64849936" lon="127.04163741"></trkpt>
    <trkpt lat="37.64863472" lon="127.04146399"></trkpt>
    <trkpt lat="37.64877051" lon="127.04128772"></trkpt>
    <trkpt lat="37.64883463" lon="127.04120298"></trkpt>
    <trkpt lat="37.64896749" lon="127.04101615"></trkpt>
    <trkpt lat="37.64900152" lon="127.04096284"></trkpt>
    <trkpt lat="37.64904661" lon="127.04077927"></trkpt>
    <trkpt lat="37.64895357" lon="127.04060711"></trkpt>
    <trkpt lat="37.64882927" lon="127.04044048"></trkpt>
    <trkpt lat="37.64875039" lon="127.04035264"></trkpt>
    <trkpt lat="37.64860790" lon="127.04028759"></trkpt>
    <trkpt lat="37.64854504" lon="127.04036026"></trkpt>
    <trkpt lat="37.64840841" lon="127.04052815"></trkpt>
    <trkpt lat="37.64834647" lon="127.04062438"></trkpt>
    <trkpt lat="37.64821521" lon="127.04081113"></trkpt>
    <trkpt lat="37.64814572" lon="127.04090039"></trkpt>
    <trkpt lat="37.64801740" lon="127.04109100"></trkpt>
    <trkpt lat="37.64798999" lon="127.04115093"></trkpt>
    <trkpt lat="37.64801572" lon="127.04128060"></trkpt>
    <trkpt lat="37.64813743" lon="127.04146340"></trkpt>
    <trkpt lat="37.64828503" lon="127.04163054"></trkpt>
    <trkpt lat="37.64843725" lon="127.04168879"></trkpt>
    <trkpt lat="37.64852576" lon="127.04160271"></trkpt>
    <trkpt lat="37.64865761" lon="127.04143130"></trkpt>
    <trkpt lat="37.64869843" lon="127.04138914"></trkpt>
    <trkpt lat="37.64883430" lon="127.04120910"></trkpt>
    <trkpt lat="37.64889725" lon="127.04111069"></trkpt>
    <trkpt lat="37.64895114" lon="127.04104473"></trkpt>
    <trkpt lat="37.64906664" lon="127.04084348"></trkpt>
    <trkpt lat="37.64904032" lon="127.04070794"></trkpt>
    <trkpt lat="37.64890580" lon="127.04053142"></trkpt>
    <trkpt lat="37.64884335" lon="127.04047627"></trkpt>
    <trkpt lat="37.64870505" lon="127.04031793"></trkpt>
    <trkpt lat="37.64868669" lon="127.04030544"></trkpt>
    <trkpt lat="37.64857479" lon="127.04031114"></trkpt>
    <trkpt lat="37.64848159" lon="127.04046730"></trkpt>
    <trkpt lat="37.64834806" lon="127.04065195"></trkpt>
    <trkpt lat="37.64825863" lon="127.04076553"></trkpt>
    <trkpt lat="37.64813298" lon="127.04095588"></trkpt>
    <trkpt lat="37.64805755" lon="127.04107390"></trkpt>
    <trkpt lat="37.64801941" lon="127.04128680"></trkpt>
    <trkpt lat="37.64811287" lon="127.04140289"></trkpt>
    <trkpt lat="37.64824195" lon="127.04156407"></trkpt>
    <trkpt lat="37.64831739" lon="127.04163875"></trkpt>
    <trkpt lat="37.64845694" lon="127.04167966"></trkpt>
    <trkpt lat="37.64849743" lon="127.04163892"></trkpt>
    <trkpt lat="37.64854202" lon="127.04157472"></trkpt>
    <trkpt lat="37.64868284" lon="127.04140255"></trkpt>
    <trkpt lat="37.64872374" lon="127.04135511"></trkpt>
    <trkpt lat="37.64885860" lon="127.04118521"></trkpt>
    <trkpt lat="37.64888836" lon="127.04113366"></trkpt>
    <trkpt lat="37.64900059" lon="127.04094012"></trkpt>
    <trkpt lat="37.64904787" lon="127.04086284"></trkpt>
    <trkpt lat="37.64903571" lon="127.04073661"></trkpt>
    <trkpt lat="37.64893228" lon="127.04059999"></trkpt>
    <trkpt lat="37.64879071" lon="127.04043964"></trkpt>
    <trkpt lat="37.64873514" lon="127.04037954"></trkpt>
    <trkpt lat="37.64858502" lon="127.04030788"></trkpt>
    <trkpt lat="37.64850019" lon="127.04039496"></trkpt>
    <trkpt lat="37.64837338" lon="127.04055665"></trkpt>
    <trkpt lat="37.64829283" lon="127.04067375"></trkpt>
    <trkpt lat="37.64816123" lon="127.04086175"></trkpt>
    <trkpt lat="37.64812963" lon="127.04090894"></trkpt>
    <trkpt lat="37.64810038" lon="127.04095353"></trkpt>
    <trkpt lat="37.64797247" lon="127.04113576"></trkpt>
    <trkpt lat="37.64795688" lon="127.04119175"></trkpt>
    <trkpt lat="37.64796769" lon="127.04126693"></trkpt>
    <trkpt lat="37.64799695" lon="127.04130465"></trkpt>
    <trkpt lat="37.64815067" lon="127.04146609"></trkpt>
    <trkpt lat="37.64819099" lon="127.04150548"></trkpt>
    <trkpt lat="37.64832451" lon="127.04166398"></trkpt>
    <trkpt lat="37.64837220" lon="127.04167513"></trkpt>
    <trkpt lat="37.64847807" lon="127.04162995"></trkpt>
    <trkpt lat="37.64860120" lon="127.04148226"></trkpt>
    <trkpt lat="37.64874260" lon="127.04129929"></trkpt>
    <trkpt lat="37.64878979" lon="127.04123056"></trkpt>
    <trkpt lat="37.64893069" lon="127.04106987"></trkpt>
    <trkpt lat="37.64904904" lon="127.04086904"></trkpt>
    <trkpt lat="37.64905181" lon="127.04083870"></trkpt>
    <trkpt lat="37.64899791" lon="127.04069571"></trkpt>
    <trkpt lat="37.64886866" lon="127.04051960"></trkpt>
    <trkpt lat="37.64873321" lon="127.04034769"></trkpt>
    <trkpt lat="37.64861201" lon="127.04029488"></trkpt>
    <trkpt lat="37.64852157" lon="127.04038658"></trkpt>
    <trkpt lat="37.64840288" lon="127.04056084"></trkpt>
    <trkpt lat="37.64834655" lon="127.04064089"></trkpt>
    <trkpt lat="37.64821102" lon="127.04081833"></trkpt>
    <trkpt lat="37.64819149" lon="127.04084172"></trkpt>
    <trkpt lat="37.64808060" lon="127.04101740"></trkpt>
    <trkpt lat="37.64800114" lon="127.04116937"></trkpt>
    <trkpt lat="37.64801706" lon="127.04128177"></trkpt>
    <trkpt lat="37.64803064" lon="127.04130448"></trkpt>
    <trkpt lat="37.64804732" lon="127.04132435"></trkpt>
    <trkpt lat="37.64813877" lon="127.04143851"></trkpt>
    <trkpt lat="37.64827757" lon="127.04158670"></trkpt>
    <trkpt lat="37.64831722" lon="127.04162803"></trkpt>
    <trkpt lat="37.64846080" lon="127.04171771"></trkpt>
    <trkpt lat="37.64856633" lon="127.04159827"></trkpt>
    <trkpt lat="37.64867378" lon="127.04143004"></trkpt>
    <trkpt lat="37.64870874" lon="127.04138151"></trkpt>
    <trkpt lat="37.64884360" lon="127.04120742"></trkpt>
    <trkpt lat="37.64886104" lon="127.04118605"></trkpt>
    <trkpt lat="37.64896656" lon="127.04101372"></trkpt>
    <trkpt lat="37.64904938" lon="127.04079864"></trkpt>
    <trkpt lat="37.64897754" lon="127.04066277"></trkpt>
    <trkpt lat="37.64885173" lon="127.04048758"></trkpt>
    <trkpt lat="37.64870077" lon="127.04031919"></trkpt>
    <trkpt lat="37.64863112" lon="127.04028868"></trkpt>
    <trkpt lat="37.64855526" lon="127.04032782"></trkpt>
    <trkpt lat="37.64844261" lon="127.04050929"></trkpt>
    <trkpt lat="37.64842660" lon="127.04054081"></trkpt>
    <trkpt lat="37.64830682" lon="127.04071867"></trkpt>
    <trkpt lat="37.64825603" lon="127.04078414"></trkpt>
    <trkpt lat="37.64815318" lon="127.04095328"></trkpt>
    <trkpt lat="37.64805587" lon="127.04108823"></trkpt>
    <trkpt lat="37.64801245" lon="127.04116191"></trkpt>
    <trkpt lat="37.64801505" lon="127.04128646"></trkpt>
    <trkpt lat="37.64809946" lon="127.04138436"></trkpt>
    <trkpt lat="37.64812921" lon="127.04142225"></trkpt>
    <trkpt lat="37.64814438" lon="127.04144153"></trkpt>
    <trkpt lat="37.64827355" lon="127.04160690"></trkpt>
    <trkpt lat="37.64842778" lon="127.04168586"></trkpt>
    <trkpt lat="37.64854730" lon="127.04157497"></trkpt>
    <trkpt lat="37.64866884" lon="127.04140674"></trkpt>
    <trkpt lat="37.64874042" lon="127.04130993"></trkpt>
    <trkpt lat="37.64885307" lon="127.04116224"></trkpt>
    <trkpt lat="37.64897411" lon="127.04100508"></trkpt>
    <trkpt lat="37.64906782" lon="127.04080333"></trkpt>
    <trkpt lat="37.64906991" lon="127.04077760"></trkpt>
    <trkpt lat="37.64901945" lon="127.04068146"></trkpt>
    <trkpt lat="37.64887973" lon="127.04050644"></trkpt>
    <trkpt lat="37.64881871" lon="127.04044249"></trkpt>
    <trkpt lat="37.64865392" lon="127.04029430"></trkpt>
    <trkpt lat="37.64860849" lon="127.04029086"></trkpt>
    <trkpt lat="37.64851084" lon="127.04037912"></trkpt>
    <trkpt lat="37.64839483" lon="127.04056545"></trkpt>
    <trkpt lat="37.64837681" lon="127.04058951"></trkpt>
    <trkpt lat="37.64825821" lon="127.04076176"></trkpt>
    <trkpt lat="37.64822619" lon="127.04080752"></trkpt>
    <trkpt lat="37.64809451" lon="127.04099704"></trkpt>
    <trkpt lat="37.64805964" lon="127.04104724"></trkpt>
    <trkpt lat="37.64798404" lon="127.04123592"></trkpt>
    <trkpt lat="37.64799108" lon="127.04129099"></trkpt>
    <trkpt lat="37.64801916" lon="127.04133902"></trkpt>
    <trkpt lat="37.64817045" lon="127.04150112"></trkpt>
    <trkpt lat="37.64828964" lon="127.04165242"></trkpt>
    <trkpt lat="37.64845141" lon="127.04170791"></trkpt>
    <trkpt lat="37.64854839" lon="127.04160657"></trkpt>
    <trkpt lat="37.64868527" lon="127.04142275"></trkpt>
    <trkpt lat="37.64872366" lon="127.04138143"></trkpt>
    <trkpt lat="37.64885777" lon="127.04119753"></trkpt>
    <trkpt lat="37.64887302" lon="127.04117389"></trkpt>
    <trkpt lat="37.64899850" lon="127.04097834"></trkpt>
    <trkpt lat="37.64902683" lon="127.04092663"></trkpt>
    <trkpt lat="37.64904569" lon="127.04075949"></trkpt>
    <trkpt lat="37.64892868" lon="127.04059579"></trkpt>
    <trkpt lat="37.64878585" lon="127.04043562"></trkpt>
    <trkpt lat="37.64861352" lon="127.04030662"></trkpt>
    <trkpt lat="37.64859424" lon="127.04030955"></trkpt>
    <trkpt lat="37.64852760" lon="127.04038373"></trkpt>
    <trkpt lat="37.64841151" lon="127.04057593"></trkpt>
    <trkpt lat="37.64839517" lon="127.04059906"></trkpt>
    <trkpt lat="37.64830984" lon="127.04074692"></trkpt>
    <trkpt lat="37.64817674" lon="127.04089846"></trkpt>
    <trkpt lat="37.64804933" lon="127.04105370"></trkpt>
    <trkpt lat="37.64798152" lon="127.04117524"></trkpt>
    <trkpt lat="37.64797423" lon="127.04123106"></trkpt>
    <trkpt lat="37.64799376" lon="127.04128370"></trkpt>
    <trkpt lat="37.64812494" lon="127.04145008"></trkpt>
    <trkpt lat="37.64826701" lon="127.04159668"></trkpt>
    <trkpt lat="37.64835753" lon="127.04169458"></trkpt>
    <trkpt lat="37.64845166" lon="127.04170464"></trkpt>
    <trkpt lat="37.64847111" lon="127.04168913"></trkpt>
    <trkpt lat="37.64860296" lon="127.04152845"></trkpt>
    <trkpt lat="37.64872273" lon="127.04141529"></trkpt>
    <trkpt lat="37.64884394" lon="127.04122779"></trkpt>
    <trkpt lat="37.64895366" lon="127.04105898"></trkpt>
    <trkpt lat="37.64907352" lon="127.04086703"></trkpt>
    <trkpt lat="37.64906019" lon="127.04075178"></trkpt>
    <trkpt lat="37.64904108" lon="127.04072823"></trkpt>
    <trkpt lat="37.64888342" lon="127.04056235"></trkpt>
    <trkpt lat="37.64884100" lon="127.04052480"></trkpt>
    <trkpt lat="37.64870614" lon="127.04037434"></trkpt>
    <trkpt lat="37.64868912" lon="127.04035037"></trkpt>
    <trkpt lat="37.64861092" lon="127.04031467"></trkpt>
    <trkpt lat="37.64858661" lon="127.04032321"></trkpt>
    <trkpt lat="37.64847605" lon="127.04044752"></trkpt>
    <trkpt lat="37.64833658" lon="127.04063578"></trkpt>
    <trkpt lat="37.64831889" lon="127.04065992"></trkpt>
    <trkpt lat="37.64818529" lon="127.04084449"></trkpt>
    <trkpt lat="37.64816970" lon="127.04087324"></trkpt>
    <trkpt lat="37.64815235" lon="127.04090148"></trkpt>
    <trkpt lat="37.64802226" lon="127.04107692"></trkpt>
    <trkpt lat="37.64798638" lon="127.04115193"></trkpt>
    <trkpt lat="37.64798295" lon="127.04117951"></trkpt>
    <trkpt lat="37.64800482" lon="127.04129719"></trkpt>
    <trkpt lat="37.64810851" lon="127.04141839"></trkpt>
    <trkpt lat="37.64824673" lon="127.04157849"></trkpt>
    <trkpt lat="37.64834739" lon="127.04168611"></trkpt>
    <trkpt lat="37.64848913" lon="127.04165166"></trkpt>
    <trkpt lat="37.64861092" lon="127.04150867"></trkpt>
    <trkpt lat="37.64873019" lon="127.04132393"></trkpt>
    <trkpt lat="37.64874646" lon="127.04130063"></trkpt>
    <trkpt lat="37.64888166" lon="127.04111044"></trkpt>
    <trkpt lat="37.64900344" lon="127.04094205"></trkpt>
    <trkpt lat="37.64903245" lon="127.04089159"></trkpt>
    <trkpt lat="37.64904418" lon="127.04075178"></trkpt>
    <trkpt lat="37.64890873" lon="127.04059705"></trkpt>
    <trkpt lat="37.64889079" lon="127.04057643"></trkpt>
    <trkpt lat="37.64872709" lon="127.04042003"></trkpt>
    <trkpt lat="37.64858988" lon="127.04029857"></trkpt>
    <trkpt lat="37.64857136" lon="127.04030461"></trkpt>
    <trkpt lat="37.64848930" lon="127.04039178"></trkpt>
    <trkpt lat="37.64841344" lon="127.04051063"></trkpt>
    <trkpt lat="37.64829358" lon="127.04070677"></trkpt>
    <trkpt lat="37.64817439" lon="127.04089520"></trkpt>
    <trkpt lat="37.64805201" lon="127.04108764"></trkpt>
    <trkpt lat="37.64803609" lon="127.04111178"></trkpt>
    <trkpt lat="37.64802704" lon="127.04128143"></trkpt>
    <trkpt lat="37.64811102" lon="127.04140909"></trkpt>
    <trkpt lat="37.64825125" lon="127.04157807"></trkpt>
    <trkpt lat="37.64827916" lon="127.04161026"></trkpt>
    <trkpt lat="37.64843741" lon="127.04170229"></trkpt>
    <trkpt lat="37.64845896" lon="127.04169223"></trkpt>
    <trkpt lat="37.64855208" lon="127.04159844"></trkpt>
    <trkpt lat="37.64866222" lon="127.04143206"></trkpt>
    <trkpt lat="37.64878510" lon="127.04124883"></trkpt>
    <trkpt lat="37.64890672" lon="127.04106376"></trkpt>
    <trkpt lat="37.64895273" lon="127.04099393"></trkpt>
    <trkpt lat="37.64904393" lon="127.04078766"></trkpt>
    <trkpt lat="37.64898291" lon="127.04066453"></trkpt>
    <trkpt lat="37.64883455" lon="127.04050820"></trkpt>
    <trkpt lat="37.64868468" lon="127.04034098"></trkpt>
    <trkpt lat="37.64858150" lon="127.04028265"></trkpt>
    <trkpt lat="37.64850698" lon="127.04039941"></trkpt>
    <trkpt lat="37.64839425" lon="127.04058138"></trkpt>
    <trkpt lat="37.64833272" lon="127.04068473"></trkpt>
    <trkpt lat="37.64821035" lon="127.04088237"></trkpt>
    <trkpt lat="37.64819082" lon="127.04090274"></trkpt>
    <trkpt lat="37.64806073" lon="127.04108915"></trkpt>
    <trkpt lat="37.64802368" lon="127.04112830"></trkpt>
    <trkpt lat="37.64802285" lon="127.04126609"></trkpt>
    <trkpt lat="37.64809719" lon="127.04137548"></trkpt>
    <trkpt lat="37.64822493" lon="127.04154429"></trkpt>
    <trkpt lat="37.64833893" lon="127.04168234"></trkpt>
    <trkpt lat="37.64845611" lon="127.04166926"></trkpt>
    <trkpt lat="37.64856708" lon="127.04152803"></trkpt>
    <trkpt lat="37.64870103" lon="127.04133592"></trkpt>
    <trkpt lat="37.64883748" lon="127.04115059"></trkpt>
    <trkpt lat="37.64895122" lon="127.04096544"></trkpt>
    <trkpt lat="37.64898400" lon="127.04091565"></trkpt>
    <trkpt lat="37.64905843" lon="127.04080325"></trkpt>
    <trkpt lat="37.64905776" lon="127.04077408"></trkpt>
    <trkpt lat="37.64898358" lon="127.04065447"></trkpt>
    <trkpt lat="37.64885031" lon="127.04050007"></trkpt>
    <trkpt lat="37.64883044" lon="127.04048088"></trkpt>
    <trkpt lat="37.64868585" lon="127.04030243"></trkpt>
    <trkpt lat="37.64860380" lon="127.04028382"></trkpt>
    <trkpt lat="37.64848243" lon="127.04040988"></trkpt>
    <trkpt lat="37.64846575" lon="127.04043360"></trkpt>
    <trkpt lat="37.64833658" lon="127.04063578"></trkpt>
    <trkpt lat="37.64831889" lon="127.04065992"></trkpt>
    <trkpt lat="37.64818529" lon="127.04084449"></trkpt>
    <trkpt lat="37.64816970" lon="127.04087324"></trkpt>
    <trkpt lat="37.64815235" lon="127.04090148"></trkpt>
    <trkpt lat="37.64802226" lon="127.04107692"></trkpt>
    <trkpt lat="37.64798638" lon="127.04115193"></trkpt>
    <trkpt lat="37.64798295" lon="127.04117951"></trkpt>
    <trkpt lat="37.64800482" lon="127.04129719"></trkpt>
    <trkpt lat="37.64810851" lon="127.04141839"></trkpt>
    <trkpt lat="37.64824673" lon="127.04157849"></trkpt>
    <trkpt lat="37.64834739" lon="127.04168611"></trkpt>
    <trkpt lat="37.64848913" lon="127.04165166"></trkpt>
    <trkpt lat="37.64861092" lon="127.04150867"></trkpt>
    <trkpt lat="37.64873019" lon="127.04132393"></trkpt>
    <trkpt lat="37.64874646" lon="127.04130063"></trkpt>
    <trkpt lat="37.64888166" lon="127.04111044"></trkpt>
    <trkpt lat="37.64900344" lon="127.04094205"></trkpt>
    <trkpt lat="37.64903245" lon="127.04089159"></trkpt>
    <trkpt lat="37.64904418" lon="127.04075178"></trkpt>
    <trkpt lat="37.64890873" lon="127.04059705"></trkpt>
    <trkpt lat="37.64889079" lon="127.04057643"></trkpt>
    <trkpt lat="37.64872709" lon="127.04042003"></trkpt>
    <trkpt lat="37.64858988" lon="127.04029857"></trkpt>
    <trkpt lat="37.64857136" lon="127.04030461"></trkpt>
    <trkpt lat="37.64848930" lon="127.04039178"></trkpt>
    <trkpt lat="37.64841344" lon="127.04051063"></trkpt>
    <trkpt lat="37.64829358" lon="127.04070677"></trkpt>
    <trkpt lat="37.64817439" lon="127.04089520"></trkpt>
    <trkpt lat="37.64805201" lon="127.04108764"></trkpt>
    <trkpt lat="37.64803609" lon="127.04111178"></trkpt>
    <trkpt lat="37.64802704" lon="127.04128143"></trkpt>
    <trkpt lat="37.64811102" lon="127.04140909"></trkpt>
    <trkpt lat="37.64825125" lon="127.04157807"></trkpt>
    <trkpt lat="37.64827916" lon="127.04161026"></trkpt>
    <trkpt lat="37.64843741" lon="127.04170229"></trkpt>
    <trkpt lat="37.64845896" lon="127.04169223"></trkpt>
    <trkpt lat="37.64855208" lon="127.04159844"></trkpt>
    <trkpt lat="37.64866222" lon="127.04143206"></trkpt>
    <trkpt lat="37.64877726" lon="127.04126051"></trkpt>
  </trkseg></trk>
</gpx>
