<?xml version="1.0" encoding="UTF-8"?>
<gpx version="1.1" creator="RunNavi seed" xmlns="http://www.topografix.com/GPX/1/1">
  <metadata>
    <name>4.19민주묘지역 → 석계역 · 우이천 7.6K</name>
    <copyright author="OpenStreetMap contributors">
      <license>https://opendatacommons.org/licenses/odbl/1-0/</license>
    </copyright>
  </metadata>
  <trk><name>4.19민주묘지역 → 석계역 · 우이천 7.6K</name><trkseg>
    <trkpt lat="37.649620" lon="127.014641"></trkpt>
    <trkpt lat="37.649486" lon="127.014732"></trkpt>
    <trkpt lat="37.649352" lon="127.014906"></trkpt>
    <trkpt lat="37.649187" lon="127.015136"></trkpt>
    <trkpt lat="37.649110" lon="127.015336"></trkpt>
    <trkpt lat="37.649003" lon="127.015600"></trkpt>
    <trkpt lat="37.648895" lon="127.015978"></trkpt>
    <trkpt lat="37.648807" lon="127.016297"></trkpt>
    <trkpt lat="37.648724" lon="127.016574"></trkpt>
    <trkpt lat="37.648642" lon="127.016901"></trkpt>
    <trkpt lat="37.648585" lon="127.017182"></trkpt>
    <trkpt lat="37.648552" lon="127.017457"></trkpt>
    <trkpt lat="37.648530" lon="127.017746"></trkpt>
    <trkpt lat="37.648516" lon="127.017907"></trkpt>
    <trkpt lat="37.648547" lon="127.018410"></trkpt>
    <trkpt lat="37.648619" lon="127.018911"></trkpt>
    <trkpt lat="37.648725" lon="127.019377"></trkpt>
    <trkpt lat="37.648795" lon="127.019623"></trkpt>
    <trkpt lat="37.648859" lon="127.019799"></trkpt>
    <trkpt lat="37.648868" lon="127.019896"></trkpt>
    <trkpt lat="37.648912" lon="127.020092"></trkpt>
    <trkpt lat="37.648975" lon="127.020358"></trkpt>
    <trkpt lat="37.648987" lon="127.020488"></trkpt>
    <trkpt lat="37.648964" lon="127.020677"></trkpt>
    <trkpt lat="37.648931" lon="127.020821"></trkpt>
    <trkpt lat="37.648901" lon="127.020992"></trkpt>
    <trkpt lat="37.648864" lon="127.021147"></trkpt>
    <trkpt lat="37.648836" lon="127.021252"></trkpt>
    <trkpt lat="37.648784" lon="127.021359"></trkpt>
    <trkpt lat="37.648725" lon="127.021471"></trkpt>
    <trkpt lat="37.648648" lon="127.021563"></trkpt>
    <trkpt lat="37.648552" lon="127.021667"></trkpt>
    <trkpt lat="37.648462" lon="127.021739"></trkpt>
    <trkpt lat="37.648371" lon="127.021801"></trkpt>
    <trkpt lat="37.648270" lon="127.021885"></trkpt>
    <trkpt lat="37.648183" lon="127.021950"></trkpt>
    <trkpt lat="37.648098" lon="127.022033"></trkpt>
    <trkpt lat="37.648010" lon="127.022148"></trkpt>
    <trkpt lat="37.647928" lon="127.022266"></trkpt>
    <trkpt lat="37.647826" lon="127.022445"></trkpt>
    <trkpt lat="37.647764" lon="127.022567"></trkpt>
    <trkpt lat="37.647715" lon="127.022695"></trkpt>
    <trkpt lat="37.647673" lon="127.022819"></trkpt>
    <trkpt lat="37.647626" lon="127.022958"></trkpt>
    <trkpt lat="37.647580" lon="127.023122"></trkpt>
    <trkpt lat="37.647538" lon="127.023332"></trkpt>
    <trkpt lat="37.647507" lon="127.023505"></trkpt>
    <trkpt lat="37.647483" lon="127.023692"></trkpt>
    <trkpt lat="37.647505" lon="127.023696"></trkpt>
    <trkpt lat="37.647650" lon="127.023721"></trkpt>
    <trkpt lat="37.647698" lon="127.023728"></trkpt>
    <trkpt lat="37.647641" lon="127.024084"></trkpt>
    <trkpt lat="37.647538" lon="127.024518"></trkpt>
    <trkpt lat="37.647506" lon="127.024600"></trkpt>
    <trkpt lat="37.647276" lon="127.024904"></trkpt>
    <trkpt lat="37.646390" lon="127.025483"></trkpt>
    <trkpt lat="37.646086" lon="127.025720"></trkpt>
    <trkpt lat="37.645967" lon="127.025840"></trkpt>
    <trkpt lat="37.645860" lon="127.026051"></trkpt>
    <trkpt lat="37.645476" lon="127.026774"></trkpt>
    <trkpt lat="37.645419" lon="127.026910"></trkpt>
    <trkpt lat="37.645371" lon="127.027065"></trkpt>
    <trkpt lat="37.645329" lon="127.027246"></trkpt>
    <trkpt lat="37.645285" lon="127.027447"></trkpt>
    <trkpt lat="37.645238" lon="127.027579"></trkpt>
    <trkpt lat="37.645141" lon="127.027765"></trkpt>
    <trkpt lat="37.645059" lon="127.027902"></trkpt>
    <trkpt lat="37.645000" lon="127.027993"></trkpt>
    <trkpt lat="37.644932" lon="127.028097"></trkpt>
    <trkpt lat="37.644772" lon="127.028339"></trkpt>
    <trkpt lat="37.644661" lon="127.028459"></trkpt>
    <trkpt lat="37.644582" lon="127.028512"></trkpt>
    <trkpt lat="37.644463" lon="127.028642"></trkpt>
    <trkpt lat="37.644343" lon="127.028767"></trkpt>
    <trkpt lat="37.644264" lon="127.028879"></trkpt>
    <trkpt lat="37.644158" lon="127.029072"></trkpt>
    <trkpt lat="37.644074" lon="127.029235"></trkpt>
    <trkpt lat="37.644012" lon="127.029401"></trkpt>
    <trkpt lat="37.643894" lon="127.029649"></trkpt>
    <trkpt lat="37.643794" lon="127.029813"></trkpt>
    <trkpt lat="37.643721" lon="127.029933"></trkpt>
    <trkpt lat="37.643445" lon="127.030359"></trkpt>
    <trkpt lat="37.643214" lon="127.030734"></trkpt>
    <trkpt lat="37.643054" lon="127.030974"></trkpt>
    <trkpt lat="37.642861" lon="127.031278"></trkpt>
    <trkpt lat="37.642573" lon="127.031738"></trkpt>
    <trkpt lat="37.642420" lon="127.031984"></trkpt>
    <trkpt lat="37.642153" lon="127.032365"></trkpt>
    <trkpt lat="37.642037" lon="127.032523"></trkpt>
    <trkpt lat="37.641857" lon="127.032719"></trkpt>
    <trkpt lat="37.641710" lon="127.032859"></trkpt>
    <trkpt lat="37.641545" lon="127.033001"></trkpt>
    <trkpt lat="37.641368" lon="127.033118"></trkpt>
    <trkpt lat="37.641148" lon="127.033253"></trkpt>
    <trkpt lat="37.640730" lon="127.033464"></trkpt>
    <trkpt lat="37.640645" lon="127.033520"></trkpt>
    <trkpt lat="37.640551" lon="127.033562"></trkpt>
    <trkpt lat="37.640345" lon="127.033634"></trkpt>
    <trkpt lat="37.639721" lon="127.033895"></trkpt>
    <trkpt lat="37.639568" lon="127.033958"></trkpt>
    <trkpt lat="37.639423" lon="127.034033"></trkpt>
    <trkpt lat="37.639348" lon="127.034066"></trkpt>
    <trkpt lat="37.639272" lon="127.034095"></trkpt>
    <trkpt lat="37.639084" lon="127.034152"></trkpt>
    <trkpt lat="37.638920" lon="127.034212"></trkpt>
    <trkpt lat="37.638095" lon="127.034559"></trkpt>
    <trkpt lat="37.637976" lon="127.034615"></trkpt>
    <trkpt lat="37.637839" lon="127.034709"></trkpt>
    <trkpt lat="37.637688" lon="127.034857"></trkpt>
    <trkpt lat="37.637484" lon="127.035104"></trkpt>
    <trkpt lat="37.637371" lon="127.035298"></trkpt>
    <trkpt lat="37.637297" lon="127.035480"></trkpt>
    <trkpt lat="37.637192" lon="127.035871"></trkpt>
    <trkpt lat="37.637137" lon="127.036087"></trkpt>
    <trkpt lat="37.637056" lon="127.036396"></trkpt>
    <trkpt lat="37.636936" lon="127.036795"></trkpt>
    <trkpt lat="37.636830" lon="127.037083"></trkpt>
    <trkpt lat="37.636692" lon="127.037354"></trkpt>
    <trkpt lat="37.636564" lon="127.037519"></trkpt>
    <trkpt lat="37.636422" lon="127.037673"></trkpt>
    <trkpt lat="37.636221" lon="127.037840"></trkpt>
    <trkpt lat="37.636101" lon="127.037925"></trkpt>
    <trkpt lat="37.635906" lon="127.038105"></trkpt>
    <trkpt lat="37.635607" lon="127.038170"></trkpt>
    <trkpt lat="37.635309" lon="127.038246"></trkpt>
    <trkpt lat="37.634839" lon="127.038367"></trkpt>
    <trkpt lat="37.634584" lon="127.038443"></trkpt>
    <trkpt lat="37.634312" lon="127.038560"></trkpt>
    <trkpt lat="37.633986" lon="127.038725"></trkpt>
    <trkpt lat="37.633649" lon="127.038969"></trkpt>
    <trkpt lat="37.633321" lon="127.039212"></trkpt>
    <trkpt lat="37.633109" lon="127.039405"></trkpt>
    <trkpt lat="37.633001" lon="127.039530"></trkpt>
    <trkpt lat="37.632895" lon="127.039621"></trkpt>
    <trkpt lat="37.632745" lon="127.039715"></trkpt>
    <trkpt lat="37.632339" lon="127.040079"></trkpt>
    <trkpt lat="37.632217" lon="127.040237"></trkpt>
    <trkpt lat="37.632034" lon="127.040499"></trkpt>
    <trkpt lat="37.631850" lon="127.040768"></trkpt>
    <trkpt lat="37.631696" lon="127.041046"></trkpt>
    <trkpt lat="37.631425" lon="127.041518"></trkpt>
    <trkpt lat="37.630937" lon="127.042355"></trkpt>
    <trkpt lat="37.630713" lon="127.042776"></trkpt>
    <trkpt lat="37.630629" lon="127.042908"></trkpt>
    <trkpt lat="37.630505" lon="127.043105"></trkpt>
    <trkpt lat="37.630360" lon="127.043328"></trkpt>
    <trkpt lat="37.630189" lon="127.043545"></trkpt>
    <trkpt lat="37.630023" lon="127.043719"></trkpt>
    <trkpt lat="37.629845" lon="127.043915"></trkpt>
    <trkpt lat="37.629621" lon="127.044162"></trkpt>
    <trkpt lat="37.629264" lon="127.044495"></trkpt>
    <trkpt lat="37.629147" lon="127.044604"></trkpt>
    <trkpt lat="37.629019" lon="127.044731"></trkpt>
    <trkpt lat="37.628939" lon="127.044833"></trkpt>
    <trkpt lat="37.628847" lon="127.044977"></trkpt>
    <trkpt lat="37.628460" lon="127.045644"></trkpt>
    <trkpt lat="37.628248" lon="127.046071"></trkpt>
    <trkpt lat="37.628085" lon="127.046401"></trkpt>
    <trkpt lat="37.627909" lon="127.046798"></trkpt>
    <trkpt lat="37.627806" lon="127.047011"></trkpt>
    <trkpt lat="37.627687" lon="127.047218"></trkpt>
    <trkpt lat="37.627562" lon="127.047418"></trkpt>
    <trkpt lat="37.627430" lon="127.047608"></trkpt>
    <trkpt lat="37.627311" lon="127.047751"></trkpt>
    <trkpt lat="37.627241" lon="127.047825"></trkpt>
    <trkpt lat="37.626984" lon="127.048069"></trkpt>
    <trkpt lat="37.626576" lon="127.048390"></trkpt>
    <trkpt lat="37.626160" lon="127.048688"></trkpt>
    <trkpt lat="37.625785" lon="127.048966"></trkpt>
    <trkpt lat="37.625457" lon="127.049194"></trkpt>
    <trkpt lat="37.625231" lon="127.049388"></trkpt>
    <trkpt lat="37.624974" lon="127.049639"></trkpt>
    <trkpt lat="37.624668" lon="127.049926"></trkpt>
    <trkpt lat="37.624279" lon="127.050279"></trkpt>
    <trkpt lat="37.623765" lon="127.050759"></trkpt>
    <trkpt lat="37.623193" lon="127.051318"></trkpt>
    <trkpt lat="37.622525" lon="127.051972"></trkpt>
    <trkpt lat="37.621848" lon="127.052618"></trkpt>
    <trkpt lat="37.621688" lon="127.052769"></trkpt>
    <trkpt lat="37.621189" lon="127.053292"></trkpt>
    <trkpt lat="37.620869" lon="127.053601"></trkpt>
    <trkpt lat="37.620715" lon="127.053757"></trkpt>
    <trkpt lat="37.620636" lon="127.053801"></trkpt>
    <trkpt lat="37.620559" lon="127.053901"></trkpt>
    <trkpt lat="37.620298" lon="127.054231"></trkpt>
    <trkpt lat="37.620032" lon="127.054562"></trkpt>
    <trkpt lat="37.619687" lon="127.055067"></trkpt>
    <trkpt lat="37.619580" lon="127.055221"></trkpt>
    <trkpt lat="37.619520" lon="127.055348"></trkpt>
    <trkpt lat="37.619292" lon="127.055725"></trkpt>
    <trkpt lat="37.619062" lon="127.056037"></trkpt>
    <trkpt lat="37.618805" lon="127.056358"></trkpt>
    <trkpt lat="37.618589" lon="127.056607"></trkpt>
    <trkpt lat="37.618363" lon="127.056840"></trkpt>
    <trkpt lat="37.618189" lon="127.057026"></trkpt>
    <trkpt lat="37.617964" lon="127.057266"></trkpt>
    <trkpt lat="37.617615" lon="127.057677"></trkpt>
    <trkpt lat="37.617179" lon="127.058182"></trkpt>
    <trkpt lat="37.617005" lon="127.058474"></trkpt>
    <trkpt lat="37.616899" lon="127.058687"></trkpt>
    <trkpt lat="37.616707" lon="127.058579"></trkpt>
    <trkpt lat="37.616569" lon="127.058866"></trkpt>
    <trkpt lat="37.616340" lon="127.059327"></trkpt>
    <trkpt lat="37.615946" lon="127.060090"></trkpt>
    <trkpt lat="37.615690" lon="127.060538"></trkpt>
    <trkpt lat="37.615564" lon="127.060811"></trkpt>
    <trkpt lat="37.615493" lon="127.060980"></trkpt>
    <trkpt lat="37.615436" lon="127.061197"></trkpt>
    <trkpt lat="37.615377" lon="127.061530"></trkpt>
    <trkpt lat="37.615319" lon="127.061877"></trkpt>
    <trkpt lat="37.615245" lon="127.062383"></trkpt>
    <trkpt lat="37.615127" lon="127.063315"></trkpt>
    <trkpt lat="37.615119" lon="127.063377"></trkpt>
    <trkpt lat="37.615118" lon="127.063592"></trkpt>
    <trkpt lat="37.615183" lon="127.064198"></trkpt>
    <trkpt lat="37.615120" lon="127.064439"></trkpt>
    <trkpt lat="37.615036" lon="127.064543"></trkpt>
    <trkpt lat="37.614842" lon="127.064610"></trkpt>
    <trkpt lat="37.614219" lon="127.064780"></trkpt>
    <trkpt lat="37.614064" lon="127.064980"></trkpt>
    <trkpt lat="37.613982" lon="127.065090"></trkpt>
    <trkpt lat="37.613934" lon="127.065251"></trkpt>
    <trkpt lat="37.613922" lon="127.065359"></trkpt>
    <trkpt lat="37.613921" lon="127.065488"></trkpt>
    <trkpt lat="37.613930" lon="127.065597"></trkpt>
    <trkpt lat="37.613951" lon="127.065692"></trkpt>
    <trkpt lat="37.614038" lon="127.065950"></trkpt>
    <trkpt lat="37.614186" lon="127.066418"></trkpt>
    <trkpt lat="37.614262" lon="127.066694"></trkpt>
    <trkpt lat="37.614384" lon="127.067152"></trkpt>
    <trkpt lat="37.614406" lon="127.067264"></trkpt>
    <trkpt lat="37.614424" lon="127.067376"></trkpt>
    <trkpt lat="37.614442" lon="127.067499"></trkpt>
    <trkpt lat="37.614459" lon="127.067711"></trkpt>
    <trkpt lat="37.614467" lon="127.067890"></trkpt>
    <trkpt lat="37.614462" lon="127.068028"></trkpt>
    <trkpt lat="37.614453" lon="127.068121"></trkpt>
    <trkpt lat="37.614436" lon="127.068258"></trkpt>
    <trkpt lat="37.614431" lon="127.068371"></trkpt>
    <trkpt lat="37.614410" lon="127.068594"></trkpt>
    <trkpt lat="37.614398" lon="127.068736"></trkpt>
    <trkpt lat="37.614396" lon="127.068838"></trkpt>
    <trkpt lat="37.614391" lon="127.068976"></trkpt>
    <trkpt lat="37.614379" lon="127.069052"></trkpt>
    <trkpt lat="37.614358" lon="127.069138"></trkpt>
    <trkpt lat="37.614326" lon="127.069217"></trkpt>
    <trkpt lat="37.614285" lon="127.069345"></trkpt>
    <trkpt lat="37.614227" lon="127.069448"></trkpt>
    <trkpt lat="37.614178" lon="127.069522"></trkpt>
    <trkpt lat="37.614116" lon="127.069593"></trkpt>
    <trkpt lat="37.614033" lon="127.069674"></trkpt>
    <trkpt lat="37.613893" lon="127.069808"></trkpt>
    <trkpt lat="37.613692" lon="127.070012"></trkpt>
    <trkpt lat="37.613582" lon="127.070119"></trkpt>
    <trkpt lat="37.613506" lon="127.070188"></trkpt>
    <trkpt lat="37.613460" lon="127.070226"></trkpt>
    <trkpt lat="37.613389" lon="127.070279"></trkpt>
    <trkpt lat="37.613306" lon="127.070330"></trkpt>
    <trkpt lat="37.613263" lon="127.070363"></trkpt>
    <trkpt lat="37.613231" lon="127.070397"></trkpt>
    <trkpt lat="37.613201" lon="127.070442"></trkpt>
    <trkpt lat="37.613180" lon="127.070480"></trkpt>
    <trkpt lat="37.613160" lon="127.070524"></trkpt>
    <trkpt lat="37.613144" lon="127.070574"></trkpt>
    <trkpt lat="37.613130" lon="127.070633"></trkpt>
    <trkpt lat="37.613118" lon="127.070713"></trkpt>
    <trkpt lat="37.613112" lon="127.070784"></trkpt>
    <trkpt lat="37.613111" lon="127.070837"></trkpt>
    <trkpt lat="37.613196" lon="127.070839"></trkpt>
    <trkpt lat="37.613262" lon="127.070844"></trkpt>
    <trkpt lat="37.613316" lon="127.070848"></trkpt>
    <trkpt lat="37.613349" lon="127.070853"></trkpt>
    <trkpt lat="37.613387" lon="127.070860"></trkpt>
    <trkpt lat="37.613422" lon="127.070870"></trkpt>
    <trkpt lat="37.613449" lon="127.070877"></trkpt>
    <trkpt lat="37.613478" lon="127.070884"></trkpt>
    <trkpt lat="37.613534" lon="127.070885"></trkpt>
    <trkpt lat="37.614312" lon="127.070905"></trkpt>
    <trkpt lat="37.614330" lon="127.070904"></trkpt>
    <trkpt lat="37.614355" lon="127.070654"></trkpt>
    <trkpt lat="37.614378" lon="127.070440"></trkpt>
    <trkpt lat="37.614413" lon="127.070093"></trkpt>
    <trkpt lat="37.614454" lon="127.069846"></trkpt>
    <trkpt lat="37.614463" lon="127.069815"></trkpt>
    <trkpt lat="37.614482" lon="127.069788"></trkpt>
    <trkpt lat="37.614591" lon="127.069676"></trkpt>
    <trkpt lat="37.614627" lon="127.069622"></trkpt>
    <trkpt lat="37.614681" lon="127.069517"></trkpt>
    <trkpt lat="37.614781" lon="127.069261"></trkpt>
    <trkpt lat="37.614805" lon="127.069183"></trkpt>
    <trkpt lat="37.614902" lon="127.068681"></trkpt>
    <trkpt lat="37.614924" lon="127.068572"></trkpt>
    <trkpt lat="37.614945" lon="127.068426"></trkpt>
    <trkpt lat="37.614958" lon="127.068204"></trkpt>
    <trkpt lat="37.614962" lon="127.067925"></trkpt>
    <trkpt lat="37.614951" lon="127.067853"></trkpt>
    <trkpt lat="37.614827" lon="127.067290"></trkpt>
    <trkpt lat="37.614791" lon="127.067072"></trkpt>
    <trkpt lat="37.614782" lon="127.066921"></trkpt>
    <trkpt lat="37.614781" lon="127.066750"></trkpt>
    <trkpt lat="37.614797" lon="127.066675"></trkpt>
    <trkpt lat="37.614856" lon="127.066611"></trkpt>
    <trkpt lat="37.614926" lon="127.066625"></trkpt>
    <trkpt lat="37.614959" lon="127.066560"></trkpt>
    <trkpt lat="37.614989" lon="127.066489"></trkpt>
    <trkpt lat="37.615042" lon="127.066433"></trkpt>
    <trkpt lat="37.615161" lon="127.066307"></trkpt>
    <trkpt lat="37.615223" lon="127.066273"></trkpt>
    <trkpt lat="37.615176" lon="127.066086"></trkpt>
    <trkpt lat="37.615172" lon="127.066057"></trkpt>
    <trkpt lat="37.615178" lon="127.066021"></trkpt>
  </trkseg></trk>
</gpx>