<?xml version="1.0" encoding="UTF-8"?>
<gpx version="1.1" creator="RunNavi verified course" xmlns="http://www.topografix.com/GPX/1/1">
  <metadata>
    <name>당현천 왕복 5K</name>
    <copyright author="OpenStreetMap contributors">
      <license>https://opendatacommons.org/licenses/odbl/1-0/</license>
    </copyright>
  </metadata>
  <trk><name>당현천 왕복 5K</name><trkseg>
    <trkpt lat="37.6447622" lon="127.0612619"></trkpt>
    <trkpt lat="37.6450401" lon="127.0614104"></trkpt>
    <trkpt lat="37.6456872" lon="127.0620893"></trkpt>
    <trkpt lat="37.6461024" lon="127.0627235"></trkpt>
    <trkpt lat="37.6463438" lon="127.0632317"></trkpt>
    <trkpt lat="37.6466014" lon="127.0636342"></trkpt>
    <trkpt lat="37.6468042" lon="127.0638496"></trkpt>
    <trkpt lat="37.6468711" lon="127.0639137"></trkpt>
    <trkpt lat="37.6472702" lon="127.0642957"></trkpt>
    <trkpt lat="37.6477344" lon="127.0647400"></trkpt>
    <trkpt lat="37.6481362" lon="127.0650729"></trkpt>
    <trkpt lat="37.6485585" lon="127.0653457"></trkpt>
    <trkpt lat="37.6489351" lon="127.0655978"></trkpt>
    <trkpt lat="37.6491572" lon="127.0659190"></trkpt>
    <trkpt lat="37.6493761" lon="127.0662971"></trkpt>
    <trkpt lat="37.6500410" lon="127.0680582"></trkpt>
    <trkpt lat="37.6501712" lon="127.0684030"></trkpt>
    <trkpt lat="37.6503579" lon="127.0688054"></trkpt>
    <trkpt lat="37.6504083" lon="127.0688557"></trkpt>
    <trkpt lat="37.6506110" lon="127.0690581"></trkpt>
    <trkpt lat="37.6507570" lon="127.0692039"></trkpt>
    <trkpt lat="37.6520316" lon="127.0705902"></trkpt>
    <trkpt lat="37.6524046" lon="127.0708948"></trkpt>
    <trkpt lat="37.6527384" lon="127.0711673"></trkpt>
    <trkpt lat="37.6531645" lon="127.0714906"></trkpt>
    <trkpt lat="37.6538245" lon="127.0719033"></trkpt>
    <trkpt lat="37.6544457" lon="127.0721310"></trkpt>
    <trkpt lat="37.6546093" lon="127.0721543"></trkpt>
    <trkpt lat="37.6548738" lon="127.0721920"></trkpt>
    <trkpt lat="37.6555883" lon="127.0722286"></trkpt>
    <trkpt lat="37.6564444" lon="127.0721879"></trkpt>
    <trkpt lat="37.6566366" lon="127.0721731"></trkpt>
    <trkpt lat="37.6571847" lon="127.0721310"></trkpt>
    <trkpt lat="37.6577641" lon="127.0720416"></trkpt>
    <trkpt lat="37.6583048" lon="127.0719928"></trkpt>
    <trkpt lat="37.6585043" lon="127.0719846"></trkpt>
    <trkpt lat="37.6587264" lon="127.0720253"></trkpt>
    <trkpt lat="37.6589581" lon="127.0721391"></trkpt>
    <trkpt lat="37.6592574" lon="127.0723139"></trkpt>
    <trkpt lat="37.6593990" lon="127.0724156"></trkpt>
    <trkpt lat="37.6597383" lon="127.0726642"></trkpt>
    <trkpt lat="37.6598207" lon="127.0727246"></trkpt>
    <trkpt lat="37.6601312" lon="127.0730209"></trkpt>
    <trkpt lat="37.6602680" lon="127.0731514"></trkpt>
    <trkpt lat="37.6606221" lon="127.0734889"></trkpt>
    <trkpt lat="37.6609117" lon="127.0737775"></trkpt>
    <trkpt lat="37.6610862" lon="127.0739604"></trkpt>
    <trkpt lat="37.6611198" lon="127.0739957"></trkpt>
    <trkpt lat="37.6612381" lon="127.0741205"></trkpt>
    <trkpt lat="37.6617571" lon="127.0746677"></trkpt>
    <trkpt lat="37.6621730" lon="127.0751511"></trkpt>
    <trkpt lat="37.6624170" lon="127.0754686"></trkpt>
    <trkpt lat="37.6625026" lon="127.0756671"></trkpt>
    <trkpt lat="37.6624878" lon="127.0757502"></trkpt>
    <trkpt lat="37.6625026" lon="127.0756671"></trkpt>
    <trkpt lat="37.6624170" lon="127.0754686"></trkpt>
    <trkpt lat="37.6621730" lon="127.0751511"></trkpt>
    <trkpt lat="37.6617571" lon="127.0746677"></trkpt>
    <trkpt lat="37.6612381" lon="127.0741205"></trkpt>
    <trkpt lat="37.6611198" lon="127.0739957"></trkpt>
    <trkpt lat="37.6610862" lon="127.0739604"></trkpt>
    <trkpt lat="37.6609117" lon="127.0737775"></trkpt>
    <trkpt lat="37.6606221" lon="127.0734889"></trkpt>
    <trkpt lat="37.6602680" lon="127.0731514"></trkpt>
    <trkpt lat="37.6601312" lon="127.0730209"></trkpt>
    <trkpt lat="37.6598207" lon="127.0727246"></trkpt>
    <trkpt lat="37.6597383" lon="127.0726642"></trkpt>
    <trkpt lat="37.6593990" lon="127.0724156"></trkpt>
    <trkpt lat="37.6592574" lon="127.0723139"></trkpt>
    <trkpt lat="37.6589581" lon="127.0721391"></trkpt>
    <trkpt lat="37.6587264" lon="127.0720253"></trkpt>
    <trkpt lat="37.6585043" lon="127.0719846"></trkpt>
    <trkpt lat="37.6583048" lon="127.0719928"></trkpt>
    <trkpt lat="37.6577641" lon="127.0720416"></trkpt>
    <trkpt lat="37.6571847" lon="127.0721310"></trkpt>
    <trkpt lat="37.6566366" lon="127.0721731"></trkpt>
    <trkpt lat="37.6564444" lon="127.0721879"></trkpt>
    <trkpt lat="37.6555883" lon="127.0722286"></trkpt>
    <trkpt lat="37.6548738" lon="127.0721920"></trkpt>
    <trkpt lat="37.6546093" lon="127.0721543"></trkpt>
    <trkpt lat="37.6544457" lon="127.0721310"></trkpt>
    <trkpt lat="37.6538245" lon="127.0719033"></trkpt>
    <trkpt lat="37.6531645" lon="127.0714906"></trkpt>
    <trkpt lat="37.6527384" lon="127.0711673"></trkpt>
    <trkpt lat="37.6524046" lon="127.0708948"></trkpt>
    <trkpt lat="37.6520316" lon="127.0705902"></trkpt>
    <trkpt lat="37.6507570" lon="127.0692039"></trkpt>
    <trkpt lat="37.6506110" lon="127.0690581"></trkpt>
    <trkpt lat="37.6504083" lon="127.0688557"></trkpt>
    <trkpt lat="37.6503579" lon="127.0688054"></trkpt>
    <trkpt lat="37.6501712" lon="127.0684030"></trkpt>
    <trkpt lat="37.6500410" lon="127.0680582"></trkpt>
    <trkpt lat="37.6493761" lon="127.0662971"></trkpt>
    <trkpt lat="37.6491572" lon="127.0659190"></trkpt>
    <trkpt lat="37.6489351" lon="127.0655978"></trkpt>
    <trkpt lat="37.6485585" lon="127.0653457"></trkpt>
    <trkpt lat="37.6481362" lon="127.0650729"></trkpt>
    <trkpt lat="37.6477344" lon="127.0647400"></trkpt>
    <trkpt lat="37.6472702" lon="127.0642957"></trkpt>
    <trkpt lat="37.6468711" lon="127.0639137"></trkpt>
    <trkpt lat="37.6468042" lon="127.0638496"></trkpt>
    <trkpt lat="37.6466014" lon="127.0636342"></trkpt>
    <trkpt lat="37.6463438" lon="127.0632317"></trkpt>
    <trkpt lat="37.6461024" lon="127.0627235"></trkpt>
    <trkpt lat="37.6456872" lon="127.0620893"></trkpt>
    <trkpt lat="37.6450401" lon="127.0614104"></trkpt>
    <trkpt lat="37.6447622" lon="127.0612619"></trkpt>
  </trkseg></trk>
</gpx>
