<?xml version="1.0" encoding="UTF-8"?>
<gpx version="1.1" creator="RunNavi nationwide seed" xmlns="http://www.topografix.com/GPX/1/1">
  <metadata>
    <name>태화강 국가정원 · 태화강 왕복 10K</name>
    <copyright author="OpenStreetMap contributors">
      <license>https://opendatacommons.org/licenses/odbl/1-0/</license>
    </copyright>
  </metadata>
  <trk><name>태화강 국가정원 · 태화강 왕복 10K</name><trkseg>
    <trkpt lat="35.5483442" lon="129.2930036"></trkpt>
    <trkpt lat="35.5482918" lon="129.2930510"></trkpt>
    <trkpt lat="35.5483369" lon="129.2927314"></trkpt>
    <trkpt lat="35.5484835" lon="129.2925052"></trkpt>
    <trkpt lat="35.5486389" lon="129.2922656"></trkpt>
    <trkpt lat="35.5488166" lon="129.2920909"></trkpt>
    <trkpt lat="35.5488166" lon="129.2920466"></trkpt>
    <trkpt lat="35.5488166" lon="129.2917198"></trkpt>
    <trkpt lat="35.5487698" lon="129.2914433"></trkpt>
    <trkpt lat="35.5488717" lon="129.2914186"></trkpt>
    <trkpt lat="35.5489322" lon="129.2913220"></trkpt>
    <trkpt lat="35.5489791" lon="129.2912471"></trkpt>
    <trkpt lat="35.5491491" lon="129.2908745"></trkpt>
    <trkpt lat="35.5491875" lon="129.2907107"></trkpt>
    <trkpt lat="35.5491533" lon="129.2904233"></trkpt>
    <trkpt lat="35.5491853" lon="129.2903891"></trkpt>
    <trkpt lat="35.5492464" lon="129.2903235"></trkpt>
    <trkpt lat="35.5492721" lon="129.2902959"></trkpt>
    <trkpt lat="35.5493251" lon="129.2900543"></trkpt>
    <trkpt lat="35.5496410" lon="129.2897257"></trkpt>
    <trkpt lat="35.5497177" lon="129.2896323"></trkpt>
    <trkpt lat="35.5498411" lon="129.2894443"></trkpt>
    <trkpt lat="35.5503135" lon="129.2883289"></trkpt>
    <trkpt lat="35.5506741" lon="129.2875442"></trkpt>
    <trkpt lat="35.5507105" lon="129.2874345"></trkpt>
    <trkpt lat="35.5524635" lon="129.2832958"></trkpt>
    <trkpt lat="35.5528673" lon="129.2823034"></trkpt>
    <trkpt lat="35.5538449" lon="129.2794549"></trkpt>
    <trkpt lat="35.5538776" lon="129.2793798"></trkpt>
    <trkpt lat="35.5540522" lon="129.2787012"></trkpt>
    <trkpt lat="35.5541766" lon="129.2774996"></trkpt>
    <trkpt lat="35.5543471" lon="129.2755960"></trkpt>
    <trkpt lat="35.5543774" lon="129.2752572"></trkpt>
    <trkpt lat="35.5544144" lon="129.2747020"></trkpt>
    <trkpt lat="35.5545017" lon="129.2742460"></trkpt>
    <trkpt lat="35.5548116" lon="129.2736399"></trkpt>
    <trkpt lat="35.5555252" lon="129.2729452"></trkpt>
    <trkpt lat="35.5555864" lon="129.2728589"></trkpt>
    <trkpt lat="35.5556681" lon="129.2727060"></trkpt>
    <trkpt lat="35.5559711" lon="129.2717218"></trkpt>
    <trkpt lat="35.5561515" lon="129.2711614"></trkpt>
    <trkpt lat="35.5564023" lon="129.2705251"></trkpt>
    <trkpt lat="35.5565344" lon="129.2701793"></trkpt>
    <trkpt lat="35.5567585" lon="129.2695559"></trkpt>
    <trkpt lat="35.5570700" lon="129.2688530"></trkpt>
    <trkpt lat="35.5571802" lon="129.2685682"></trkpt>
    <trkpt lat="35.5572866" lon="129.2683977"></trkpt>
    <trkpt lat="35.5576247" lon="129.2680008"></trkpt>
    <trkpt lat="35.5578641" lon="129.2678326"></trkpt>
    <trkpt lat="35.5580616" lon="129.2677649"></trkpt>
    <trkpt lat="35.5583504" lon="129.2677089"></trkpt>
    <trkpt lat="35.5586182" lon="129.2676855"></trkpt>
    <trkpt lat="35.5587233" lon="129.2677118"></trkpt>
    <trkpt lat="35.5587504" lon="129.2677201"></trkpt>
    <trkpt lat="35.5587871" lon="129.2676737"></trkpt>
    <trkpt lat="35.5590219" lon="129.2669610"></trkpt>
    <trkpt lat="35.5590166" lon="129.2669371"></trkpt>
    <trkpt lat="35.5588028" lon="129.2667038"></trkpt>
    <trkpt lat="35.5587978" lon="129.2666730"></trkpt>
    <trkpt lat="35.5587978" lon="129.2665990"></trkpt>
    <trkpt lat="35.5590942" lon="129.2655512"></trkpt>
    <trkpt lat="35.5580053" lon="129.2641900"></trkpt>
    <trkpt lat="35.5579818" lon="129.2641634"></trkpt>
    <trkpt lat="35.5580986" lon="129.2639881"></trkpt>
    <trkpt lat="35.5582126" lon="129.2637914"></trkpt>
    <trkpt lat="35.5583964" lon="129.2634572"></trkpt>
    <trkpt lat="35.5590645" lon="129.2625882"></trkpt>
    <trkpt lat="35.5593416" lon="129.2622603"></trkpt>
    <trkpt lat="35.5596497" lon="129.2621075"></trkpt>
    <trkpt lat="35.5600356" lon="129.2615060"></trkpt>
    <trkpt lat="35.5608435" lon="129.2595993"></trkpt>
    <trkpt lat="35.5610765" lon="129.2589882"></trkpt>
    <trkpt lat="35.5611490" lon="129.2586699"></trkpt>
    <trkpt lat="35.5611361" lon="129.2585378"></trkpt>
    <trkpt lat="35.5608655" lon="129.2583388"></trkpt>
    <trkpt lat="35.5609445" lon="129.2580683"></trkpt>
    <trkpt lat="35.5611154" lon="129.2581367"></trkpt>
    <trkpt lat="35.5611607" lon="129.2581240"></trkpt>
    <trkpt lat="35.5611840" lon="129.2580507"></trkpt>
    <trkpt lat="35.5612824" lon="129.2563017"></trkpt>
    <trkpt lat="35.5612711" lon="129.2561912"></trkpt>
    <trkpt lat="35.5612824" lon="129.2560852"></trkpt>
    <trkpt lat="35.5612813" lon="129.2560343"></trkpt>
    <trkpt lat="35.5612735" lon="129.2559532"></trkpt>
    <trkpt lat="35.5614045" lon="129.2554543"></trkpt>
    <trkpt lat="35.5613914" lon="129.2548750"></trkpt>
    <trkpt lat="35.5612386" lon="129.2538879"></trkpt>
    <trkpt lat="35.5611470" lon="129.2517583"></trkpt>
    <trkpt lat="35.5610204" lon="129.2511628"></trkpt>
    <trkpt lat="35.5607891" lon="129.2501167"></trkpt>
    <trkpt lat="35.5608590" lon="129.2489956"></trkpt>
    <trkpt lat="35.5608677" lon="129.2480085"></trkpt>
    <trkpt lat="35.5609288" lon="129.2471234"></trkpt>
    <trkpt lat="35.5611121" lon="129.2451761"></trkpt>
    <trkpt lat="35.5611150" lon="129.2451526"></trkpt>
    <trkpt lat="35.5611121" lon="129.2451761"></trkpt>
    <trkpt lat="35.5609288" lon="129.2471234"></trkpt>
    <trkpt lat="35.5608677" lon="129.2480085"></trkpt>
    <trkpt lat="35.5608590" lon="129.2489956"></trkpt>
    <trkpt lat="35.5607891" lon="129.2501167"></trkpt>
    <trkpt lat="35.5610204" lon="129.2511628"></trkpt>
    <trkpt lat="35.5611470" lon="129.2517583"></trkpt>
    <trkpt lat="35.5612386" lon="129.2538879"></trkpt>
    <trkpt lat="35.5613914" lon="129.2548750"></trkpt>
    <trkpt lat="35.5614045" lon="129.2554543"></trkpt>
    <trkpt lat="35.5612735" lon="129.2559532"></trkpt>
    <trkpt lat="35.5612813" lon="129.2560343"></trkpt>
    <trkpt lat="35.5612824" lon="129.2560852"></trkpt>
    <trkpt lat="35.5612711" lon="129.2561912"></trkpt>
    <trkpt lat="35.5612824" lon="129.2563017"></trkpt>
    <trkpt lat="35.5611840" lon="129.2580507"></trkpt>
    <trkpt lat="35.5611607" lon="129.2581240"></trkpt>
    <trkpt lat="35.5611154" lon="129.2581367"></trkpt>
    <trkpt lat="35.5609445" lon="129.2580683"></trkpt>
    <trkpt lat="35.5608655" lon="129.2583388"></trkpt>
    <trkpt lat="35.5611361" lon="129.2585378"></trkpt>
    <trkpt lat="35.5611490" lon="129.2586699"></trkpt>
    <trkpt lat="35.5610765" lon="129.2589882"></trkpt>
    <trkpt lat="35.5608435" lon="129.2595993"></trkpt>
    <trkpt lat="35.5600356" lon="129.2615060"></trkpt>
    <trkpt lat="35.5596497" lon="129.2621075"></trkpt>
    <trkpt lat="35.5593416" lon="129.2622603"></trkpt>
    <trkpt lat="35.5590645" lon="129.2625882"></trkpt>
    <trkpt lat="35.5583964" lon="129.2634572"></trkpt>
    <trkpt lat="35.5582126" lon="129.2637914"></trkpt>
    <trkpt lat="35.5580986" lon="129.2639881"></trkpt>
    <trkpt lat="35.5579818" lon="129.2641634"></trkpt>
    <trkpt lat="35.5580053" lon="129.2641900"></trkpt>
    <trkpt lat="35.5590942" lon="129.2655512"></trkpt>
    <trkpt lat="35.5587978" lon="129.2665990"></trkpt>
    <trkpt lat="35.5587978" lon="129.2666730"></trkpt>
    <trkpt lat="35.5588028" lon="129.2667038"></trkpt>
    <trkpt lat="35.5590166" lon="129.2669371"></trkpt>
    <trkpt lat="35.5590219" lon="129.2669610"></trkpt>
    <trkpt lat="35.5587871" lon="129.2676737"></trkpt>
    <trkpt lat="35.5587504" lon="129.2677201"></trkpt>
    <trkpt lat="35.5587233" lon="129.2677118"></trkpt>
    <trkpt lat="35.5586182" lon="129.2676855"></trkpt>
    <trkpt lat="35.5583504" lon="129.2677089"></trkpt>
    <trkpt lat="35.5580616" lon="129.2677649"></trkpt>
    <trkpt lat="35.5578641" lon="129.2678326"></trkpt>
    <trkpt lat="35.5576247" lon="129.2680008"></trkpt>
    <trkpt lat="35.5572866" lon="129.2683977"></trkpt>
    <trkpt lat="35.5571802" lon="129.2685682"></trkpt>
    <trkpt lat="35.5570700" lon="129.2688530"></trkpt>
    <trkpt lat="35.5567585" lon="129.2695559"></trkpt>
    <trkpt lat="35.5565344" lon="129.2701793"></trkpt>
    <trkpt lat="35.5564023" lon="129.2705251"></trkpt>
    <trkpt lat="35.5561515" lon="129.2711614"></trkpt>
    <trkpt lat="35.5559711" lon="129.2717218"></trkpt>
    <trkpt lat="35.5556681" lon="129.2727060"></trkpt>
    <trkpt lat="35.5555864" lon="129.2728589"></trkpt>
    <trkpt lat="35.5555252" lon="129.2729452"></trkpt>
    <trkpt lat="35.5548116" lon="129.2736399"></trkpt>
    <trkpt lat="35.5545017" lon="129.2742460"></trkpt>
    <trkpt lat="35.5544144" lon="129.2747020"></trkpt>
    <trkpt lat="35.5543774" lon="129.2752572"></trkpt>
    <trkpt lat="35.5543471" lon="129.2755960"></trkpt>
    <trkpt lat="35.5541766" lon="129.2774996"></trkpt>
    <trkpt lat="35.5540522" lon="129.2787012"></trkpt>
    <trkpt lat="35.5538776" lon="129.2793798"></trkpt>
    <trkpt lat="35.5538449" lon="129.2794549"></trkpt>
    <trkpt lat="35.5528673" lon="129.2823034"></trkpt>
    <trkpt lat="35.5524635" lon="129.2832958"></trkpt>
    <trkpt lat="35.5507105" lon="129.2874345"></trkpt>
    <trkpt lat="35.5506741" lon="129.2875442"></trkpt>
    <trkpt lat="35.5503135" lon="129.2883289"></trkpt>
    <trkpt lat="35.5498411" lon="129.2894443"></trkpt>
    <trkpt lat="35.5497177" lon="129.2896323"></trkpt>
    <trkpt lat="35.5496410" lon="129.2897257"></trkpt>
    <trkpt lat="35.5493251" lon="129.2900543"></trkpt>
    <trkpt lat="35.5492721" lon="129.2902959"></trkpt>
    <trkpt lat="35.5492464" lon="129.2903235"></trkpt>
    <trkpt lat="35.5491853" lon="129.2903891"></trkpt>
    <trkpt lat="35.5491533" lon="129.2904233"></trkpt>
    <trkpt lat="35.5491875" lon="129.2907107"></trkpt>
    <trkpt lat="35.5491491" lon="129.2908745"></trkpt>
    <trkpt lat="35.5489791" lon="129.2912471"></trkpt>
    <trkpt lat="35.5489322" lon="129.2913220"></trkpt>
    <trkpt lat="35.5488717" lon="129.2914186"></trkpt>
    <trkpt lat="35.5487698" lon="129.2914433"></trkpt>
    <trkpt lat="35.5488166" lon="129.2917198"></trkpt>
    <trkpt lat="35.5488166" lon="129.2920466"></trkpt>
    <trkpt lat="35.5488166" lon="129.2920909"></trkpt>
    <trkpt lat="35.5486389" lon="129.2922656"></trkpt>
    <trkpt lat="35.5484835" lon="129.2925052"></trkpt>
    <trkpt lat="35.5483369" lon="129.2927314"></trkpt>
    <trkpt lat="35.5482918" lon="129.2930510"></trkpt>
    <trkpt lat="35.5483442" lon="129.2930036"></trkpt>
  </trkseg></trk>
</gpx>